Ward,Division,Address,latitude,longitude,Name,Building Accessibility,Parking Accessibility
1.0,1.0,1501 S 10TH ST,39.9305452218496,-75.1609632832955,ANNUNCIATION CHURCH,B,N
1.0,2.0,1501 S 10TH ST,39.9305452218496,-75.1609632832955,ANNUNCIATION CHURCH,B,N
1.0,3.0,1430 E PASSYUNK AVE,39.9318945757415,-75.1623423868193,SO PHILA OLDER ADULT CENTER,F,L
1.0,4.0,1736 S 10TH ST,39.9275420232936,-75.1619974496777,SS NEUMANN GORETTI HIGH SCHOOL,A,L
1.0,5.0,1815 S 08TH ST,39.9262098375869,-75.1588205375956,GARAGE,B,N
1.0,6.0,3RD & MIFFLIN STS,39.9243062922007,-75.1501019582784,FURNESS SCHOOL,A,N
1.0,7.0,6TH & SNYDER AVE,39.9226896011199,-75.1566276525568,FORD RECREATION CENTER,F,N
1.0,8.0,1736 S 10TH ST,39.9275420232936,-75.1619974496777,SS NEUMANN GORETTI HIGH SCHOOL,B,L
1.0,9.0,1501 S 10TH ST,39.9305452218496,-75.1609632832955,ANNUNCIATION CHURCH,B,N
1.0,10.0,1430 E PASSYUNK AVE,39.9318945757415,-75.1623423868193,SO PHILA OLDER ADULT CENTER,F,L
1.0,11.0,1200 WHARTON ST,39.9331551189469,-75.1647773084023,COLUMBUS SQUARE REC CENTER,F,N
1.0,12.0,641 REED ST,39.9315177696693,-75.1558749029891,CHOBERT DECORATORS GARAGE,M,N
1.0,13.0,410 WHARTON ST,39.9319217910824,-75.1517641616867,MT MORIAH CHURCH,M,N
1.0,14.0,4TH & TASKER STS,39.9283379002628,-75.1521315571668,DICKINSON SQUARE REC CENTER,F,L
1.0,15.0,4TH & TASKER STS,39.9283379002628,-75.1521315571668,DICKINSON SQUARE REC CENTER,F,L
1.0,16.0,410 WHARTON ST,39.9319217910824,-75.1517641616867,MT MORIAH CHURCH,M,N
1.0,17.0,250 REED ST,39.9305279776558,-75.1497111216902,HERRON RECREATION CENTER,M,N
1.0,18.0,1728 S 02ND ST,39.9258784595354,-75.1497622002173,OREGON NEW YEARS ASSOC,F,N
1.0,19.0,250 REED ST,39.9305279776558,-75.1497111216902,HERRON RECREATION CENTER,M,N
1.0,20.0,1200 WHARTON ST,39.9331551189469,-75.1647773084023,COLUMBUS SQUARE REC CENTER,F,N
1.0,21.0,1728 S 2ND ST,39.9258784595354,-75.1497622002173,OREGON NEW YEARS ASSOC,F,N
2.0,1.0,1100 S 02ND ST,39.9336418129025,-75.1473373563129,MUMMERS MUSEUM,B,N
2.0,2.0,240 WASHINGTON AVE,39.9337643592323,-75.1490894808459,FIRE ENGINE CO # 03,B,L
2.0,3.0,612-32 WASHINGTON AVE,39.9345337832603,-75.1546859705342,SAIGON MAXIM RESTAURANT,M,L
2.0,4.0,612-32 WASHINGTON AVE,39.9345337832603,-75.1546859705342,SAIGON MAXIM RESTAURANT,M,L
2.0,5.0,1013 ELLSWORTH ST,39.9358081197865,-75.1606414969698,ST MARONS CHURCH,M,L
2.0,6.0,1200 WHARTON ST,39.9331551189469,-75.1647773084023,COLUMBUS SQUARE REC CENTER,F,N
2.0,7.0,1013 ELLSWORTH ST,39.9358081197865,-75.1606414969698,ST MARONS CHURCH,M,L
2.0,8.0,1013 ELLSWORTH ST,39.9358081197865,-75.1606414969698,ST MARONS CHURCH,M,L
2.0,9.0,11TH & CATHARINE STS,39.9401341157696,-75.1607596004517,ACADEMY AT PALUMBO SCHOOL,M,N
2.0,10.0,1013 ELLSWORTH ST,39.9358081197865,-75.1606414969698,ST MARONS CHURCH,M,L
2.0,11.0,928 S 7TH ST,39.9372293737391,-75.1552359072049,SANTORE (SOUTHWARK) LIBRARY,A,N
2.0,12.0,612-32 WASHINGTON AVE,39.9345337832603,-75.1546859705342,SAIGON MAXIM RESTAURANT,M,L
2.0,13.0,1021 S 04TH ST,39.9353424011422,-75.1505572983623,ACTIVITIES CTR @ THE TOWER,F,L
2.0,14.0,1021 S 04TH ST,39.9353424011422,-75.1505572983623,ACTIVITIES CTR @ THE TOWER,F,L
2.0,15.0,242 FITZWATER ST,39.9385418157085,-75.1475865900654,ST STANISLAUS PARISH HALL,M,L
2.0,16.0,400 CATHARINE ST,39.9382222888566,-75.1499474454681,WECCACOE RECREATION CENTER,M,N
2.0,17.0,719 CATHARINE ST,39.9392209894304,-75.1552597615558,FLEISHER ART MEMORIAL,R,L
2.0,18.0,9TH & BAINBRIDGE STS,39.9417384333802,-75.1572531368761,PALUMBO RECREATION CENTER,F,N
2.0,19.0,11TH & CATHARINE STS,39.9401341157696,-75.1607596004517,ACADEMY AT PALUMBO SCHOOL,M,N
2.0,20.0,711 S BROAD ST,39.9425283547533,-75.1653911944821,FIREHOUSE,M,N
2.0,21.0,711 S BROAD ST,39.9425283547533,-75.1653911944821,FIREHOUSE,M,N
2.0,22.0,9TH & BAINBRIDGE STS,39.9417384333802,-75.1572531368761,PALUMBO RECREATION CENTER,F,N
2.0,23.0,9TH & BAINBRIDGE STS,39.9417384333802,-75.1572531368761,PALUMBO RECREATION CENTER,F,N
2.0,24.0,719 CATHARINE ST,39.9392209894304,-75.1552597615558,FLEISHER ART MEMORIAL,R,L
2.0,25.0,707 E PASSYUNK AVE,39.9404330720692,-75.1508143848112,WALLPAPER STORE,R,N
2.0,26.0,242 FITZWATER ST,39.9385418157085,-75.1475865900654,ST STANISLAUS PARISH HALL,M,L
2.0,27.0,242 FITZWATER ST,39.9385418157085,-75.1475865900654,ST STANISLAUS PARISH HALL,M,L
3.0,1.0,143 S 60TH ST,39.959296445297,-75.2410670500311,BABYS SALON,M,N
3.0,2.0,6224 MARKET ST,39.9622389537135,-75.245651407176,MEMORIAL GOSPEL CHURCH,R,L
3.0,3.0,6212 WALNUT ST,39.9589068324784,-75.2463630605933,CARE PAVILION,A,L
3.0,4.0,6212 WALNUT ST,39.9589068324784,-75.2463630605933,CARE PAVILION,A,L
3.0,5.0,5843 SPRUCE ST,39.9564704058606,-75.2391765928467,TABERNACLE LUTHERAN CHURCH,M,N
3.0,6.0,286 S 62ND ST,39.95735706587,-75.246070447689,GARAGE/OFFICE,R,N
3.0,7.0,5843 SPRUCE ST,39.9564704058606,-75.2391765928467,TABERNACLE LUTHERAN CHURCH,M,N
3.0,8.0,6150 CEDAR AVE,39.9526692805454,-75.2465750528941,CHRISTIAN COMPASSION CDC,F,L
3.0,9.0,6150 CEDAR AVE,39.9526692805454,-75.2465750528941,CHRISTIAN COMPASSION CDC,F,L
3.0,10.0,520 S 61ST ST,39.9532035918581,-75.245010265871,ST GEORGE ST BARNABAS CHURCH,M,L
3.0,11.0,61ST & COBBS CREEK PKWY,39.9465611222358,-75.2460001665393,ANDERSON SCHOOL,F,L
3.0,12.0,60TH & CEDAR AVE,39.9524335641187,-75.2427548479932,BRYANT SCHOOL,M,L
3.0,13.0,60TH & CEDAR AVE,39.9524335641187,-75.2427548479932,BRYANT SCHOOL,M,L
3.0,14.0,60TH & CEDAR AVE,39.9524335641187,-75.2427548479932,BRYANT SCHOOL,M,L
3.0,15.0,61ST & COBBS CREEK PKWY,39.9465611222358,-75.2460001665393,ANDERSON SCHOOL,F,L
3.0,16.0,61ST & COBBS CREEK PKWY,39.9465611222358,-75.2460001665393,ANDERSON SCHOOL,F,L
3.0,17.0,59TH & BALTIMORE AVE,39.9452987995869,-75.2417718656893,BLANCHE NIXON LIBRARY,F,L
3.0,18.0,59TH & BALTIMORE AVE,39.9452987995869,-75.2417718656893,TURNER SCHOOL,F,L
3.0,19.0,5841 CATHARINE ST,39.950785646526,-75.2403036921365,SHARON COMMUNITY CENTER,F,L
3.0,20.0,58TH & WILLOWS AVE,39.9402930418165,-75.2336331558821,LONGSTRETH SCHOOL,F,L
3.0,21.0,58TH & KINGSESSING AVE,39.9346625610584,-75.2272522951339,FRANCIS MYERS REC CENTER,A,L
3.0,22.0,58TH & WILLOWS AVE,39.9402930418165,-75.2336331558821,LONGSTRETH SCHOOL,F,L
4.0,1.0,5501 MARKET ST,39.9616467461064,-75.231644230199,SALVATION ARMY,M,L
4.0,2.0,5620 WYALUSING AVE,39.9684269741874,-75.2328847886031,CAMPHOR MEMORIAL U M CHURCH,F,L
4.0,3.0,5620 WYALUSING AVE,39.9684269741874,-75.2328847886031,CAMPHOR MEMORIAL U M CHURCH,F,L
4.0,4.0,53RD & MEDIA STS,39.975616855977,-75.2279457013354,CONESTOGA COMM REC CENTER,F,L
4.0,5.0,54TH & LANSDOWNE AVE,39.9770706917142,-75.2298560608759,HESTON SCHOOL,R,N
4.0,6.0,59TH & OXFORD STS,39.9804253578001,-75.2393797209878,OVERBROOK HIGH SCHOOL,B,L
4.0,7.0,5501 MARKET ST,39.9616467461064,-75.231644230199,SALVATION ARMY,M,L
4.0,8.0,5600 RACE ST,39.9637521321982,-75.2328509997932,MAHLON LEWIS APTS,M,L
4.0,9.0,659 N 56TH ST,39.9702359296282,-75.2322216895444,CHURCH PROPERTY,M,N
4.0,10.0,58TH & MEDIA STS,39.9747489125278,-75.2365200843145,UNIVERSAL BLUFORD CHARTER,M,N
4.0,11.0,1540-52 N 56TH ST,39.9761440039211,-75.2338909985647,TRUTH MEMORIAL CHURCH,F,L
4.0,12.0,5732 RACE ST,39.9640382424809,-75.2351280924329,MT CARMEL BAPTIST CHURCH,F,N
4.0,13.0,230 N 57TH ST,39.9654878313475,-75.2343570567051,ST MATTHEWS MANOR,F,L
4.0,14.0,5543 HAVERFORD AVE,39.9674214833035,-75.2311160682936,HAVERFORD BRANCH LIBRARY,F,N
4.0,15.0,5543 HAVERFORD AVE,39.9674214833035,-75.2311160682936,HAVERFORD BRANCH LIBRARY,F,N
4.0,16.0,58TH & MEDIA STS,39.9747489125278,-75.2365200843145,UNIVERSAL BLUFORD CHARTER,M,N
4.0,17.0,58TH & MEDIA STS,39.9747489125278,-75.2365200843145,UNIVERSAL BLUFORD CHARTER,M,N
4.0,18.0,1536 N 59TH ST,39.975443035,-75.2388750570446,SWEET UNION BAPTIST CHURCH,M,N
4.0,19.0,59TH & RACE STS,39.9648118606725,-75.2381370276923,BARRY SCHOOL,M,N
4.0,20.0,59TH & RACE STS,39.9648118606725,-75.2381370276923,BARRY SCHOOL,M,N
4.0,21.0,59TH & OXFORD STS,39.9804253578001,-75.2393797209878,OVERBROOK HIGH SCHOOL,B,L
5.0,1.0,261 ST JAMES PLACE,39.9460600031819,-75.1461111553627,SOCIETY HILL TOWERS COMM ROOM,F,N
5.0,2.0,401 LOMBARD ST,39.9429255752094,-75.1493097165308,OLD PINE ST COMM CENTER,M,N
5.0,3.0,6TH & WASHINGTON SQ,39.9461053950912,-75.1514440069042,HOPKINSON HOUSE,B,L
5.0,4.0,6TH & LOMBARD STS,39.9430258014322,-75.1521189761028,STARR GARDEN RECREATION CENTER,F,N
5.0,5.0,256 S 08TH ST,39.9461681646393,-75.1549730770445,GREEK ORTHODOX CHURCH,R,N
5.0,6.0,1020 LOCUST STREET,39.9471320714971,-75.1584937089142,THOMAS JEFFERSON ALUMNI HALL,F,N
5.0,7.0,1138 PINE ST,39.9448827781396,-75.1611663073711,PINE ST PIZZA,R,N
5.0,8.0,10TH & LOMBARD STS,39.9438156657832,-75.1584155233144,SEGER RECREATION CENTER,F,N
5.0,9.0,330 S 13TH ST,39.9458863415639,-75.1631654451825,CHURCH OF ST LUKE AND EPIPHANY,F,N
5.0,10.0,3  N CHRIS COLUMBUS BLVD,39.9509689664764,-75.1399738960545,PIER 3 PENNS LANDING,M,L
5.0,11.0,950 WALNUT ST,39.948108494882,-75.1567365986383,BARRINGER RESIDENCE LOUNGE,F,L
5.0,12.0,1020 LOCUST ST,39.9471320714971,-75.1584937089142,THOM JEFFERSON ALUMNI HALL,F,N
5.0,13.0,225 N 10TH ST,39.9560962534133,-75.1557197341361,CHINESE CHURCH & CHRISTIAN CTR,M,N
5.0,14.0,401 S BROAD STREET,39.9452394392713,-75.1646815118356,UNIVERSITY OF THE ARTS BLDG,A,N
5.0,15.0,4TH & GEORGE STS,39.9679439591116,-75.1435242814403,BODINE H.S. FOR INTNTL AFFAIRS,A,N
5.0,16.0,330 RACE ST,39.9538851151833,-75.1461174871933,OLD FIRST REFORMED CHURCH,R,N
5.0,17.0,4TH & GEORGE STS,39.9679439591116,-75.1435242814403,BODINE H.S. FOR INTNTL AFFAIRS,A,N
5.0,18.0,409 S 2ND ST,39.9428361557962,-75.1448853333687,SOCIETY HILL DANCE ACADEMY,N,N
5.0,19.0,7TH & DELANCEY STS,39.944737791719,-75.1533657229185,MC CALL SCHOOL,M,N
5.0,20.0,600 W GIRARD AVE,39.9701111175018,-75.1468768430744,RODRIGUEZ BRANCH LIBRARY,B,N
5.0,21.0,700 N 3RD ST,39.9625176525787,-75.1432526458637,NORTHERN LIBERTIES ASSOC,A,N
5.0,22.0,509 S BROAD ST,39.9441852561867,-75.1649428330518,PHILADELPHIA SENIOR CENTER,F,N
5.0,23.0,725 N 06TH ST,39.9641751216242,-75.1474290843531,URBAN DEFENSE FITNESS CENTER,M,N
5.0,24.0,225 N 10TH ST,39.9560962534133,-75.1557197341361,CHINESE CHURCH & CHRISTIAN CTR,M,N
5.0,25.0,1023 CALLOWHILL ST,39.9590661893586,-75.1561256271612,F.A.C.T.CHARTER SCHOOL,B,N
5.0,26.0,330 RACE ST,39.9538851151833,-75.1461174871933,OLD FIRST REFORMED CHURCH,R,N
5.0,27.0,230 VINE ST,39.9555016175201,-75.1438929632963,THE PAINTED BRIDE,B,N
5.0,28.0,330 S 13TH ST,39.9458863415639,-75.1631654451825,CHURCH OF ST LUKE AND EPIPHANY,F,N
5.0,29.0,1315 SPRUCE ST,39.9471008446414,-75.1633154580622,WILLIAM WAY COMM CENTER,B,N
6.0,1.0,43RD & MARKET STS,39.957916807441,-75.2081287310197,FIRE ENGINE CO # 05,M,L
6.0,2.0,4400 FAIRMOUNT AVE,39.9638668603126,-75.2115080003941,ANGELA COURT NURSING HOME,F,H
6.0,3.0,642 N 41ST ST,39.9636706885134,-75.2061226401844,SHEPARD SENIOR CENTER,F,L
6.0,4.0,4445 HOLDEN ST,39.959763977866,-75.2106406388608,WEST PARK HOMES (PHA),F,L
6.0,5.0,642 N 41ST ST,39.9636706885134,-75.2061226401844,SHEPARD SENIOR CENTER,F,L
6.0,6.0,46TH & HAVERFORD AVE,39.9625781002085,-75.2130617891257,LOCKE SCHOOL,F,L
6.0,7.0,642 N 41ST ST,39.9636706885134,-75.2061226401844,SHEPARD SENIOR CENTER,F,L
6.0,8.0,4400 ASPEN ST,39.9654372379862,-75.2111138297415,MARTHA WASHINGTON SCHOOL,M,L
6.0,9.0,4035 PARRISH ST,39.968453167508,-75.204073279337,SARAH ALLEN SENIOR HOUSING,F,H
6.0,10.0,43RD & WESTMINSTER ST,39.9698053487562,-75.2101383649593,PHILA LEARNING INSTITUTE SOUTH,M,L
6.0,11.0,4035 PARRISH ST,39.968453167508,-75.204073279337,SARAH ALLEN SENIOR HOUSING,F,H
6.0,12.0,4400 ASPEN ST,39.9654372379862,-75.2111138297415,MARTHA WASHINGTON SCHOOL,M,L
6.0,13.0,43RD & WESTMINSTER ST,39.9698053487562,-75.2101383649593,PHILA LEARNING CENTER SOUTH,M,L
6.0,14.0,4159 W GIRARD AVE,39.9739462604155,-75.2096749622119,1ST AFRICAN PRESBYTER CHURCH,M,L
6.0,15.0,40TH ST & PARKSIDE AVE,39.9744185335275,-75.2043623069866,SCHOOL OF THE FUTURE,F,H
6.0,16.0,4435 PARRISH ST,39.9681149306946,-75.2123593352464,JAMESON COURT,F,L
6.0,17.0,BELMONT AVE & VIOLA ST,39.9765466860431,-75.2131227278229,FIRE ENGINE CO # 16,M,L
6.0,18.0,1030 BELMONT AVE,39.9726197458381,-75.2125265675411,STEPHEN SMITH TOWERS,M,H
7.0,1.0,216 W SOMERSET ST,39.9929444575278,-75.1354183581946,CONGRESO DE LATINOS,M,N
7.0,2.0,216 W SOMERSET ST,39.9929444575278,-75.1354183581946,CONGRESO DE LATINOS,M,N
7.0,3.0,216 W SOMERSET ST,39.9929444575278,-75.1354183581946,CONGRESO DE LATINOS,M,N
7.0,4.0,3150 N MASCHER ST,39.998192638968,-75.1316811205488,SALVATION ARMY,F,N
7.0,5.0,167 W ALLEGHENY AVE,39.9990193466747,-75.1307208060991,VILLAS DEL CARIBE,F,H
7.0,6.0,HOWARD & ONTARIO STS,40.00176360375,-75.1296507190017,SCHMIDT RECREATION CENTER,R,L
7.0,7.0,122 W ERIE AVE,40.0067758166862,-75.1291930257138,ROBERTO CLEMENTE SCHOOL,B,L
7.0,8.0,4261 N 05TH ST,40.0158690177971,-75.1341353455662,NUEVA ESPERANZA BUILDING,F,N
7.0,9.0,4261 N 05TH ST,40.0158690177971,-75.1341353455662,NUEVA ESPERANZA BUILDING,F,N
7.0,10.0,D & CLEARFIELD STS,39.995921395554,-75.1216178962573,ELKIN SCHOOL,M,L
7.0,11.0,B & ALLEGHENY AVE,39.9980449968496,-75.1253813517128,ASPIRA STETSON CHARTER SCHOOL,R,N
7.0,12.0,HOWARD & ONTARIO STS,40.00176360375,-75.1296507190017,CRAMP SCHOOL,M,N
7.0,13.0,200 E SOMERSET ST,39.9917665483349,-75.1279656149829,SOMERSET VILLAS,F,H
7.0,14.0,3255 N FRONT ST,39.9997741489728,-75.1286562496235,STOREFRONT,M,N
7.0,15.0,B & ALLEGHENY AVE,39.9980449968496,-75.1253813517128,ASPIRA STETSON CHARTER SCHOOL,R,N
7.0,16.0,D & CLEARFIELD STS,39.995921395554,-75.1216178962573,ELKIN SCHOOL,M,L
7.0,17.0,200 E SOMERSET ST,39.9917665483349,-75.1279656149829,SOMERSET VILLAS,F,H
7.0,18.0,B & ALLEGHENY AVE,39.9980449968496,-75.1253813517128,ASPIRA STETSON CHARTER SCHOOL,R,N
7.0,19.0,B & ALLEGHENY AVE,39.9980449968496,-75.1253813517128,ASPIRA STETSON CHARTER SCHOOL,R,N
7.0,20.0,2937 BOUDINOT @HART LA,39.9940223741496,-75.1230093756003,FIRE ENGINE CO # 25,F,N
7.0,21.0,D & CLEARFIELD STS,39.995921395554,-75.1216178962573,ELKIN SCHOOL,M,L
7.0,22.0,D & CLEARFIELD STS,39.995921395554,-75.1216178962573,ELKIN SCHOOL,M,L
7.0,23.0,2937 BOUDINOT @HART LA,39.9940223741496,-75.1230093756003,FIRE ENGINE CO # 25,F,N
8.0,1.0,2212 SPRUCE ST,39.9484305197513,-75.1782370037034,TRINITY MEMORIAL CHURCH,B,N
8.0,2.0,2212 SPRUCE ST,39.9484305197513,-75.1782370037034,TRINITY MEMORIAL CHURCH,B,N
8.0,3.0,1800 LOMBARD ST,39.9450441297951,-75.1725992509694,PENN MEDICINE,F,H
8.0,4.0,1800 LOMBARD ST,39.9450441297951,-75.1725992509694,PENN MEDICINE,F,H
8.0,5.0,1701 LOCUST ST,39.949144369459,-75.1695463167629,THE WARWICK HOTEL,B,N
8.0,6.0,1701 LOCUST ST,39.949144369459,-75.1695463167629,THE WARWICK HOTEL,B,N
8.0,7.0,22 S 22ND ST,39.953380166503,-75.177171818668,SIDNEY HILLMAN APTS,F,L
8.0,8.0,2111 SANSOM ST,39.9516251187073,-75.1762114743917,HOLY COMMUNION LUTHERAN CHURCH,M,N
8.0,9.0,22 S 22ND ST,39.953380166503,-75.177171818668,SIDNEY HILLMAN APTS,F,L
8.0,10.0,2111 SANSOM ST,39.9516251187073,-75.1762114743917,HOLY COMMUNION LUTHERAN CHURCH,M,N
8.0,11.0,1701 LOCUST ST,39.949144369459,-75.1695463167629,THE WARWICK HOTEL,B,N
8.0,12.0,2111 SANSOM ST,39.9516251187073,-75.1762114743917,HOLY COMMUNION LUTHERAN CHURCH,M,N
8.0,13.0,22ND & CHESTNUT STS,39.9524950631387,-75.1770020481116,GREENFIELD SCHOOL,M,N
8.0,14.0,BROAD & LOMBARD STS,39.9446656016273,-75.1653414017718,DISTRICT 01 HEALTH CENTER,F,N
8.0,15.0,1600 ARCH STREET,39.9545794763524,-75.1669918071635,THE PHOENIX APTS,M,L
8.0,16.0,1919 CHESTNUT ST,39.9524325434642,-75.1723939235583,WILLIAM PENN HOUSE,F,L
8.0,17.0,1801 JOHN F KENNEDY BLVD,39.9545681086748,-75.1705143720767,STERLING HOUSE APTS LOBBY,F,H
8.0,18.0,1900 JOHN F KENNEDY BLVD,39.9542544703039,-75.1721999076191,PENN CENTER HOUSE APTS,M,L
8.0,19.0,150 N 20TH ST,39.957018814901,-75.1727587931734,ATRIA SENIOR HOME,F,N
8.0,20.0,1701 LOCUST ST,39.949144369459,-75.1695463167629,THE WARWICK HOTEL,B,N
8.0,21.0,1420 LOCUST ST,39.9479420110882,-75.1659096182156,ACADEMY HOUSE CONDOMINIUMS,M,L
8.0,22.0,2200 BEN FRANKLIN PKWY,39.9609757742028,-75.1752412170056,PARK TOWNE PLACE SOUTH BLDG,F,L
8.0,23.0,158 N 23RD ST,39.9575357331463,-75.1771005042964,RIVERSIDE PRESBYTERIAN APTS,M,N
8.0,24.0,2201 PENNSYLVANIA AVE,39.9636670698682,-75.1749370653843,PARKWAY HOUSE,M,L
8.0,25.0,2 FRANKLIN TOWN BLVD,39.9599364677747,-75.1681656955526,THE WATERMARK,F,H
8.0,26.0,15TH & GREEN STS,39.96399765909,-75.1628022532214,BEN FRANKLIN HIGH SCHOOL,F,N
8.0,27.0,2400 CHESTNUT ST,39.9524709582583,-75.1797362433831,2400 CHESTNUT ST BLDG,F,H
8.0,28.0,TANEY & PINE STS,39.9478049222549,-75.1832469771172,MARKWARD RECREATION CENTER,F,L
8.0,29.0,1901 J F KENNEDY BLVD,39.9547819706838,-75.1720871124033,KENNEDY HOUSE APTS,F,L
8.0,30.0,17TH ST-SOUTH OF SPRING GA,39.915476747739,-75.1760190882744,RDEN  COMMUNITY COLLEGE-WINNET BLDG,F,H
9.0,1.0,ARDLEIGH & GOWEN STS,40.0664986750713,-75.1889224858231,GRACE EPIPHANY CHURCH,M,L
9.0,2.0,ARDLEIGH & GOWEN STS,40.0664986750713,-75.1889224858231,GRACE EPIPHANY CHURCH,M,L
9.0,3.0,ARDLEIGH & GOWEN STS,40.0664986750713,-75.1889224858231,GRACE EPIPHANY CHURCH,M,L
9.0,4.0,20 E MERMAID LANE,40.0690867181179,-75.1951452314833,CHESTNUT HILL FRIENDS MEETING,F,H
9.0,5.0,HARTWELL & ARDLEIGH STS,40.0744751737504,-75.2013806147614,WATERTOWER RECREATION CENTER,N,L
9.0,6.0,8711 GERMANTOWN AVE,40.0778743031939,-75.2093714777287,CHESTNUT HILL LIBRARY,A,L
9.0,7.0,22 E CHESTNUT HILL AVE,40.0790854217794,-75.2088756542224,ST PAULS EPISCOPAL CHURCH,M,L
9.0,8.0,22 E CHESTNUT HILL AVE,40.0790854217794,-75.2088756542224,ST PAULS EPISCOPAL CHURCH,M,L
9.0,9.0,101 W HIGHLAND AVE,40.0746370569331,-75.2081557693332,FIRE ENGINE CO # 37,M,L
9.0,10.0,8000 ST MARTINS LANE,40.0652970734526,-75.2069151903937,ST MARTIN IN THE FIELDS CHURCH,M,L
9.0,11.0,8000 ST MARTINS LANE,40.0652970734526,-75.2069151903937,ST MARTIN IN THE FIELDS CHURCH,M,L
9.0,12.0,7301 GERMANTOWN AVE,40.061810087978,-75.1911160235967,LUTHERAN THEOLOGICAL SEMINARY,M,L
9.0,13.0,200 W ALLENS LA @ CRESHEIM,40.0576903607707,-75.195420732885,RD   ALLENS LANE TRAIN STATION,B,L
9.0,14.0,601 W ALLENS LANE,40.0518634308725,-75.2029946050051,ALLENS LANE ART CENTER,F,L
9.0,15.0,601 W ALLENS LANE,40.0518634308725,-75.2029946050051,ALLENS LANE ART CENTER,F,L
9.0,16.0,7800 B STENTON AVE,40.0751786858174,-75.1929567412539,CHESTNUT HILL APARTMENTS,M,L
9.0,17.0,7600 STENTON AVE,40.0715549263793,-75.1907948551762,CHESTNUT HILL TOWERS,B,L
10.0,1.0,1807 PENFIELD ST,40.0663627976968,-75.1456172644426,GARAGE,R,N
10.0,2.0,1962 PENFIELD ST,40.066553043525,-75.1492880572197,BEAUTY SALON,M,N
10.0,3.0,7400 BRIAR ROAD,40.0674064699415,-75.1546027551171,CROSS CUTZ SALON,R,N
10.0,4.0,7200 N 21ST ST,40.0644356083759,-75.1525646832675,CONCERNED BLACK MENS OFFICE,M,N
10.0,5.0,7105 LIMEKILN PIKE,40.0612479449308,-75.1544990996223,ST ATHANASIUS SCHOOL,R,L
10.0,6.0,WALNUT LANE & WOOLSTON ST,40.0612350644319,-75.1564201155504,SIMONS REC CENTER,M,H
10.0,7.0,6700 N BROAD ST,40.0553861860519,-75.1416392255427,PILGRIM WESLEYAN CHURCH,B,N
10.0,8.0,6657 OGONTZ AVE,40.0560558206429,-75.1491293663644,BARBER SHOP,M,N
10.0,9.0,6735 N 16TH ST,40.0564971286637,-75.1440017565934,GRACE TEMPLE BAPT CHURCH,N,L
10.0,10.0,6735 N 16TH ST,40.0564971286637,-75.1440017565934,GRACE TEMPLE BAPT CHURCH,N,L
10.0,11.0,6700 N BROAD ST,40.0553861860519,-75.1416392255427,PILGRIM WESLEYAN CHURCH,B,N
10.0,12.0,19TH & HAINES STS,40.058433860009,-75.1492198343371,ROWEN SCHOOL,M,L
10.0,13.0,WASHINGTON LA & LIMEKILN P,40.0669572444378,-75.1582932430052,K     WEST OAK LANE LIBRARY,M,L
10.0,14.0,1901 72ND AVE,40.0640660880751,-75.1476427182694,WRIGHTS BARBERSHOP,R,N
10.0,15.0,7200 N 21ST ST,40.0644356083759,-75.1525646832675,CONCERNED BLACK MENS OFFICE,M,L
10.0,16.0,2116 E HAINES ST,40.0562708373554,-75.1569407951588,ARISE ACADEMY CHARTER H.S.,B,L
10.0,17.0,19TH & HAINES STS,40.058433860009,-75.1492198343371,ROWEN SCHOOL,M,L
10.0,18.0,WALNUT LANE & WOOLSTON ST,40.0612350644319,-75.1564201155504,SIMONS REC CENTER,M,H
10.0,19.0,WALNUT LANE & WOOLSTON ST,40.0612350644319,-75.1564201155504,SIMONS REC CENTER,M,H
10.0,20.0,6600 C LIMEKILN PIKE,40.0549866538156,-75.1530979880737,DAYCARE,M,N
10.0,21.0,19TH & HAINES STS,40.058433860009,-75.1492198343371,ROWEN SCHOOL,M,L
10.0,22.0,7105 LIMEKILN PIKE,40.0612479449308,-75.1544990996223,ST ATHANASIUS SCHOOL,R,L
10.0,23.0,LOWBER & MAYLAND STS,40.0627323175315,-75.1612342685946,CONGREGATION TEMPLE BETHEL,F,L
10.0,24.0,WALNUT LANE & WOOLSTON ST,40.0612350644319,-75.1564201155504,SIMONS REC CENTER,M,H
10.0,25.0,WALNUT LANE & WOOLSTON ST,40.0612350644319,-75.1564201155504,SIMONS REC CENTER,M,H
10.0,26.0,7163 STENTON AVE,40.0593840705697,-75.1644488080565,STOREFRONT,M,N
10.0,27.0,2116 E HAINES ST,40.0562708373554,-75.1569407951588,ARISE ACADEMY CHARTER H S,B,L
10.0,28.0,7163 STENTON AVE,40.0593840705697,-75.1644488080565,STOREFRONT,M,N
10.0,29.0,UPSAL & MANSFIELD STS,40.0635410496742,-75.1698300691757,FINLEY RECREATION CENTER,M,L
11.0,1.0,1701 W LEHIGH AVE,39.9949909318075,-75.1602735632235,OFFICE,B,L
11.0,2.0,22ND & SOMERSET STS,39.9971984473335,-75.1672163164337,NORTH PHILA MUNICIPAL BUILDING,M,N
11.0,3.0,SYDENHAM & CLEARFIELD ST,40.0003204825976,-75.1556877594357,HERITAGE PARK REC CENTER,M,N
11.0,4.0,3600 N BROAD ST,40.0079134512126,-75.1519379588019,ZION BAPTIST CHURCH,M,L
11.0,5.0,1531 W TIOGA ST,40.0068410583226,-75.1546717486138,PHILA SR CTR/TIOGA BRANCH,F,L
11.0,6.0,1531 W TIOGA ST,40.0068410583226,-75.1546717486138,PHILA SR CTR/TIOGA BRANCH,F,L
11.0,7.0,22ND & SOMERSET STS,39.9971984473335,-75.1672163164337,NORTH PHILA MUNICIPAL BUILDING,M,N
11.0,8.0,22ND & CLEARFIELD STS,40.001685069488,-75.1662379477472,PANATI RECREATION CENTER,F,L
11.0,9.0,1531 W TIOGA ST,40.0068410583226,-75.1546717486138,TIOGA PRESBYTERIAN SENIOR HOME,F,L
11.0,10.0,1828 W TIOGA ST,40.0068963423861,-75.1595515846293,TIOGA ARMS APTS,M,N
11.0,11.0,2829 N LAMBERT ST,39.9982222183793,-75.1646102815052,WOODSTOCK HOMES COMM ROOM,M,L
11.0,12.0,1919-1941 W ONTARIO ST,40.0058612642619,-75.160416032077,JEROME BROWN RECREATION CENTER,F,L
11.0,13.0,1628 W ALLEGHENY AVE,40.001883751752,-75.1574573754093,CHURCH ANNEX BUILDING,M,N
11.0,14.0,2233 W ALLEGHENY AVE,40.0039134493699,-75.1669683401182,ALLEGHENY BUSINESS CENTER,B,N
11.0,15.0,2104 W VENANGO ST,40.0088952108942,-75.1640395463328,VENANGO HOUSE,F,L
11.0,16.0,2104 W VENANGO ST,40.0088952108942,-75.1640395463328,VENANGO HOUSE,F,L
11.0,17.0,1919-1941 W ONTARIO ST,40.0058612642619,-75.160416032077,JEROME BROWN RECREATION CENTER,F,L
11.0,18.0,22ND & CLEARFIELD STS,40.001685069488,-75.1662379477472,PANATI RECREATION CENTER,F,L
11.0,19.0,2829 N LAMBERT ST,39.9982222183793,-75.1646102815052,WOODSTOCK HOMES COMM ROOM,M,L
11.0,20.0,22ND & SOMERSET STS,39.9971984473335,-75.1672163164337,NORTH PHILA MUNICIPAL BUILDING,M,N
12.0,1.0,CHELTEN AVE & ARDLEIGH ST,40.0496653802419,-75.1605295793679,LONNIE YOUNG REC CTR SR BLDG,A,L
12.0,2.0,CHELTEN & SPRAGUE ST,40.0485602488026,-75.1616568009206,MASTERY PASTORIUS CHARTER,R,N
12.0,3.0,CHELTEN & SPRAGUE ST,40.0485602488026,-75.1616568009206,MASTERY PASTORIUS CHARTER,R,N
12.0,4.0,500 E CHELTEN AVE,40.0419944386055,-75.1672517105691,SHRINE OF THE MIRACULOUS MEDAL,M,H
12.0,5.0,5136-38 BELFIELD AVE,40.0365057214893,-75.1608365659894,P G W BUILDING,R,L
12.0,6.0,5648 CHEW AVE,40.0446791763206,-75.1646375151778,HARAMBE CHURCH,M,N
12.0,7.0,CHELTEN AVE & BAYNTON ST,40.0388488434587,-75.171619294983,FIRE ENGINE CO # 19,M,L
12.0,8.0,PULASKI & HANSBERRY ST,40.0257597878964,-75.1725230823843,J B KELLY SCHOOL,M,L
12.0,9.0,5305-15 GERMANTOWN AVE,40.0328156603044,-75.1691765582519,HOLSEY TEMPLE CME CHURCH,M,L
12.0,10.0,285 E ASHMEAD ST,40.0345974914463,-75.1637818509405,WISTER TOWNHOMES COMMUNITY CTR,F,L
12.0,11.0,501 W KING ST,40.0250815751883,-75.1774759939907,EAGLES NEST SCHOOL,F,N
12.0,12.0,SHEDAKER & BAYNTON STS,40.0314587798736,-75.1594908953907,WISTER RECREATION CENTER,M,L
12.0,13.0,BRINGHURST & WAKEFIELD STS,40.033542968507,-75.1656514438352,WISTER SCHOOL,R,L
12.0,14.0,SHEDAKER & BAYNTON STS,40.0314587798736,-75.1594908953907,WISTER RECREATION CENTER,M,L
12.0,15.0,5457 WAYNE AVE,40.0304215473457,-75.1756909658078,GERMANTOWN HOUSE,F,L
12.0,16.0,100 W COULTER ST,40.0310748573706,-75.1724937703254,GERMANTOWN PROFESSIONAL BLDG,R,N
12.0,17.0,WAYNE & LOGAN STS,40.0245374332345,-75.1661154285146,HAPPY HOLLOW RECREATION CENTER,A,N
12.0,18.0,PULASKI & HANSBERRY STS,40.0257597878964,-75.1725230823843,J B KELLY SCHOOL,M,L
12.0,19.0,WAYNE & LOGAN STS,40.0245374332345,-75.1661154285146,HAPPY HOLLOW RECREATION CENTER,A,L
12.0,20.0,WAYNE & LOGAN STS,40.0245374332345,-75.1661154285146,HAPPY HOLLOW RECREATION CENTER,A,L
12.0,21.0,WAYNE & LOGAN STS,40.0245374332345,-75.1661154285146,HAPPY HOLLOW RECREATION CENTER,A,L
12.0,22.0,400 W WINONA ST,40.0267876801701,-75.1781186452677,WAREHOUSE,M,L
12.0,23.0,400 W WINONA ST,40.0267876801701,-75.1781186452677,WAREHOUSE,M,L
12.0,24.0,5310 MORRIS ST,40.0255283038345,-75.1757193792429,HARVEST COMMUNITY CHURCH,R,N
13.0,1.0,PULASKI & HANSBERRY STS,40.0257597878964,-75.1725230823843,J B KELLY SCHOOL,M,L
13.0,2.0,WAYNE & LOGAN STS,40.0245374332345,-75.1661154285146,HAPPY HOLLOW RECREATION CENTER,A,L
13.0,3.0,WAYNE & LOGAN STS,40.0245374332345,-75.1661154285146,HAPPY HOLLOW RECREATION CENTER,A,L
13.0,4.0,PULASKI & HANSBERRY STS,40.0257597878964,-75.1725230823843,J B KELLY SCHOOL,M,L
13.0,5.0,PULASKI & HANSBERRY STS,40.0257597878964,-75.1725230823843,J B KELLY SCHOOL,M,L
13.0,6.0,4340 GERMANTOWN AVE,40.0200526472828,-75.1569420324082,NICETOWN COURT,F,H
13.0,7.0,4340 GERMANTOWN AVE,40.0200526472828,-75.1569420324082,NICETOWN COURT,F,H
13.0,8.0,4340 GERMANTOWN AVE,40.0200526472828,-75.1569420324082,NICETOWN COURT,F,H
13.0,9.0,18TH & COURTLAND STS,40.0238020118138,-75.154610754895,STENTON PARK REC CENTER,R,L
13.0,10.0,1539 W COURTLAND ST,40.0236836309742,-75.1511271315484,CHURCH OF NAZARENE BUILDING,F,N
13.0,11.0,18TH & COURTLAND STS,40.0238020118138,-75.154610754895,STENTON PARK REC CENTER,R,L
13.0,12.0,18TH & COURTLAND STS,40.0238020118138,-75.154610754895,STENTON PARK REC CENTER,R,L
13.0,13.0,1539 W COURTLAND ST,40.0236836309742,-75.1511271315484,CHURCH OF NAZARENE BUILDING,F,N
13.0,14.0,4153 GERMANTOWN AVE,40.0174905116551,-75.1542752974972,CHRISTLIKE RESTORATION CHURCH,R,N
13.0,15.0,4153 GERMANTOWN AVE,40.0174905116551,-75.1542752974972,CHRISTLIKE RESTORATION CHURCH,R,N
13.0,16.0,1648 W HUNTING PARK AVE,40.015786129113,-75.1532296535535,TRIUMPH BAPTIST CHURCH,M,N
13.0,17.0,1648 W HUNTING PARK AVE,40.015786129113,-75.1532296535535,TRIUMPH BAPTIST CHURCH,M,N
13.0,18.0,1717 W HUNTING PARK AVE,40.0151742782346,-75.1561711585517,OPPORTUNITY TOWERS,M,H
13.0,19.0,22ND & HUNTING PARK AVE,,,FIRE ENGINE CO # 59,M,L
13.0,20.0,19TH & BUTLER STS,40.0118625227792,-75.1588278228124,MASTERY CLEVELAND CHARTER,A,N
13.0,21.0,19TH & BUTLER STS,40.0118625227792,-75.1588278228124,MASTERY CLEVELAND CHARTER,A,N
13.0,22.0,1648 W HUNTING PARK AVE,40.015786129113,-75.1532296535535,TRIUMPH BAPTIST CHURCH,M,N
13.0,23.0,3720 N BROAD ST,40.0099892301182,-75.1514335162122,NICETOWN TIOGA BRANCH LIBRARY,F,L
13.0,24.0,19TH & BUTLER STS,40.0118625227792,-75.1588278228124,MASTERY CLEVELAND CHARTER,A,N
13.0,25.0,3600 N BROAD ST,40.0079134512126,-75.1519379588019,ZION BAPTIST CHURCH,M,L
14.0,1.0,1001 GREEN ST,39.9628908610369,-75.154748299053,SIMPSON MIDTOWN APTS,M,H
14.0,2.0,1240 N 10TH ST,39.9717156945031,-75.1526049941427,HARRISON HOMES (PHA),F,L
14.0,3.0,1002 W GIRARD AVE,39.9703424367912,-75.153449904265,ALTHEA GIBSON TENNIS CENTER,F,N
14.0,4.0,1221 FAIRMOUNT AVE,39.966856353429,-75.1574128879676,GUILD HOUSE WEST,F,L
14.0,5.0,1100 FAIRMOUNT AVE,39.9656534988107,-75.156077544275,GLADYS JACOBS APT BLDG,F,H
14.0,6.0,800 N 08TH ST,39.9661823639702,-75.1511711818161,EAST POPLAR RECREATION CENTER,M,N
14.0,7.0,1240 N 10TH ST,39.9717156945031,-75.1526049941427,HARRISON HOMES (PHA),F,L
14.0,8.0,1100 POPLAR ST,39.9682017326731,-75.1559409779758,STREET COMMUNITY CENTER,F,H
14.0,9.0,953 N 10TH ST,39.970037209603,-75.152340794122,CHILDS MEMORIAL BAPTIST CHURCH,B,L
14.0,10.0,711 SPRING GARDEN ST,39.9618052077302,-75.1507069247383,GUILD HOUSE EAST,M,N
14.0,11.0,702 MARSHALL PLACE,,,S B G MANAGEMENT INC,M,L
15.0,1.0,2720 POPLAR ST,39.9727727465174,-75.1816308628117,TRINITY BAPTIST CHURCH,N,N
15.0,2.0,2720 POPLAR ST,39.9727727465174,-75.1816308628117,TRINITY BAPTIST CHURCH,N,N
15.0,3.0,18TH & WALLACE STS,39.9659569370595,-75.167224117931,ROBT CLEMENTE RECREATION CTR,F,N
15.0,4.0,2601 PENNSYLVANIA AVE,39.9686630912046,-75.1804727608562,2601 PARKWAY CLUBROOM,F,L
15.0,5.0,755 N 24TH ST,39.9688862281424,-75.1764596061737,PARKWAY MEMORIAL VFW POST,A,N
15.0,6.0,2401 PENNSYLVANIA AVE,39.9666048413347,-75.1778416340556,THE PHILADELPHIAN APTS,F,L
15.0,7.0,1539 PARRISH ST,39.969637035174,-75.1625857921085,FIRE ENGINE CO # 13,M,L
15.0,8.0,755 N 24TH ST,39.9688862281424,-75.1764596061737,PARKWAY MEMORIAL VFW POST,A,N
15.0,9.0,22ND & PARRISH STS,39.9706537950665,-75.1736168603429,BACHE MARTIN SCHOOL,M,N
15.0,10.0,FRANCIS & SHIRLEY STS,39.9676353919847,-75.1675104986707,FRANCISVILLE RECREATION CENTER,F,N
15.0,11.0,FRANCIS & SHIRLEY STS,39.9676353919847,-75.1675104986707,FRANCISVILLE RECREATION CENTER,F,N
15.0,12.0,22ND & PARRISH STS,39.9706537950665,-75.1736168603429,BACHE MARTIN SCHOOL,M,N
15.0,13.0,839 N WOODSTOCK ST,39.9702553131712,-75.1713856737203,STOREFRONT,M,N
15.0,14.0,24TH & WALLACE STS,39.9668459740666,-75.1771244544008,ST FRANCIS XAVIER SCHOOL,B,N
15.0,15.0,2001 SPRING GARDEN ST,39.9639550292713,-75.1711287221208,GREATER CANAAN CHURCH OF GOD,R,N
15.0,16.0,19TH & NORTH STS,39.9667321153672,-75.1686855282741,ST ANDREWS LITHUANIAN CHURCH,R,N
15.0,17.0,560 N 20TH ST,39.9642751902588,-75.1710773090952,RUSSIAN ORTHODOX CHURCH,N,N
15.0,18.0,854-70 N 24TH ST,39.9715981392895,-75.176396124156,PHILA MENNONITE HIGH SCHOOL,R,N
15.0,19.0,24TH & WALLACE STS,39.9668459740666,-75.1771244544008,ST FRANCIS XAVIER SCHOOL,B,N
16.0,1.0,1421 W SUSQUEHANNA AVE,39.9866163414087,-75.1571833578069,SUSQUEHANNA VILLAGE,F,N
16.0,2.0,1421 W SUSQUEHANNA AVE,39.9866163414087,-75.1571833578069,SUSQUEHANNA VILLAGE,F,N
16.0,3.0,1621 W DAUPHIN ST,39.9886036539638,-75.1595710051462,NIX & NIX FUNERAL HOME,M,L
16.0,4.0,2530 N BROAD ST,39.9920624530766,-75.1554900817719,CHOICE FUNERAL HOME,M,N
16.0,5.0,2530 N BROAD ST,39.9920624530766,-75.1554900817719,CHOICE FUNERAL HOME,M,N
16.0,6.0,2121 GRATZ ST,39.986297429283,-75.1633755503646,CHURCH OF THE ADVOCATE GYM,M,L
16.0,7.0,18TH & YORK STS,39.9901864983165,-75.1619484591746,FOSTER MEMORIAL BAPT CHURCH,N,N
16.0,8.0,18TH & YORK STS,39.9901864983165,-75.1619484591746,FOSTER MEMORIAL BAPT CHURCH,N,N
16.0,9.0,2121 GRATZ ST,39.986297429283,-75.1633755503646,CHURCH OF THE ADVOCATE GYM,M,L
16.0,10.0,2121 GRATZ ST,39.986297429283,-75.1633755503646,CHURCH OF THE ADVOCATE GYM,M,L
16.0,11.0,2121 GRATZ ST,39.986297429283,-75.1633755503646,CHURCH OF THE ADVOCATE GYM,M,L
16.0,12.0,18TH & YORK STS,39.9901864983165,-75.1619484591746,FOSTER MEMORIAL BAPT CHURCH,N,N
16.0,13.0,22ND & HUNTINGDON STS,39.9940265341728,-75.1679261373111,CECIL B MOORE RECREATION CTR,M,L
16.0,14.0,2301 W EDGLEY ST,39.9878001243002,-75.1703517498446,RAYMOND ROSEN COMM CENTER,F,L
16.0,15.0,2301 W EDGLEY ST,39.9878001243002,-75.1703517498446,RAYMOND ROSEN COMM CENTER,F,L
16.0,16.0,2301 W EDGLEY ST,39.9878001243002,-75.1703517498446,RAYMOND ROSEN COMM CENTER,F,L
16.0,17.0,22ND & HUNTINGDON STS,39.9940265341728,-75.1679261373111,CECIL B MOORE RECREATION CTR,M,L
16.0,18.0,2521 N 23RD ST,39.9934484034096,-75.169458770218,LOVE ZION BAPT CHURCH,M,N
17.0,1.0,16TH & CHELTEN AVE,40.050974725362,-75.1454294494715,MORRIS ESTATE REC CENTER,N,N
17.0,2.0,16TH & CHELTEN AVE,40.050974725362,-75.1454294494715,MORRIS ESTATE REC CENTER,N,N
17.0,3.0,6300 OLD YORK ROAD,40.0496038432225,-75.1454529396386,PHILIP MURRAY HOUSE,F,L
17.0,4.0,6300 OLD YORK ROAD,40.0496038432225,-75.1454529396386,PHILIP MURRAY HOUSE,F,L
17.0,5.0,6101 LIMEKILN PIKE,40.046766884264,-75.1488457909869,G O S P COMMUNITY BUILDING,M,L
17.0,6.0,OPAL & MEDARY STS,40.0502677149748,-75.1519840013854,ST BENEDICT SCHOOL,R,L
17.0,7.0,OPAL & MEDARY STS,40.0502677149748,-75.1519840013854,ST BENEDICT SCHOOL,R,L
17.0,8.0,2122 CHELTEN AVE,40.0516826017694,-75.1563692633266,HOUSE OF PRAYER,R,N
17.0,9.0,6100 N 21ST ST,40.047815933023,-75.1558881437284,CORINTHIAN COMM & EDUC CTR,B,L
17.0,10.0,6100 N 21ST ST,40.047815933023,-75.1558881437284,CORINTHIAN COMM & EDUC CTR,B,L
17.0,11.0,6101 LIMEKILN PIKE,40.046766884264,-75.1488457909869,G O S P COMMUNITY BUILDING,M,L
17.0,12.0,6300 OLD YORK ROAD,40.0496038432225,-75.1454529396386,PHILIP MURRAY HOUSE,F,L
17.0,13.0,6101 LIMEKILN PIKE,40.046766884264,-75.1488457909869,G O S P COMMUNITY BUILDING,M,L
17.0,14.0,6101 LIMEKILN PIKE,40.046766884264,-75.1488457909869,G O S P COMMUNITY BUILDING,M,L
17.0,15.0,1953 NEDRO AVE,40.0436640484438,-75.153469150493,CHAMPLOST HOMES (PHA),F,L
17.0,16.0,21ST & CHEW AVE,40.041279559686,-75.1560007112106,BELFIELD RECREATION CENTER,B,L
17.0,17.0,21ST ST & CHEW AVE,40.041279559686,-75.1560007112106,BELFIELD RECREATION CENTER,B,L
17.0,18.0,NEDRO & OGONTZ AVE,40.0436742836952,-75.1497976292682,PENNELL SCHOOL,M,L
17.0,19.0,5801 OGONTZ AVE,40.0423455560526,-75.1497048962808,LOVE MISSIONARY BAPTIST CHURCH,B,L
17.0,20.0,1424 CLEARVIEW ST,40.0404827123393,-75.1456672549678,SUFFOLK MANOR APTS-BLDG H,F,N
17.0,21.0,1500 W OLNEY AVE,40.0390359095505,-75.1466136018791,WIDENER SCHOOL,F,L
17.0,22.0,1500 W OLNEY AVE,40.0390359095505,-75.1466136018791,WIDENER SCHOOL,F,L
17.0,23.0,1500 W OLNEY AVE,40.0390359095505,-75.1466136018791,WIDENER SCHOOL,F,L
17.0,24.0,1605 W ROCKLAND ST,40.0285861400721,-75.1506571817686,ESTHER MARIE BALLROOM,M,L
17.0,25.0,1950 W ROCKLAND ST,40.0283667819594,-75.1562599939532,PROVISION OF GRACE CHURCH,M,L
17.0,26.0,1424 CLEARVIEW ST,40.0404827123393,-75.1456672549678,SUFFOLK MANOR APTS-BLDG H,F,N
17.0,27.0,NEDRO & OGONTZ AVE,40.0436742836952,-75.1497976292682,PENNELL SCHOOL,M,L
17.0,28.0,6100 N 21ST ST,40.047815933023,-75.1558881437284,CORINTHIAN COMM & EDUC CTR,B,L
17.0,29.0,1950 W ROCKLAND ST,40.0283667819594,-75.1562599939532,PROVISION OF GRACE CHURCH,M,L
18.0,1.0,HANCOCK & MASTER STS,39.9723010916997,-75.1378547446952,HANCOCK RECREATION CENTER,F,N
18.0,2.0,236 RICHMOND ST,39.9671261785876,-75.1312010040932,UNION HALL,N,N
18.0,3.0,ORKNEY & DIAMOND STS,39.9827817611405,-75.1417451105499,MC KINLEY SCHOOL,M,N
18.0,4.0,PALMER & THOMPSON STS,39.9723585720059,-75.1292240808616,ADAIRE SCHOOL,M,N
18.0,5.0,E MONTGOMERY & GIRARD AVES,39.9713518027614,-75.1271031951777,FISHTOWN RECREATION CENTER,F,N
18.0,6.0,E MONTGOMERY & GIRARD AVES,39.9713518027614,-75.1271031951777,FISHTOWN RECREATION CENTER,F,N
18.0,7.0,PALMER & THOMPSON STS,39.9723585720059,-75.1292240808616,ADAIRE SCHOOL,M,N
18.0,8.0,ORKNEY & DIAMOND STS,39.9827817611405,-75.1417451105499,MC KINLEY SCHOOL,M,N
18.0,9.0,301 W GIRARD AVE,39.9702146737375,-75.1418828894397,HEALTH CENTER #6,F,L
18.0,10.0,1741 FRANKFORD AVE,39.9757695639054,-75.131952934701,NEUMANN NORTH SR APTS,M,N
18.0,11.0,1401 E SUSQUEHANNA AVE,39.9752714127565,-75.1263749117838,PENNA HOME,M,N
18.0,12.0,PALMER & THOMPSON STS,39.9723585720059,-75.1292240808616,ADAIRE SCHOOL,M,N
18.0,13.0,2011 N MASCHER ST,39.9808357727172,-75.134809947939,NORRIS SQUARE CHILD CARE CTR,F,L
18.0,14.0,1501-11 GERMANTOWN AVE,39.973841216095,-75.1413402786374,AL-AQSA ISLAMIC SOCIETY,A,N
18.0,15.0,1501-11 GERMANTOWN AVE,39.973841216095,-75.1413402786374,AL-AQSA ISLAMIC SOCIETY,A,N
18.0,16.0,HOWARD & BERKS STS,39.9787819002218,-75.1345643536277,TOWEY RECREATION CENTER,M,N
18.0,17.0,HOWARD & BERKS STS,39.9787819002218,-75.1345643536277,TOWEY RECREATION CENTER,M,N
19.0,1.0,5TH & ALLEGHENY AVE,39.999744176386,-75.1385256307221,RIVERA RECREATION CENTER,B,L
19.0,2.0,3RD & ONTARIO STS,40.0024467255545,-75.1349929500835,MARIN MUNOZ SCHOOL,F,H
19.0,3.0,3RD & ONTARIO STS,40.0024467255545,-75.1349929500835,MARIN MUNOZ SCHOOL,F,H
19.0,4.0,167 W ALLEGHENY AVE,39.9990193466747,-75.1307208060991,VILLAS DEL CARIBE,F,H
19.0,5.0,6TH & INDIANA AVE,39.9969155436511,-75.1411674421061,POTTER THOMAS SCHOOL,M,L
19.0,6.0,2800 N AMERICAN ST,39.9937914562747,-75.136553339231,CONGRESO EDUC & TRAINING CTR,F,H
19.0,7.0,2800 N AMERICAN ST,39.9937914562747,-75.136553339231,CONGRESO EDUC & TRAINING CTR,F,H
19.0,8.0,6TH & INDIANA AVE,39.9969155436511,-75.1411674421061,POTTER THOMAS SCHOOL,M,L
19.0,9.0,2820 N 4TH ST,39.9942046285544,-75.1380549607261,FAIRHILL COMMUNITY HIGH SCHOOL,M,H
19.0,10.0,HANCOCK & SUSQUEHANNA AVE,39.9835999955754,-75.1354461040641,NORRIS SQUARE UN PRES CHURCH,M,N
19.0,11.0,2536 N FRONT ST,39.9887229908771,-75.1316677748559,STOREFRONT,M,N
19.0,12.0,HANCOCK & SUSQUEHANNA AVE,39.9835999955754,-75.1354461040641,NORRIS SQUARE UN PRES CHURCH,M,N
19.0,13.0,4TH & YORK STS,39.9872774046247,-75.1393514045313,WELSH SCHOOL,F,L
19.0,14.0,ORKNEY & DIAMOND STS,39.9827817611405,-75.1417451105499,MC KINLEY SCHOOL,M,N
19.0,15.0,ORKNEY & DIAMOND STS,39.9827817611405,-75.1417451105499,MC KINLEY SCHOOL,M,N
19.0,16.0,2603 N 05TH ST,39.9907358353179,-75.1402199730601,SCHOOL DISTRICT REGION OFFICE,M,N
19.0,17.0,4TH & YORK STS,39.9872774046247,-75.1393514045313,J WELSH SCHOOL,F,L
19.0,18.0,4TH & YORK STS,39.9872774046247,-75.1393514045313,J WELSH SCHOOL,F,L
19.0,19.0,2426 N 2ND ST,39.9872430758425,-75.1357768618731,FIRE ENGINE CO # 02,M,L
20.0,1.0,1701 N 8TH ST,39.9774912769316,-75.1484212167762,BROWN COMMUNITY CENTER,M,H
20.0,2.0,1401 N 06TH ST,39.9734840617772,-75.1455660607559,CRUZ RECREATION CENTER,M,L
20.0,3.0,10TH & OXFORD STS,39.9763835092076,-75.151306611089,DENDY REC CTR,M,L
20.0,4.0,1600 N 08TH ST,39.9767800387159,-75.1490950662226,GRAY MANOR,F,H
20.0,5.0,8TH & DIAMOND STS,39.9834793951186,-75.147129763161,8TH & DIAMOND ST REC CTR,M,L
20.0,6.0,1300 W JEFFERSON ST,39.9749259701239,-75.1568478655705,YORKTOWN APARTMENTS,R,N
20.0,7.0,1915 N 11TH ST,39.9817378310224,-75.1514291755095,NORRIS HOMES,M,L
20.0,8.0,1701 N 08TH ST,39.9774912769316,-75.1484212167762,BROWN COMMUNITY CENTER,M,H
20.0,9.0,1915 N 11TH STREET,39.9817378310224,-75.1514291755095,NORRIS HOMES (PHA),M,L
20.0,10.0,8TH & DIAMOND STS,39.9834793951186,-75.147129763161,8TH & DIAMOND ST REC CTR,M,L
20.0,11.0,10TH & OXFORD STS,39.9763835092076,-75.151306611089,DENDY REC CTR,M,N
21.0,1.0,3815 TERRACE ST,40.0195245778962,-75.211601853468,PILGRIM ORTHODOX CHURCH,M,L
21.0,2.0,3815 TERRACE ST,40.0195245778962,-75.211601853468,PILGRIM ORTHODOX CHURCH,M,L
21.0,3.0,7901 HENRY AVE,40.0565562810733,-75.2303726553115,HENRY ON THE PARK/BLDG E,M,L
21.0,4.0,4120 TOWER ST,40.0236461415431,-75.2170487702372,INTERAC OFFICES,M,N
21.0,5.0,SHAWMONT AVE & EVA ST,40.0520444853956,-75.2386019312642,SHAWMONT SCHOOL,A,L
21.0,6.0,128 COTTON ST,40.0259161935898,-75.2217785114446,ST JOSAPHATS CHURCH,B,L
21.0,7.0,175 GREEN LANE,40.028526422004,-75.2242899811907,NORTH LIGHT COMMUNITY CENTER,B,L
21.0,8.0,201 FOUNTAIN ST,40.0334597652823,-75.2295903261688,HILLSIDE RECREATION CENTER,B,L
21.0,9.0,201 FOUNTAIN ST,40.0334597652823,-75.2295903261688,HILLSIDE RECREATION CENTER,B,L
21.0,10.0,403 RECTOR ST,40.0276167725836,-75.2139177097309,JOURNEYS WAY,F,L
21.0,11.0,235 COTTON ST,40.0273708671233,-75.2182065073865,TONYS GLASS WORKS,F,L
21.0,12.0,175 GREEN LA,40.028526422004,-75.2242899811907,NORTH LIGHT COMMUNITY CENTER,B,L
21.0,13.0,4799 SILVERWOOD ST,40.0352547493744,-75.2269155943657,CHURCH OF THE LIVING SAVIOUR,M,L
21.0,14.0,RIGHTER & SALAIGNAC STS,40.021732044543,-75.2075366372626,COOK WISSAHICKON SCHOOL,M,L
21.0,15.0,5301 RIDGE AVE,40.0212634134561,-75.2085185035342,NORTHERN HOME,F,L
21.0,16.0,RIGHTER & SALAIGNAC STS,40.021732044543,-75.2075366372626,COOK WISSAHICKON SCHOOL,M,L
21.0,17.0,403 RECTOR ST,40.0276167725836,-75.2139177097309,JOURNEYS WAY,F,L
21.0,18.0,403 RECTOR ST,40.0276167725836,-75.2139177097309,JOURNEYS WAY,F,L
21.0,19.0,401 MARTIN ST,40.0299773560777,-75.2164766742463,BETHANY LUTHERAN CHURCH,M,N
21.0,20.0,401 MARTIN ST,40.0299773560777,-75.2164766742463,BETHANY LUTHERAN CHURCH,M,N
21.0,21.0,6400 RIDGE AVENUE,40.0367743389539,-75.2223359578354,ROXBOROUGH HIGH SCHOOL,F,L
21.0,22.0,RIDGE & CINNAMINSON ST,40.0402214545124,-75.2243878621229,FIREHOUSE,M,L
21.0,23.0,5450 WISSAHICKON AVE,40.0244633911817,-75.1810215983044,CHARTER COURT APARTMENTS,F,L
21.0,24.0,800 WALNUT LANE,40.0317893177327,-75.1946344038874,WALNUT LANE GOLF PRO SHOP,F,L
21.0,25.0,RIDGE AVE & JAMESTOWN ST,40.0280010185491,-75.2099731164759,ROX MEM HOSPITAL AUDITORIUM,M,L
21.0,26.0,RIDGE AVE & JAMESTOWN ST,40.0280010185491,-75.2099731164759,ROX MEM HOSPITAL AUDITORIUM,M,L
21.0,27.0,401 MARTIN ST,40.0299773560777,-75.2164766742463,BETHANY LUTHERAN CHURCH,M,N
21.0,28.0,6400 RIDGE AVENUE,40.0367743389539,-75.2223359578354,ROXBOROUGH HIGH SCHOOL,F,L
21.0,29.0,6730 RIDGE AVE,40.0407231274619,-75.22544386199,SALVATION ARMY,M,L
21.0,30.0,SHAWMONT AVE & EVA ST,40.0520444853956,-75.2386019312642,SHAWMONT SCHOOL,A,L
21.0,31.0,6400 RIDGE AVENUE,40.0367743389539,-75.2223359578354,ROXBOROUGH HIGH SCHOOL,F,L
21.0,32.0,7100 HENRY AVE,39.9886410790253,-75.1023581518965,SAUL HIGH SCHOOL,F,L
21.0,33.0,600 E CATHEDRAL RD,40.0653301246529,-75.240898245879,CATHEDRAL VILLAGE AUDITORIUM,F,L
21.0,34.0,WISSAHICKON & GRAKYN LA,40.0683621659072,-75.2325333794109,HOUSTON RECREATION CENTER,M,L
21.0,35.0,RIGHTER & SALAIGNAC STS,40.021732044543,-75.2075366372626,COOK WISSAHICKON SCHOOL,M,L
21.0,36.0,RIDGE AVE & JAMESTOWN ST,40.0280010185491,-75.2099731164759,ROX MEM HOSPITAL AUDITORIUM,M,L
21.0,37.0,RIDGE AVE & JAMESTOWN ST,40.0280010185491,-75.2099731164759,ROX MEM HOSPITAL AUDITORIUM,M,L
21.0,38.0,7100 HENRY AVE,39.9886410790253,-75.1023581518965,SAUL HIGH SCHOOL,F,L
21.0,39.0,8201 HENRY AVE,40.0539037840816,-75.2397984403117,SUMMIT PARK APTS-CLUBHOUSE,M,L
21.0,40.0,6730 RIDGE AVE,40.0407231274619,-75.22544386199,SALVATION ARMY,M,L
21.0,41.0,DOMINO LA & RIDGE AVE,40.0449243140399,-75.2311678768292,ROXBOROUGH Y M C A,M,L
21.0,42.0,7722 RIDGE AVENUE,40.0523100442859,-75.2367412418921,FIRE ENGINE CO # 66,M,L
21.0,43.0,705 E CATHEDRAL ROAD,40.0631813730937,-75.2365707913144,ANDORRA BRANCH LIBRARY,R,H
21.0,44.0,WISSAHICKON & GRAKYN LA,40.0683621659072,-75.2325333794109,HOUSTON RECREATION CENTER,M,L
21.0,45.0,600 E CATHEDRAL RD,40.0653301246529,-75.240898245879,CATHEDRAL VILLAGE AUDITORIUM,F,L
22.0,1.0,6757 GREENE ST,40.045845502393,-75.1944230668403,SUMMIT PRESBYTERIAN CHURCH,M,L
22.0,2.0,6757 GREENE ST,40.045845502393,-75.1944230668403,SUMMIT PRESBYTERIAN CHURCH,M,L
22.0,3.0,6400 GREENE ST,40.0409779245674,-75.1880820126151,CLIVEDEN CONVALESCENT CENTER,F,H
22.0,4.0,400 W ELLET ST,40.0504993694413,-75.1948695697242,GERMANTOWN JEWISH CENTER,R,N
22.0,5.0,400 W ELLET ST,40.0504993694413,-75.1948695697242,GERMANTOWN JEWISH CENTER,R,N
22.0,6.0,6950 GERMANTOWN AVE,40.0552679443901,-75.188750333363,GERMANTOWN HOME,M,H
22.0,7.0,6753 GERMANTOWN AVE,40.0533563465078,-75.1859099362035,JESUS IS THE WAY CHURCH,M,N
22.0,8.0,220 W UPSAL ST,40.0439279187628,-75.1866271099145,BLAIR CHRISTIAN ACADEMY,M,L
22.0,9.0,6671 GERMANTOWN AVE,40.0521934251439,-75.184377911758,ST MICHAELS LUTHERAN CHURCH,B,L
22.0,10.0,220 W UPSAL ST,40.0439279187628,-75.1866271099145,BLAIR CHRISTIAN ACADEMY,M,L
22.0,11.0,GERMANTOWN AVE & CARPENTER,40.0548235521915,-75.1869618874118,LA   FIRE ENGINE CO # 9,M,N
22.0,12.0,GERMANTOWN AVE & CARPENTER,40.0548235521915,-75.1869618874118,LA   FIRE ENGINE CO # 9,M,N
22.0,13.0,6671 GERMANTOWN AVE,40.0521934251439,-75.184377911758,ST MICHAELS LUTHERAN CHURCH,B,L
22.0,14.0,6445 GERMANTOWN AVE,40.0478208662457,-75.1826350493322,CARING HEART NURSING HOME,M,N
22.0,15.0,6415 MUSGRAVE ST,40.0517497371424,-75.1771866995608,CLIVEDEN HOUSE,B,N
22.0,16.0,6945 GERMANTOWN AVE,40.0565156986286,-75.1874380798025,LOVETT LIBRARY,F,L
22.0,17.0,6945 GERMANTOWN AVE,40.0565156986286,-75.1874380798025,LOVETT LIBRARY,F,L
22.0,18.0,GERMANTOWN & SEDGWICK ST,40.0568994918289,-75.1880776999546,MT AIRY RECREATION CENTER,M,N
22.0,19.0,GERMANTOWN & SEDGWICK ST,40.0568994918289,-75.1880776999546,MT AIRY RECREATION CENTER,M,N
22.0,20.0,CHEW & UPSAL STS,40.0535612064505,-75.1779841122474,EMLEN SCHOOL,R,L
22.0,21.0,CHEW & UPSAL STS,40.0535612064505,-75.1779841122474,EMLEN SCHOOL,M,L
22.0,22.0,CHEW & UPSAL STS,40.0535612064505,-75.1779841122474,EMLEN SCHOOL,R,L
22.0,23.0,610 E MT PLEASANT AVE,40.0666952410347,-75.1795293969418,GERMANTOWN CHRISTIAN ASSEMBLY,B,L
22.0,24.0,610 E MT PLEASANT AVE,40.0666952410347,-75.1795293969418,GERMANTOWN CHRISTIAN ASSEMBLY,B,L
22.0,25.0,BLAKEMORE & VERNON RDS,40.0597050346769,-75.1782488114873,STENTON TRAIN STATION,R,L
22.0,26.0,6611 ARDLEIGH ST,40.0593319495519,-75.1750906867402,KHETHRA CHARTER SCHOOL,R,L
22.0,27.0,CRITTENDEN & JOHNSON STS,40.059129893652,-75.1684991294834,A B DAY SCHOOL,M,L
22.0,28.0,CRITTENDEN & JOHNSON STS,40.059129893652,-75.1684991294834,A B DAY SCHOOL,M,L
22.0,29.0,CRITTENDEN & JOHNSON STS,40.059129893652,-75.1684991294834,A B DAY SCHOOL,M,L
23.0,1.0,4290 PENN ST,40.0119519703075,-75.0908234041223,SANKOFA ACADEMY CHARTER SCHOOL,R,N
23.0,2.0,4290 PENN ST,40.0119519703075,-75.0908234041223,SANKOFA ACADEMY CHARTER SCHOOL,R,N
23.0,3.0,4290 PENN ST,40.0119519703075,-75.0908234041223,SANKOFA ACADEMY CHARTER SCHOOL,R,N
23.0,4.0,ARROTT & LARGE STS,40.021028165919,-75.0914938445051,SIMPSON RECREATION CENTER,M,L
23.0,5.0,4634 FRANKFORD AVE,40.0157249386636,-75.0851142563199,FRANKFORD BRANCH LIBRARY,M,N
23.0,6.0,4634 FRANKFORD AVE,40.0157249386636,-75.0851142563199,FRANKFORD BRANCH LIBRARY,M,N
23.0,7.0,4634 FRANKFORD AVE,40.0157249386636,-75.0851142563199,FRANKFORD BRANCH LIBRARY,M,N
23.0,8.0,ARROTT & LARGE STS,40.021028165919,-75.0914938445051,SIMPSON RECREATION CENTER,M,L
23.0,9.0,OXFORD & WAKELING STS,40.0224183772271,-75.0844268810319,FRANKFORD HIGH SCHOOL,M,L
23.0,10.0,CASTOR & PRATT STS,40.028203350486,-75.0882101151851,ST JAMES LUTHERAN CHURCH,M,N
23.0,11.0,4800 WHITAKER AVE,40.0217715302831,-75.1126578834113,VAIRD-FELTONVILLE YOUTH CLUB,F,L
23.0,12.0,4800 WHITAKER AVE,40.0217715302831,-75.1126578834113,VAIRD-FELTONVILLE YOUTH CLUB,F,L
23.0,13.0,LARGE & DYRE STS,40.0256963806176,-75.087224303161,STRING THEORY EDMUNDS SCHOOL,B,N
23.0,14.0,2369 ORTHODOX ST,40.0055653562484,-75.0775204524769,AMERICAN LEGION POST 396,B,N
23.0,15.0,TULIP & WAKELING ST,40.0113963516128,-75.0728673089478,CARMELLA RECREATION CENTER,R,N
23.0,16.0,1655 UNITY ST,40.0118825533962,-75.0858151234901,STEARNE SCHOOL,R,N
23.0,17.0,2006 ORTHODOX ST,40.0110597951812,-75.0803078683504,AMERICAN LEGION POST,N,N
23.0,18.0,1824-26 FOULKROD ST,40.0150749026615,-75.0779425814516,WHITEHALL RES COUNCIL OFFICE,M,N
23.0,19.0,DITMAN & WAKELING ST,40.0137180409867,-75.0737485666265,GAMBRELL RECREATION CENTER,M,N
23.0,20.0,4837 FRANKFORD AVE,40.0186805906162,-75.0815905346708,PATHWAYS CHURCH,M,N
23.0,21.0,DARRAH & FOULKROD STS,40.0171930344197,-75.0813271825667,FIREHOUSE,M,N
23.0,22.0,1655 UNITY ST,40.0118825533962,-75.0858151234901,STEARNE SCHOOL,R,N
23.0,23.0,1655 UNITY ST,40.0118825533962,-75.0858151234901,STEARNE SCHOOL,R,N
24.0,1.0,36TH & POWELTON AVE,39.9598822652883,-75.1937892530923,POWELL SCHOOL,R,N
24.0,2.0,34TH & HAVERFORD AVE,39.9640519921805,-75.1916042353247,DURHAM LIBRARY,F,N
24.0,3.0,34TH & HAVERFORD AVE,39.9640519921805,-75.1916042353247,DURHAM LIBRARY,F,N
24.0,4.0,36TH & FAIRMOUNT AVE,39.9660184279543,-75.1949330422339,MC MICHAEL SCHOOL,M,N
24.0,5.0,36TH & POWELTON AVE,39.9598822652883,-75.1937892530923,POWELL SCHOOL,R,L
24.0,6.0,3901 MARKET ST,39.9574067874341,-75.2006937544426,UNIVERSITY SQUARE,F,L
24.0,7.0,631 N 39TH ST,39.9641063983511,-75.1994002027751,MANTUA HAVERFORD COMM CTR,R,L
24.0,8.0,325 N 39TH ST,39.9599357781317,-75.2001848811498,ROWAN HOUSE,F,L
24.0,9.0,4015-17 POPLAR ST,39.9728629007963,-75.2046575823753,HEAVENLY HALL,M,L
24.0,10.0,25 N 33RD ST,39.9565025379509,-75.1892845000457,THE ARMORY AT DREXEL,F,L
24.0,11.0,34TH & HAVERFORD AVE,39.9640519921805,-75.1916042353247,DURHAM BRANCH LIBRARY,F,N
24.0,12.0,631 N 39TH ST,39.9641063983511,-75.1994002027751,MANTUA HAVERFORD COMM CTR,R,L
24.0,13.0,36TH & FAIRMOUNT AVE,39.9660184279543,-75.1949330422339,MC MICHAEL SCHOOL,M,N
24.0,14.0,4015-17 POPLAR ST,39.9728629007963,-75.2046575823753,HEAVENLY HALL,M,L
24.0,15.0,41ST & BROWN STS,39.9671679399764,-75.2056320419207,BELMONT ACADEMY CHARTER SCHOOL,M,N
24.0,16.0,41ST & BROWN STS,39.9671679399764,-75.2056320419207,BELMONT ACADEMY CHARTER SCHOOL,M,N
24.0,17.0,631 N 39TH ST,39.9641063983511,-75.1994002027751,MANTUA HAVERFORD COMM CTR,R,L
24.0,18.0,25 N 33RD ST,39.9565025379509,-75.1892845000457,THE ARMORY AT DREXEL,F,L
24.0,19.0,25 N 33RD ST,39.9565025379509,-75.1892845000457,THE ARMORY AT DREXEL,F,L
25.0,1.0,3068 BELGRADE ST,39.9850140627614,-75.1072836218632,PORT RICHMOND SENIOR CENTER,R,N
25.0,2.0,MEMPHIS & ANN STS,39.9862970257602,-75.1118889197522,MEMPHIS ST ACADEMY CHARTER,A,N
25.0,3.0,3068 BELGRADE ST,39.9850140627614,-75.1072836218632,PORT RICHMOND SENIOR CENTER,R,N
25.0,4.0,INDIANA & ALMOND STS,39.9831768350656,-75.1082490471219,RICHMOND LIBRARY,M,N
25.0,5.0,INDIANA & ALMOND STS,39.9831768350656,-75.1082490471219,RICHMOND LIBRARY,M,N
25.0,6.0,3068 BELGRADE ST,39.9850140627614,-75.1072836218632,PORT RICHMOND SENIOR CENTER,R,N
25.0,7.0,2649 E SOMERSET ST		 GARAG,,,E 		        M N,,
25.0,8.0,3068 BELGRADE ST,39.9850140627614,-75.1072836218632,PORT RICHMOND SENIOR CENTER,R,N
25.0,9.0,3116 FRANKFORD AVE,39.9923889708138,-75.1119811391952,MASTBAUM HIGH SCHOOL,M,N
25.0,10.0,2649 E SOMERSET ST,39.9795041812435,-75.1117890375124,GARAGE,M,N
25.0,11.0,CEDAR & CAMBRIA STS,39.9843661867488,-75.112964442632,COHOCKSINK RECREATION CENTER,F,L
25.0,12.0,CEDAR & CAMBRIA STS,39.9843661867488,-75.112964442632,COHOCKSINK RECREATION CENTER,F,L
25.0,13.0,MEMPHIS & ANN STS,39.9862970257602,-75.1118889197522,MEMPHIS ST ACADEMY CHARTER,A,N
25.0,14.0,2646 KENSINGTON AVE,39.9897222148672,-75.1261165227778,CARDINAL BEVILACQUA CENTER,F,N
25.0,15.0,ELKHART & HELEN STS,39.992867541839,-75.115286035509,WILLARD SCHOOL,M,N
25.0,16.0,2271-75 E WILLIAM ST,39.9859257228614,-75.1148027729617,FUNERAL HOME,N,N
25.0,17.0,MEMPHIS & ANN STS,39.9862970257602,-75.1118889197522,MEMPHIS ST ACADEMY CHARTER,A,N
25.0,18.0,3116 FRANKFORD AVE,39.9923889708138,-75.1119811391952,MASTBAUM HIGH SCHOOL,M,N
25.0,19.0,ELKHART & HELEN STS,39.992867541839,-75.115286035509,WILLARD SCHOOL,M,N
25.0,20.0,ELKHART & HELEN STS,39.992867541839,-75.115286035509,WILLARD SCHOOL,M,N
25.0,21.0,3116 FRANKFORD AVE,39.9923889708138,-75.1119811391952,MASTBAUM HIGH SCHOOL,M,N
25.0,22.0,CEDAR & CAMBRIA STS,39.9843661867488,-75.112964442632,COHOCKSINK RECREATION CENTER,F,L
25.0,23.0,MEMPHIS & ANN STS,39.9862970257602,-75.1118889197522,MEMPHIS ST ACADEMY CHARTER,A,N
25.0,24.0,MEMPHIS & ANN STS,39.9862970257602,-75.1118889197522,MEMPHIS ST ACADEMY CHARTER,A,N
26.0,1.0,3301 S 20TH ST,39.9096146276066,-75.1821658984398,CALVARY TEMPLE ACADEMY,M,L
26.0,2.0,3301 S 20TH ST,39.9096146276066,-75.1821658984398,CALVARY TEMPLE ACADEMY,M,L
26.0,3.0,3301 S 20TH ST,39.9096146276066,-75.1821658984398,CALVARY TEMPLE ACADEMY,M,L
26.0,4.0,BROAD & OREGON AVE,39.9168860057441,-75.1713957479654,MARCONI PLAZA BOCCE COURTS,M,N
26.0,5.0,18TH & JOHNSTON STS,39.9163175050711,-75.1780080529173,BARRY RECREATION CENTER,R,N
26.0,6.0,18TH & JOHNSTON STS,39.9163175050711,-75.1780080529173,BARRY RECREATION CENTER,R,N
26.0,7.0,2437 S BROAD ST,39.9198315518826,-75.1703308842373,FUMO FAMILY BRANCH LIBRARY,M,N
26.0,8.0,2500 S 16TH ST,39.9192355083308,-75.1744801341636,ST MONICAS BOWLING LANES,R,N
26.0,9.0,18TH & JOHNSTON STS,39.9163175050711,-75.1780080529173,BARRY RECREATION CENTER,R,N
26.0,10.0,16TH & JACKSON STS,39.9235578183423,-75.1732275226112,GUERIN REC CTR-BOCCE BUILDING,M,N
26.0,11.0,16TH & JACKSON STS,39.9235578183423,-75.1732275226112,GUERIN REC CTR-BOCCE BUILDING,M,N
26.0,12.0,16TH & JACKSON STS,39.9235578183423,-75.1732275226112,GUERIN RECREATION CENTER,M,N
26.0,13.0,22ND & RITNER STS,39.9223300192332,-75.1835602996198,G.A.M.P. SCHOOL,A,N
26.0,14.0,22ND & RITNER STS,39.9223300192332,-75.1835602996198,G.A.M.P. SCHOOL,A,N
26.0,15.0,22ND & RITNER STS,39.9223300192332,-75.1835602996198,G.A.M.P. SCHOOL,A,N
26.0,16.0,16TH & JACKSON STS,39.9235578183423,-75.1732275226112,GUERIN RECREATION CENTER,M,N
26.0,17.0,16TH & JACKSON STS,39.9235578183423,-75.1732275226112,GUERIN RECREATION CENTER,M,N
26.0,18.0,22ND & RITNER STS,39.9223300192332,-75.1835602996198,G.A.M.P. SCHOOL,A,N
26.0,19.0,16TH & JACKSON STS,39.9235578183423,-75.1732275226112,GUERIN RECREATION CENTER,M,N
26.0,20.0,3301 S 20TH ST,39.9096146276066,-75.1821658984398,CALVARY TEMPLE ACADEMY,M,L
26.0,21.0,2437 S BROAD ST,39.9198315518826,-75.1703308842373,FUMO FAMILY BRANCH LIBRARY,M,N
26.0,22.0,16TH & JACKSON STS,39.9235578183423,-75.1732275226112,GUERIN REC CTR-BOCCE BUILDING,M,N
26.0,23.0,3301 S 20TH ST,39.9096146276066,-75.1821658984398,CALVARY TEMPLE ACADEMY,M,L
26.0,24.0,3301 S 20TH ST,39.9096146276066,-75.1821658984398,CALVARY TEMPLE ACADEMY,M,L
27.0,1.0,4247 LOCUST ST,39.9539933127245,-75.2084975668432,FAIRFAX APARTMENTS,R,N
27.0,2.0,4400 BALTIMORE AVE,39.9488877980109,-75.2114645665793,H M S SCHOOL,F,H
27.0,3.0,3609 CHESTNUT ST,39.9551087956938,-75.1949204704608,PENN CARE & REHABILITATION CTR,M,L
27.0,4.0,51ST ST & GREENWAY AVE,39.9401588610249,-75.2163748522121,COMEGYS SCHOOL,M,L
27.0,5.0,3914 LOCUST WALK,39.9526887232539,-75.2009421408042,CIVIC HOUSE/UNIV OF PENNA,F,N
27.0,6.0,42ND & LUDLOW STS,39.9568843408621,-75.2061952594468,ROBESON HIGH SCHOOL,M,N
27.0,7.0,600 S 43RD ST,39.9475714521455,-75.2093157883438,ROSENBERGER HALL/ROOM 100,F,N
27.0,8.0,3948 WALNUT ST,39.9526887232539,-75.2009421408042,WALNUT ST WEST LIBRARY,M,N
27.0,9.0,3948 WALNUT ST/201 S 40TH,39.9539513827349,-75.2014062486485,ST    WALNUT ST WEST LIBRARY,M,N
27.0,10.0,257 S 45TH ST,39.9533590130218,-75.211850620634,SPRUCE HILL COMM ASSOC,M,L
27.0,11.0,3609 CHESTNUT ST,39.9551087956938,-75.1949204704608,PENN CARE & REHABILITATION CTR,M,L
27.0,12.0,51ST ST & GREENWAY AVE,39.9401588610249,-75.2163748522121,COMEGYS SCHOOL,M,L
27.0,13.0,42ND & LUDLOW STS,39.9568843408621,-75.2061952594468,ROBESON HIGH SCHOOL,M,N
27.0,14.0,257 S 45TH ST,39.9533590130218,-75.211850620634,SPRUCE HILL COMM ASSOC,M,L
27.0,15.0,48TH & WOODLAND AVE,39.9420487774918,-75.2117131607772,48TH & WOODLAND REC CTR,M,L
27.0,16.0,48TH & WOODLAND AVE,39.9420487774918,-75.2117131607772,48TH & WOODLAND REC CENTER,M,L
27.0,17.0,1450 S 50TH ST,39.9391682756225,-75.2144213138117,REBA BROWN SR APTS,F,H
27.0,18.0,3733 SPRUCE ST,39.9515123772347,-75.1979353518182,VANCE HALL,F,N
27.0,19.0,3333 WALNUT ST,39.9534532935874,-75.1910003500784,HILL HOUSE,M,N
27.0,20.0,3910 IRVING ST,39.9526887232539,-75.2009421408042,HARRISON COLLEGE HOUSE,F,N
27.0,21.0,3820 LOCUST WALK,39.9524482255153,-75.2035917591627,UNIV OF PA HARNWELL HOUSE,F,N
27.0,22.0,3417 SPRUCE ST,39.9514854330797,-75.1937649862137,HOUSTON HALL  READING ROOM,F,N
27.0,23.0,4247 LOCUST ST,39.9539933127245,-75.2084975668432,FAIRFAX APARTMENTS,R,N
28.0,1.0,22ND & HUNTINGDON STS,39.9940265341728,-75.1679261373111,CECIL B MOORE RECREATION CTR,M,L
28.0,2.0,28TH & DAUPHIN STS,39.9907580610362,-75.1782815010487,WRIGHT SCHOOL,F,L
28.0,3.0,28TH & DAUPHIN STS,39.9907580610362,-75.1782815010487,WRIGHT SCHOOL,F,L
28.0,4.0,32ND & RIDGE AVE,39.9905952022719,-75.1849277204065,STRAWBERRY MANSION SCHOOL,F,L
28.0,5.0,32ND & RIDGE AVE,39.9905952022719,-75.1849277204065,STRAWBERRY MANSION SCHOOL,F,L
28.0,6.0,28TH & DAUPHIN STS,39.9907580610362,-75.1782815010487,WRIGHT SCHOOL,F,L
28.0,7.0,26TH & YORK STS,39.9918753616219,-75.1749515486924,FIRE ENGINE CO # 45,M,N
28.0,8.0,2450 W SERGEANT ST,39.9939289102564,-75.1726326161552,NEW LIFE BAPTIST CHURCH,M,N
28.0,9.0,32ND & LEHIGH AVE,,,ETHEL ALLEN SCHOOL,M,L
28.0,10.0,32ND & LEHIGH AVE,,,ETHEL ALLEN SCHOOL,M,L
28.0,11.0,32ND & LEHIGH AVE,,,ETHEL ALLEN SCHOOL,M,L
28.0,12.0,32ND & LEHIGH AVE,,,ETHEL ALLEN SCHOOL,M,L
28.0,13.0,2808 W LEHIGH AVE,39.9966736543668,-75.1773382046668,WIDENER BRANCH LIBRARY,F,L
28.0,14.0,2808 W LEHIGH AVE,39.9966736543668,-75.1773382046668,WIDENER BRANCH LIBRARY,F,L
28.0,15.0,2808 W LEHIGH AVE,39.9966736543668,-75.1773382046668,WIDENER BRANCH LIBRARY,F,L
28.0,16.0,2808 W LEHIGH AVE,39.9966736543668,-75.1773382046668,WIDENER BRANCH LIBRARY,F,L
28.0,17.0,2832 N 28TH ST,39.9995215265787,-75.1766018262956,MEDIATOR LUTHERAN CHURCH,F,N
28.0,18.0,22ND & HUNTINGDON STS,39.9940265341728,-75.1679261373111,CECIL B MOORE RECREATION CTR,M,L
29.0,1.0,1999 RIDGE AVE,39.9753214661312,-75.1676879846872,MOORE MANOR SR HOME,F,L
29.0,2.0,1450 N 21ST ST,39.9770534728988,-75.1699866279056,SHARSWOOD COMM CENTER,F,L
29.0,3.0,2808 W THOMPSON ST,39.9759148935008,-75.1818939991927,CELESTIAL TABERNACLE MINISTRY,M,N
29.0,4.0,2340 BOLTON WAY,39.9784246040997,-75.1732142635634,BLUMBERG SENIOR HOUSING,F,L
29.0,5.0,2320 CECIL B MOORE AVE,39.9804817309215,-75.1733071255831,CECIL B MOORE LIBRARY,F,L
29.0,6.0,2301-09 W OXFORD ST,39.9794334426762,-75.1729756333591,HAVEN PENIEL U M CHURCH,N,N
29.0,7.0,2340 BOLTON WAY,39.9784246040997,-75.1732142635634,BLUMBERG SENIOR HOUSING,F,L
29.0,8.0,2340 BOLTON WAY,39.9784246040997,-75.1732142635634,BLUMBERG SENIOR HOUSING,F,L
29.0,9.0,26TH & JEFFERSON STS,39.9783559972303,-75.1778888832272,BOONE SCHOOL,R,N
29.0,10.0,3000 W MASTER ST,39.9772507544021,-75.1853846303299,BREWERYTOWN CDC OFFICE,F,N
29.0,11.0,26TH & THOMPSON STS,39.9757038691629,-75.1784647614744,MORRIS SCHOOL,F,L
29.0,12.0,2632 W THOMPSON ST,39.9757709963956,-75.1798826028736,COLLEGEVIEW HOMES (PHA),F,L
29.0,13.0,26TH & THOMPSON STS,39.9757038691629,-75.1784647614744,MORRIS SCHOOL,F,L
29.0,14.0,26TH & JEFFERSON STS,39.9783559972303,-75.1778888832272,BOONE SCHOOL,R,N
29.0,15.0,28TH & OXFORD STS,39.98016841183,-75.1805923204452,W D KELLEY SCHOOL,M,L
29.0,16.0,28TH & OXFORD STS,39.98016841183,-75.1805923204452,W D KELLEY SCHOOL,M,L
29.0,17.0,3000 W MASTER ST,39.9772507544021,-75.1853846303299,BREWERYTOWN CDC OFFICE,F,N
29.0,18.0,28TH & THOMPSON STS,39.9761025097727,-75.1814746202124,FIRE ENGINE CO # 34,F,N
30.0,1.0,1525 FITZWATER ST,39.9423972335773,-75.1685930079532,GIDEON HALL@SCOTTISH RITE HSE,M,L
30.0,2.0,742 S 16TH ST,39.9419839034133,-75.1695078101003,UNITED HOUSE OF PRAYER,M,N
30.0,3.0,BROAD & LOMBARD STS,39.9446656016273,-75.1653414017718,DISTRICT 01 HEALTH CENTER,F,N
30.0,4.0,1427 CATHARINE ST,39.9411960628107,-75.1670830644887,UNIVERSAL CHARTER SCHOOL,F,N
30.0,5.0,1724 CHRISTIAN ST,39.9405021003712,-75.1721257447249,Y M C A,F,N
30.0,6.0,17TH & FITZWATER STS,39.9424164461875,-75.1707381937081,ANDERSON RECREATION CENTER,F,N
30.0,7.0,1800 LOMBARD ST,39.9450441297951,-75.1725992509694,PENN MEDICINE,F,H
30.0,8.0,2501 LOMBARD ST,39.9469705713406,-75.1820851603408,THE PHILADELPHIA SCHOOL,M,N
30.0,9.0,20TH & CATHARINE STS,39.9419903092843,-75.1756797973264,ARTHUR SCHOOL,M,L
30.0,10.0,1724 CHRISTIAN ST,39.9405021003712,-75.1721257447249,Y M C A,F,N
30.0,11.0,20TH & CATHARINE STS,39.9419903092843,-75.1756797973264,ARTHUR SCHOOL,M,L
30.0,12.0,2309 CARPENTER ST,39.9411171254802,-75.1816677074727,ST ANTHONYS SENIOR RESIDENCE,M,L
30.0,13.0,2309 CARPENTER ST,39.9411171254802,-75.1816677074727,ST ANTHONYS SENIOR RESIDENCES,M,L
30.0,14.0,20TH & CATHARINE STS,39.9419903092843,-75.1756797973264,ARTHUR SCHOOL,M,L
30.0,15.0,20TH & CATHARINE STS,39.9419903092843,-75.1756797973264,ARTHUR SCHOOL,M,L
30.0,16.0,2501 LOMBARD ST,39.9469705713406,-75.1820851603408,THE PHILADELPHIA SCHOOL,M,N
30.0,17.0,2309 CARPENTER ST,39.9411171254802,-75.1816677074727,ST ANTHONYS SENIOR RESIDENCE,M,L
31.0,1.0,2446-48 CORAL ST,39.9841641662983,-75.128783938132,ARTS HOUSE APTS,F,L
31.0,2.0,2646 KENSINGTON AVE,39.9897222148672,-75.1261165227778,CARDINAL BEVILACQUA CENTER,F,N
31.0,3.0,YORK & TRENTON STS,39.9813843406808,-75.1275805959364,HACKETT SCHOOL,M,N
31.0,4.0,2212-18 E SUSQUEHANNA AVE,39.9787244502621,-75.1290581306845,BETHEL BAPTIST CHURCH,F,N
31.0,5.0,2230 TAGGERT ST,39.9765276721417,-75.1261842198849,GARAGE,F,L
31.0,6.0,2204 ARAMINGO AVE,39.974371313428,-75.1228043666679,DERKA'S AUTOMOTIVE,M,L
31.0,7.0,EDGEMONT & HUNTINGDON STS,39.9767449109802,-75.1167329538134,MARITIME ACADEMY CHARTER,M,N
31.0,8.0,2463 EMERALD ST,39.9847634016709,-75.1284466358666,KENSINGTON HIGH SCHOOL ANNEX,M,H
31.0,9.0,2463 EMERALD ST,39.9847634016709,-75.1284466358666,KENSINGTON HIGH SCHOOL ANNEX,M,H
31.0,10.0,2139 E CUMBERLAND ST,39.9823685794025,-75.1246013286777,ST MICHAELS LUTHERAN CHURCH,M,N
31.0,11.0,SERGEANT & JASPER STS,39.9871308182669,-75.1275908726595,H A BROWN SCHOOL,A,N
31.0,12.0,SERGEANT & JASPER STS,39.9871308182669,-75.1275908726595,H A BROWN SCHOOL,A,N
31.0,13.0,YORK & TRENTON STS,39.9813843406808,-75.1275805959364,HACKETT SCHOOL,M,N
31.0,14.0,2301 E CUMBERLAND ST,39.9810222654541,-75.1236145116144,OFFICE,R,N
31.0,15.0,2424 E YORK ST,39.9774530627422,-75.1246199836175,2424 STUDIOS,M,N
31.0,16.0,2364 E CUMBERLAND ST,39.9795390076993,-75.123004299454,BEACON PRESBYTERIAN CHURCH,R,N
31.0,17.0,BELGRADE & HUNTINGDON STS,39.978880480975,-75.1186113883722,FIREHOUSE,F,L
31.0,18.0,MEMPHIS & TUCKER STS,39.9822351837383,-75.1196537785776,ST ANNE'S SOCIAL HALL,R,N
31.0,19.0,ARAMINGO & LEHIGH AVES,39.981482855331,-75.1173551426878,CIONE RECREATION CENTER,M,N
32.0,1.0,28TH & OXFORD STS,39.98016841183,-75.1805923204452,W D KELLEY SCHOOL,M,L
32.0,2.0,22ND & NORRIS STS,39.9848918777806,-75.1699150724942,YOUNG SCHOLARS DOUGLASS SCHOOL,M,N
32.0,3.0,28TH & OXFORD STS,39.98016841183,-75.1805923204452,W D KELLEY SCHOOL,M,L
32.0,4.0,28TH & OXFORD STS,39.98016841183,-75.1805923204452,W D KELLEY SCHOOL,M,N
32.0,5.0,16TH & BERKS STS,39.9821294174258,-75.1604711423162,AMOS RECREATION CENTER,F,L
32.0,6.0,16TH & BERKS STS,39.9821294174258,-75.1604711423162,AMOS RECREATION CENTER,F,L
32.0,7.0,16TH & DIAMOND STS,39.9851493734347,-75.1598121192007,DUCKREY SCHOOL,F,N
32.0,8.0,16TH & BERKS STS,39.9821294174258,-75.1604711423162,AMOS RECREATION CENTER,F,L
32.0,9.0,17TH & NORRIS STS,39.9838256319026,-75.161719526221,CARVER SCHOOL ENGINR & SCIENCE,F,L
32.0,10.0,3226 CLIFFORD ST,39.9830612982269,-75.187571394144,VERNON MARKS HOUSE,M,L
32.0,11.0,17TH & NORRIS STS,39.9838256319026,-75.161719526221,CARVER SCHOOL ENGINR & SCIENCE,F,L
32.0,12.0,2121 GRATZ ST,39.986297429283,-75.1633755503646,CHURCH OF THE ADVOCATE GYM,M,L
32.0,13.0,1924 N WOODSTOCK ST,39.9834512191906,-75.1676287870103,COMMUNITY CENTER,M,L
32.0,14.0,1924 N WOODSTOCK ST,39.9834512191906,-75.1676287870103,COMMUNITY CENTER,M,L
32.0,15.0,23RD & MONTGOMERY AVE,39.9821015380703,-75.1721618959372,OLD ST ELIZABETHS SCHOOL,F,L
32.0,16.0,23RD & MONTGOMERY AVE,39.9821015380703,-75.1721618959372,OLD ST ELIZABETHS SCHOOL,F,L
32.0,17.0,23RD & MONTGOMERY AVE,39.9821015380703,-75.1721618959372,OLD ST ELIZABETHS SCHOOL,F,L
32.0,18.0,2500 W NORRIS ST,39.9854059190162,-75.1757586284396,JOHNSON HOMES (PHA),M,L
32.0,19.0,2600 W SUSQUEHANNA AVE,39.9886658423281,-75.1767418506264,CLARA BALDWIN MANOR,B,L
32.0,20.0,29TH & GLENWOOD AVE,39.9833147210353,-75.1815798124668,GIDEON SCHOOL,M,N
32.0,21.0,30TH & BERKS STS,39.9850275767203,-75.1828712988655,BLAINE SCHOOL,M,L
32.0,22.0,32ND & RIDGE AVE,39.9905952022719,-75.1849277204065,STRAWBERRY MANSION SCHOOL,F,L
32.0,23.0,30TH & BERKS STS,39.9850275767203,-75.1828712988655,BLAINE SCHOOL,M,L
32.0,24.0,30TH & BERKS STS,39.9850275767203,-75.1828712988655,BLAINE SCHOOL,M,L
32.0,25.0,30TH & BERKS STS,39.9850275767203,-75.1828712988655,BLAINE SCHOOL,M,L
32.0,26.0,33RD & DIAMOND STS,39.9886664327649,-75.1870603769418,MANDER RECREATION CENTER,F,N
32.0,27.0,33RD & DIAMOND STS,39.9886664327649,-75.1870603769418,MANDER RECREATION CENTER,F,N
32.0,28.0,2500 W NORRIS ST,39.9854059190162,-75.1757586284396,JOHNSON HOMES (PHA),M,L
32.0,29.0,25TH & DIAMOND STS,39.9870253170008,-75.1743620952228,HANK GATHERS RECREATION CTR,M,N
32.0,30.0,29TH & GLENWOOD AVE,39.9833147210353,-75.1815798124668,GIDEON SCHOOL,M,L
32.0,31.0,3017 W OXFORD ST,39.9811276670621,-75.1846099334629,THE SARTAIN APTS,M,N
33.0,1.0,901 E CAYUGA ST,40.0151694966487,-75.1090956575445,RESTAURANT,M,H
33.0,2.0,J & CAYUGA STS,40.0143831600663,-75.1054512373299,FERKO RECREATION CENTER,B,L
33.0,3.0,HOWLAND & CAYUGA STS,40.0139580548703,-75.1022105813901,JUNIATA YOUTH CLUB,M,L
33.0,4.0,HOWLAND & CAYUGA STS,40.0139580548703,-75.1022105813901,JUNIATA YOUTH CLUB,M,L
33.0,5.0,CASTOR AVE & CAYUGA ST,40.0133259985346,-75.0974316132575,PICCOLI RECREATION CENTER,M,L
33.0,6.0,CASTOR AVE & CAYUGA ST,40.0133259985346,-75.0974316132575,PICCOLI RECREATION CENTER,M,L
33.0,7.0,1500 E HUNTING PARK AVE,40.0095768752883,-75.0967808466574,WATER DEPT LABORATORY,N,L
33.0,8.0,1500 E HUNTING PARK AVE,40.0095768752883,-75.0967808466574,WATER DEPT LABORATORY,N,L
33.0,9.0,L & LUZERNE STS,40.0077210273711,-75.1028351844905,HOPKINSON LITTLE SCHOOL HOUSE,M,L
33.0,10.0,L & LUZERNE STS,40.0077210273711,-75.1028351844905,HOPKINSON LITTLE SCHOOL HOUSE,M,L
33.0,11.0,J ST & ERIE AVE,40.0054726975268,-75.10735290968,J STREET CAFE DINING ROOM,M,N
33.0,12.0,J ST & ERIE AVE,40.0054726975268,-75.10735290968,J STREET CAFE DINING ROOM,M,N
33.0,13.0,L & LUZERNE STS,40.0077210273711,-75.1028351844905,HOPKINSON LITTLE SCHOOL HOUSE,M,L
33.0,14.0,L & SEDGELY STS,,,JUNIATA PARK OLDER ADULT CTR,F,L
33.0,15.0,H & TIOGA STS,40.0010927521306,-75.1122709826701,P A L CENTER,M,L
33.0,16.0,J & TIOGA STS,40.0005812223666,-75.108387526355,SCANLON RECREATION CENTER,F,N
33.0,17.0,ELKHART & HELEN STS,39.992867541839,-75.115286035509,WILLARD SCHOOL,M,N
33.0,18.0,ELKHART & HELEN STS,39.992867541839,-75.115286035509,WILLARD SCHOOL,M,N
33.0,19.0,H & TIOGA STS,40.0010927521306,-75.1122709826701,P A L CENTER,M,L
33.0,20.0,J & TIOGA STS,40.0005812223666,-75.108387526355,SCANLON RECREATION CENTER,F,N
33.0,21.0,H & TIOGA STS,40.0010927521306,-75.1122709826701,HARROWGATE PAL CENTER,M,L
33.0,22.0,H & TIOGA STS,40.0010927521306,-75.1122709826701,P A L CENTER,M,L
33.0,23.0,J & TIOGA STS,40.0005812223666,-75.108387526355,SCANLON RECREATION CENTER,F,N
33.0,24.0,J & TIOGA STS,40.0005812223666,-75.108387526355,SCANLON RECREATION CENTER,F,N
34.0,1.0,6122 MARKET ST,39.9620724903044,-75.2436875496733,BARBER SHOP,M,N
34.0,2.0,201 N 61ST ST,39.9653817751544,-75.2418059401711,DAYCARE CENTER,M,N
34.0,3.0,59TH & RACE STS,39.9648118606725,-75.2381370276923,BARRY SCHOOL,M,N
34.0,4.0,6131 VINE ST,39.9671505864284,-75.242822069371,STOREFRONT,M,N
34.0,5.0,520 N 61ST ST,39.9705215839935,-75.2413770181865,BETTERWAY BIBLE CHURCH,M,N
34.0,6.0,61ST & THOMPSON STS,39.9713544881671,-75.2409882533443,FIRE ENGINE CO # 41,F,L
34.0,7.0,1401 N 60TH ST,39.9731205334834,-75.2394142316221,CALVIN PRESBYTERIAN CHURCH,B,N
34.0,8.0,60TH & COLUMBIA AVE,39.981231035367,-75.2412283565567,TUSTIN RECREATION CENTER,F,N
34.0,9.0,520 N 61ST ST,39.9705215839935,-75.2413770181865,BETTERWAY BIBLE CHURCH,M,N
34.0,10.0,6130 LANSDOWNE AVE,39.9754321387791,-75.2428983261978,MANNA OUTREACH WORSHIP CENTER,F,N
34.0,11.0,6130 LANSDOWNE AVE,39.9754321387791,-75.2428983261978,MANNA OUTREACH WORSHIP CTR,F,N
34.0,12.0,61ST & JEFFERSON STS,39.9787131746252,-75.2423559534493,SIMPSON-FLETCHER METH CHURCH,A,L
34.0,13.0,636 N 66TH ST,39.9731401457587,-75.2521420203683,HARAMBEE INSTITUTE,M,N
34.0,14.0,1100 N 63RD ST,39.9808854944774,-75.2470200741987,KIMBLE FUNERAL HOME,F,L
34.0,15.0,6150 W OXFORD ST,39.9794626242201,-75.2449913502695,MONTE VISTA APTS,F,L
34.0,16.0,65TH & GIRARD AVE,39.9708588414425,-75.2491774950286,HADDINGTON LIBRARY,A,N
34.0,17.0,65TH & CALLOWHILL STS,39.969334608049,-75.2494961966268,GRANAHAN RECREATION CENTER,R,L
34.0,18.0,636 N 66TH ST,39.9731401457587,-75.2521420203683,HARAMBEE INSTITUTE,M,N
34.0,19.0,636 N 66TH ST,39.9731401457587,-75.2521420203683,HARAMBEE INSTITUTE,M,N
34.0,20.0,68TH & LANSDOWNE AVE,39.9742617059426,-75.2551969137889,PAPA RECREATION CENTER,M,L
34.0,21.0,68TH & LANSDOWNE AVE,39.9742617059426,-75.2551969137889,PAPA RECREATION CENTER,M,L
34.0,22.0,6524 LEBANON AVENUE,39.9774561635773,-75.250958814447,STOREFRONT			M N,,
34.0,23.0,6376 CITY AVE,39.9885191736039,-75.2532864924246,OVERBROOK PRESBYTERIAN CHURCH,A,L
34.0,24.0,1101 N 63RD ST,39.9849911002726,-75.2577466280345,LIBERTY TOWERS APTS,A,L
34.0,25.0,63RD & LANCASTER AVE,39.9850541303828,-75.2473707563566,FIRE ENGINE CO # 54,M,N
34.0,26.0,65TH & GIRARD AVE,39.9708588414425,-75.2491774950286,HADDINGTON LIBRARY,A,N
34.0,27.0,1625 N 76TH ST,39.9749455803388,-75.2678012932389,LAMBERTON LITTLE SCHOOLHOUSE,F,L
34.0,28.0,65TH & CALLOWHILL STS,39.969334608049,-75.2494961966268,GRANAHAN RECREATION CENTER,R,L
34.0,29.0,1625 N 76TH ST,39.9749455803388,-75.2678012932389,LAMBERTON LITTLE SCHOOLHOUSE,F,L
34.0,30.0,7630 WOODBINE AVE,39.9738882263918,-75.2683946906982,OVERBROOK PARK CHURCH CHRIST,A,N
34.0,31.0,7711 OVERBROOK AVE,39.9769577154985,-75.2730622150329,GARAGE,M,N
34.0,32.0,HAVERFORD & WOODBINE AVES,39.9763634647712,-75.2640722096819,OVERBROOK LIBRARY,F,L
34.0,33.0,1100 N 63RD ST,39.9808854944774,-75.2470200741987,KIMBLE FUNERAL HOME,F,L
34.0,34.0,7060 CITY AVE,39.9821903306206,-75.2639681556722,RESIDENCE,F,L
34.0,35.0,1660 N 62ND ST,39.9768868396178,-75.2441189820499,TRUE IMAGE SALON,M,N
34.0,36.0,6135 MARKET ST,39.9625931954268,-75.2438896091934,COMMUNITY SERVICE CENTER,N,N
34.0,37.0,HAVERFORD & WOODBINE AVES,39.9763634647712,-75.2640722096819,OVERBROOK LIBRARY,F,L
34.0,38.0,67 N 63RD ST,39.9641331823812,-75.2461240575148,PHILA CHILD SCHOLARS,R,N
34.0,39.0,HAVERFORD & WOODBINE AVES,39.9763634647712,-75.2640722096819,OVERBROOK LIBRARY,F,L
34.0,40.0,1625 N 76TH ST,39.9749455803388,-75.2678012932389,LAMBERTON LITTLE SCHOOLHOUSE,F,L
34.0,41.0,HAVERFORD & WOODBINE AVES,39.9763634647712,-75.2640722096819,OVERBROOK LIBRARY,F,L
34.0,42.0,6143 LANSDOWNE AVE,39.9757827596619,-75.2433601349441,CHURCH,M,L
35.0,1.0,7236 RISING SUN AVE,40.0605799395088,-75.0851714460903,STORE,M,L
35.0,2.0,603 LONGSHORE AVE,40.054622317153,-75.0877501227119,TRINITY CHURCH OXFORD/BUCHANAN,R,L
35.0,3.0,603 LONGSHORE AVE,40.054622317153,-75.0877501227119,TRINITY CHURCH OXFORD/BUCHANAN,R,L
35.0,4.0,6545 RISING SUN AVE,40.0517560237749,-75.093477821062,BETHANY UNITED CHURCH,M,N
35.0,5.0,6500 TABOR AVE,40.0486376588276,-75.0898644489053,PHILA PROTESTANT HOME,F,L
35.0,6.0,6200 RISING SUN AVE,40.0477571032219,-75.0979858324741,ST WILLIAMS MEMORIAL HALL,F,L
35.0,7.0,6200 RISING SUN AVE,40.0477571032219,-75.0979858324741,ST WILLIAMS MEMORIAL HALL,F,L
35.0,8.0,6200 RISING SUN AVE,40.0477571032219,-75.0979858324741,ST WILLIAMS MEMORIAL HALL,F,L
35.0,9.0,6000 RISING SUN AVE,40.0466405603107,-75.1016100677196,LAWNCREST LIBRARY,R,N
35.0,10.0,RISING SUN AVE & COMLY ST,40.0450397041786,-75.1011069999158,LAWNCREST RECREATION CENTER,F,H
35.0,11.0,RISING SUN AVE & COMLY ST,40.0450397041786,-75.1011069999158,LAWNCREST RECREATION CENTER,F,H
35.0,12.0,6000 RISING SUN AVE,40.0466405603107,-75.1016100677196,LAWNCREST LIBRARY,R,N
35.0,13.0,6001 COLGATE ST,40.0446431687007,-75.0999085049648,PRINCE OF PEACE CHURCH,M,L
35.0,14.0,6150 ALGON AVE,40.0411411835215,-75.0882048614695,OXFORD VILLAGE HOMES,F,L
35.0,15.0,1267 E CHELTENHAM AVE,40.0328889017104,-75.0864339824082,GLADING PRESBYTERIAN CHURCH,F,N
35.0,16.0,LANGDON & SANGER STS,40.0343242051074,-75.0922708881323,NEW FELS HIGH SCHOOL,F,H
35.0,17.0,LANGDON & SANGER STS,40.0343242051074,-75.0922708881323,NEW FELS HIGH SCHOOL,F,H
35.0,18.0,RISING SUN & CHELTENHAM AV,40.0429010328649,-75.1043335611186,ES    FRANKLIN SCHOOL,M,L
35.0,19.0,RISING SUN & CHELTENHAM AV,40.0429010328649,-75.1043335611186,ES    FRANKLIN SCHOOL,M,L
35.0,20.0,RISING SUN & CHELTENHAM AV,40.0429010328649,-75.1043335611186,ES    FRANKLIN SCHOOL,M,L
35.0,21.0,RISING SUN & CHELTENHAM AV,40.0429010328649,-75.1043335611186,ES    FRANKLIN SCHOOL,M,L
35.0,22.0,LANGDON & SANGER STS,40.0343242051074,-75.0922708881323,NEW FELS HIGH SCHOOL,F,H
35.0,23.0,SUMMERDALE & GODFREY AVES,40.0307055849442,-75.0932052511177,HOUSEMAN RECREATION CENTER,F,L
35.0,24.0,SUMMERDALE & GODFREY,40.0307055849442,-75.0932052511177,HOUSEMAN RECREATION CENTER,F,L
35.0,25.0,RISING SUN AVE & COMLY ST,40.0450397041786,-75.1011069999158,LAWNCREST RECREATION CENTER,F,H
35.0,26.0,SUMMERDALE & GODFREY AVES,40.0307055849442,-75.0932052511177,HOUSEMAN RECREATION CENTER,F,L
35.0,27.0,TABOR RD & FOULKROD ST,40.0341017738117,-75.1059361671492,UNIVERSAL CREIGHTON LSH,M,N
35.0,28.0,5577 N HILLCREEK DRIVE,40.0379189356541,-75.1105430346834,HILL CREEK COMM CTR BLDG 10,M,L
35.0,29.0,TABOR RD & FOULKROD ST,40.0341017738117,-75.1059361671492,UNIVERSAL CREIGHTON LSH,M,L
35.0,30.0,TABOR RD & FOULKROD ST,40.0341017738117,-75.1059361671492,UNIVERSAL CREIGHTON LSH,M,L
35.0,31.0,RISING SUN & CHELTENHAM AV,40.0429010328649,-75.1043335611186,ES    FRANKLIN SCHOOL,M,L
35.0,32.0,6500 TABOR AVE,40.0486376588276,-75.0898644489053,PHILA PROTESTANT HOME,F,L
36.0,1.0,19TH & ELLSWORTH STS,39.9378540043476,-75.1749515147582,CHEW RECREATION CENTER,R,L
36.0,2.0,1814 WHARTON ST,39.9348319826377,-75.1744920042106,ST BARNABAS CHURCH,M,N
36.0,3.0,20TH & FEDERAL STS,39.9372842449441,-75.1767278766632,FIRE ENGINE CO # 24,F,L
36.0,4.0,23RD & REED STS,39.9348244848635,-75.1825455904082,WHARTON SQUARE REC CENTER,F,N
36.0,5.0,1219 S 21ST ST,39.9369825754427,-75.1785417752445,ST PAUL CHAPEL BAPTIST CHURCH,M,N
36.0,6.0,22ND & FEDERAL STS,39.9378629305213,-75.1801878614776,QUEEN MEMORIAL LIBRARY,F,L
36.0,7.0,23RD & REED STS,39.9348244848635,-75.1825455904082,WHARTON SQUARE REC CENTER,F,N
36.0,8.0,1410 S 20TH ST,39.9339847531364,-75.1777348007277,MITCHUM WILSON FUNERAL HOME,M,N
36.0,9.0,1814 WHARTON ST,39.9348319826377,-75.1744920042106,ST BARNABAS CHURCH,M,N
36.0,10.0,1410 S 20TH ST,39.9339847531364,-75.1777348007277,MITCHUM WILSON FUNERAL HOME,M,N
36.0,11.0,1700 FERNON ST,39.9304060652028,-75.1741745685025,ST THOMAS AQUINAS DAYCARE,M,N
36.0,12.0,2100 DICKINSON ST,39.9331130219126,-75.1797655286316,POINT BREEZE COURT (PHA),F,N
36.0,13.0,22ND & MC CLELLAN STS,39.9292914539029,-75.1820403188064,MC DANIEL SCHOOL,F,N
36.0,14.0,28TH & DICKINSON STS,39.9346518782308,-75.1909895545148,BARRETT NABUURS CENTER,A,N
36.0,15.0,22ND & MC CLELLAN STS,39.9292914539029,-75.1820403188064,MC DANIEL SCHOOL,F,N
36.0,16.0,2100 DICKINSON ST,39.9331130219126,-75.1797655286316,POINT BREEZE COURT (PHA),F,N
36.0,17.0,23RD & REED STS,39.9348244848635,-75.1825455904082,WHARTON SQUARE REC CENTER,F,N
36.0,18.0,23RD & REED STS,39.9348244848635,-75.1825455904082,WHARTON SQUARE REC CENTER,F,N
36.0,19.0,22ND & MC CLELLAN STS,39.9292914539029,-75.1820403188064,MC DANIEL SCHOOL,F,N
36.0,20.0,22ND & FEDERAL STS,39.9378629305213,-75.1801878614776,QUEEN MEMORIAL LIBRARY,F,L
36.0,21.0,23RD & REED STS,39.9348244848635,-75.1825455904082,WHARTON SQUARE REC CENTER,F,N
36.0,22.0,26TH & MOORE STS,39.9305840423444,-75.1886360509943,VARE RECREATION CENTER,F,L
36.0,23.0,2500 WHARTON ST,39.9359398919305,-75.1864333589069,CONSOLATION BAPTIST CHURCH,F,L
36.0,24.0,28TH & DICKINSON STS,39.9346518782308,-75.1909895545148,BARRETT NABUURS CENTER,A,N
36.0,25.0,28TH & DICKINSON STS,39.9346518782308,-75.1909895545148,BARRETT NABUURS CENTER,A,N
36.0,26.0,30TH & OAKFORD ST,39.9386124322884,-75.1933672358128,FINNEGAN RECREATION CENTER,F,N
36.0,27.0,28TH & DICKINSON STS,39.9346518782308,-75.1909895545148,BARRETT NABUURS CENTER,A,N
36.0,28.0,30TH & OAKFORD ST,39.9386124322884,-75.1933672358128,FINNEGAN REC CENTER,F,N
36.0,29.0,BROAD & MORRIS STS,39.9292573714005,-75.1686891830594,SOUTH PHILA BRANCH LIBRARY,F,N
36.0,30.0,3125 REED ST,39.9365858250028,-75.196218846321,KINGS FERRY SQUARE COMM ROOM,B,N
36.0,31.0,1401 S 16TH ST,39.9328998082472,-75.1708801171682,REED ST PRESBYTERIAN APTS,M,N
36.0,32.0,2707 FEDERAL ST,39.9391082156916,-75.1887291701709,OFFICE-HANNAH CONSTRUCTION,A,N
36.0,33.0,28TH & DICKINSON STS,39.9346518782308,-75.1909895545148,BARRETT NABUURS CENTER,A,N
36.0,34.0,1200 S BROAD ST,39.935538454466,-75.1678046687512,P.E.P. BUILDING,A,N
36.0,35.0,16TH & WHARTON STS,39.9345641235034,-75.1708301591094,BARRATT SCHOOL,M,N
36.0,36.0,16TH & WHARTON STS,39.9345641235034,-75.1708301591094,BARRATT SCHOOL,M,N
36.0,37.0,1401 S 16TH ST,39.9328998082472,-75.1708801171682,REED ST PRESBYTERIAN APTS,M,N
36.0,38.0,1600 REED ST,39.9333384688084,-75.1711095760804,REED ST PRESBYTERIAN APTS,M,N
36.0,39.0,19TH & ELLSWORTH STS,39.9378540043476,-75.1749515147582,CHEW RECREATION CENTER,R,L
36.0,40.0,16TH & WHARTON STS,39.9345641235034,-75.1708301591094,BARRATT SCHOOL,M,N
36.0,41.0,1401 S 16TH ST,39.9328998082472,-75.1708801171682,REED ST PRESBYTERIAN APTS,M,N
37.0,1.0,2265 N 10TH ST,39.9867970911944,-75.148786403976,EBENEZER BAPTIST CHURCH,F,N
37.0,2.0,2230 N 13TH ST,39.9869756968547,-75.1541277920821,DAUPHIN ARMS APTS,M,N
37.0,3.0,2411 N 11TH ST,39.9893321841933,-75.1492819807153,FAIRHILL APTS COMMUNITY CENTER,F,L
37.0,4.0,2230 N 13TH ST,39.9869756968547,-75.1541277920821,DAUPHIN ARMS APTS,M,N
37.0,5.0,2411 N 11TH ST,39.9893321841933,-75.1492819807153,FAIRHILL APTS COMMUNITY CENTER,F,L
37.0,6.0,2411 N 11TH ST,39.9893321841933,-75.1492819807153,FAIRHILL APTS COMMUNITY CENTER,F,L
37.0,7.0,2701 N 12TH ST,39.9936928995705,-75.150475366397,MORRIS CHAPEL BAPT CHURCH,M,N
37.0,8.0,2701 N 12TH ST,39.9936928995705,-75.150475366397,MORRIS CHAPEL BAPT CHURCH,M,N
37.0,9.0,12TH & CAMBRIA STS,39.9965383963348,-75.150141091367,12TH & CAMBRIA RECREATION CTR,F,L
37.0,10.0,12TH & CAMBRIA STS,39.9965383963348,-75.150141091367,12TH & CAMBRIA RECREATION CTR,F,L
37.0,11.0,12TH & RUSH STS,39.995570642883,-75.1503497031042,MASTERY CLYMER CHARTER SCHOOL,M,L
37.0,12.0,12TH & RUSH STS,39.995570642883,-75.1503497031042,MASTERY CLYMER CHARTER SCHOOL,M,L
37.0,13.0,2428 N FAIRHILL ST,39.988503654578,-75.1426621796473,EVANGELICAL TEMPLE WORSHIP CTR,R,N
37.0,14.0,8TH & CUMBERLAND STS,39.9896449382094,-75.1457887178183,HARTRANFT SCHOOL,M,L
37.0,15.0,2415 GERMANTOWN AVE,39.98895354335,-75.1463902127169,HARTRANFT COMM CENTER,M,N
37.0,16.0,6TH & INDIANA AVE,39.9969155436511,-75.1411674421061,POTTER THOMAS SCHOOL,M,L
37.0,17.0,924 W CAMBRIA ST,39.9960192168762,-75.1462277776798,ST MARKS OUTREACH BAPT CHURCH,M,N
37.0,18.0,924 W CAMBRIA ST,39.9960192168762,-75.1462277776798,ST MARKS OUTREACH BAPT CHURCH,M,N
37.0,19.0,6TH & INDIANA AVE,39.9969155436511,-75.1411674421061,POTTER THOMAS SCHOOL,M,L
37.0,20.0,6TH & INDIANA AVE,39.9969155436511,-75.1411674421061,POTTER THOMAS SCHOOL,M,L
37.0,21.0,3018-A N. PERCY ST,39.9978044955516,-75.1456123999041,COMMUNITY CENTER,M,N
38.0,1.0,3226  MC MICHAEL ST,40.0126478085256,-75.1780293143375,ABBOTTSFORD HOMES (PHA),F,L
38.0,2.0,26TH & ALLEGHENY AVE,40.0040882928754,-75.17228016558,DEVEREAUX MEMORIAL CHURCH,M,L
38.0,3.0,26TH & ALLEGHENY AVE,40.0040882928754,-75.17228016558,DEVEREAUX MEMORIAL CHURCH,M,L
38.0,4.0,26TH & ALLEGHENY AVE,40.0040882928754,-75.17228016558,DEVEREAUX MEMORIAL CHURCH,M,L
38.0,5.0,2331 W CLEARFIELD ST,40.002201396017,-75.1688725520952,CHRISTIAN FELLOWSHIP CENTER,M,N
38.0,6.0,27TH & CLEARFIELD STS,40.0027136506159,-75.1741736892383,SHULER REC CENTER,M,L
38.0,7.0,29TH & CLEARFIELD STS,40.0030980854964,-75.1772514229822,E W RHODES SCHOOL,M,L
38.0,8.0,29TH & CLEARFIELD STS,40.0030980854964,-75.1772514229822,E W RHODES SCHOOL,M,L
38.0,9.0,3416 W ALLEGHENY AVE,40.0055428815287,-75.1855051219944,CHURCH,M,N
38.0,10.0,3416 W ALLEGHENY AVE,40.0055428815287,-75.1855051219944,CHURCH,B,N
38.0,11.0,5450 WISSAHICKON AVE,40.0244633911817,-75.1810215983044,CHARTER COURT APTS,F,L
38.0,12.0,3501 MIDVALE AVE,40.0143144334938,-75.1925206191983,FALLS OF SCHUYLKILL LIBRARY,M,N
38.0,13.0,MIDVALE AVE & CONRAD ST,40.0142027620641,-75.1918749298083,MIFFLIN SCHOOL,B,L
38.0,14.0,MIDVALE AVE & CONRAD ST,40.0142027620641,-75.1918749298083,MIFFLIN SCHOOL,B,L
38.0,15.0,RIDGE & MIDVALE AVE,40.00890789773,-75.1939594674286,FIRE ENGINE CO # 35,R,L
38.0,16.0,MIDVALE AVE & CONRAD ST,40.0142027620641,-75.1918749298083,MIFFLIN SCHOOL,B,L
38.0,17.0,5450 WISSAHICKON AVE,40.0244633911817,-75.1810215983044,CHARTER COURT APARTMENTS,F,L
38.0,18.0,3501 MIDVALE AVE,40.0143144334938,-75.1925206191983,FALLS OF SCHUYLKILL LIBRARY,M,N
38.0,19.0,4349 RIDGE AVE,40.0104157493348,-75.1968853456056,FALLS RIDGE APTS COMM CTR,F,H
38.0,20.0,3501 MIDVALE AVE,40.0143144334938,-75.1925206191983,FALLS OF SCHUYLKILL LIBRARY,M,L
38.0,21.0,2331 W CLEARFIELD ST,40.002201396017,-75.1688725520952,CHRISTIAN FELLOWSHIP CENTER,M,N
39.0,1.0,8TH & WOLF STS,39.9206125252958,-75.160275196374,KEY SCHOOL,N,N
39.0,2.0,2604 S 04TH ST,39.9159607489131,-75.1548018992356,SEAFARERS UNION HALL,M,N
39.0,3.0,2455 S 03RD ST,39.9171356714663,-75.1523720838594,OFFICE,N,N
39.0,4.0,927 JOHNSTON ST,39.9150873428144,-75.1636882793332,MASTERY THOMAS CHARTER SCHOOL,B,N
39.0,5.0,3RD & MIFFLIN STS,39.9243062922007,-75.1501019582784,FURNESS SCHOOL,A,N
39.0,6.0,3RD & MIFFLIN STS,39.9243062922007,-75.1501019582784,FURNESS SCHOOL,A,N
39.0,7.0,2ND & SNYDER AVE,39.9218203933862,-75.1499179689399,WHITMAN BRANCH LIBRARY,M,N
39.0,8.0,300 SNYDER AVE,39.9218381301425,-75.1515574912473,SNYDER AVE CONGREGATION CHURCH,B,N
39.0,9.0,4TH & SNYDER STS,39.9222919413527,-75.1534558954458,FIRE ENGINE CO # 53,M,L
39.0,10.0,501 JACKSON ST,39.921504324699,-75.1558575520694,JACKSON PLACE,F,H
39.0,11.0,2604 S 04TH ST,39.9159607489131,-75.1548018992356,SEAFARERS UNION HALL,M,N
39.0,12.0,927 JOHNSTON ST,39.9150873428144,-75.1636882793332,MASTERY THOMAS CHARTER SCHOOL,B,N
39.0,13.0,4TH & SHUNK STS,39.9160536260481,-75.1547633604627,MURPHY RECREATION CENTER,N,N
39.0,14.0,3301 S 20TH ST           	,,,CALVARY TEMPLE ACADEMY		M L,,
39.0,15.0,2150 S 03RD ST,39.9210336750153,-75.1518093822094,IBEW LOCAL UNION HALL,M,N
39.0,16.0,2604 S 04TH ST,39.9159607489131,-75.1548018992356,SEAFARERS UNION HALL,M,N
39.0,17.0,4TH & PORTER STS,39.9173012001978,-75.1545019645128,TAGGART SCHOOL,M,N
39.0,18.0,828 RITNER ST,39.9193195630109,-75.1615049539271,STOREFRONT,N,N
39.0,19.0,501 JACKSON ST,39.921504324699,-75.1558575520694,JACKSON PLACE,F,H
39.0,20.0,2150 S 03RD ST,39.9210336750153,-75.1518093822094,IBEW LOCAL UNION HALL,M,N
39.0,21.0,2349-51 S FRONT ST,39.9180160723499,-75.148928747253,ANTHONYS RESTAURANT,N,N
39.0,22.0,4TH & PORTER STS,39.9173012001978,-75.1545019645128,TAGGART SCHOOL,M,N
39.0,23.0,2302 S 7TH ST,39.920272509061,-75.1589505533378,STORE,B,N
39.0,24.0,4TH & SHUNK STS,39.9160536260481,-75.1547633604627,MURPHY RECREATION CENTER,N,N
39.0,25.0,13TH & SHUNK STS,39.9178771607506,-75.1689459325384,FIRE ENGINE CO # 49,M,L
39.0,26.0,1025-33 MIFFLIN ST,39.9263008689708,-75.1635826447007,TOLENTINE COMMUNITY CENTER,F,N
39.0,27.0,1025-33 MIFFLIN ST,39.9263008689708,-75.1635826447007,TOLENTINE COMMUNITY CENTER,F,N
39.0,28.0,6TH & SNYDER AVE,39.9226896011199,-75.1566276525568,FORD RECREATION CENTER,F,N
39.0,29.0,2812 S 09TH ST,39.9142738655519,-75.1636550253761,J P CATERERS,M,N
39.0,30.0,1937 E PASSYUNK AVE,39.9256191913952,-75.1684311770199,STOREFRONT,B,N
39.0,31.0,13TH & PORTER STS,39.9191248428385,-75.1686692600249,JENKS SCHOOL,N,N
39.0,32.0,1025-33 MIFFLIN ST,39.9263008689708,-75.1635826447007,TOLENTINE COMMUNITY CENTER,F,N
39.0,33.0,2601 S 11TH ST,39.9173527593647,-75.1656243410657,DAYCARE,N,N
39.0,34.0,1030 SNYDER AVE,39.9233589419065,-75.1637980230664,MAGIC AUTO DETAILING,R,N
39.0,35.0,BROAD & SNYDER AVE,39.9244104420473,-75.1697456320434,SOUTH PHILA HIGH SCHOOL,M,H
39.0,36.0,12TH & BIGLER STS,39.9137566284254,-75.1680574946689,SOUTHERN FIELD HOUSE,N,N
39.0,37.0,BROAD & SNYDER AVE,39.9244104420473,-75.1697456320434,SOUTH PHILA HIGH SCHOOL,M,H
39.0,38.0,8TH & WOLF STS,39.9206125252958,-75.160275196374,KEY SCHOOL,N,N
39.0,39.0,13TH & SHUNK STS,39.9178771607506,-75.1689459325384,FIRE ENGINE CO # 49,M,L
39.0,40.0,8TH & WOLF STS,39.9206125252958,-75.160275196374,KEY SCHOOL,N,N
39.0,41.0,2810 S 09TH ST,39.9141327586302,-75.1638601177443,J P CATERERS,M,N
39.0,42.0,13TH & PORTER STS,39.9191248428385,-75.1686692600249,JENKS SCHOOL TRAILER,M,N
39.0,43.0,13TH & PORTER STS,39.9191248428385,-75.1686692600249,JENKS SCHOOL,N,N
39.0,44.0,2812 S 09TH ST,39.9142738655519,-75.1636550253761,J P CATERERS,M,N
39.0,45.0,1815 S 11TH ST,39.9268748475173,-75.1634609259048,SO PHILA VIKINGS CLUBHOUSE,B,N
39.0,46.0,BROAD & TASKER STS,39.9304666743663,-75.1684231255961,P G W BUILDING,B,N
40.0,1.0,6250 EASTWICK AVE,39.9202052927123,-75.2220051447546,ROBERT BRADY VETERANS CENTER,M,N
40.0,2.0,58TH & KINGSESSING AVE,39.9346625610584,-75.2272522951339,FRANCIS MYERS REC CENTER,A,L
40.0,3.0,5701 GRAYS AVE,39.9309825542122,-75.2215507910803,EZEKIEL BAPTIST CHURCH,A,L
40.0,4.0,5404 GIBSON DRIVE,39.9323627366834,-75.2158817874108,BARTRAM VILLAGE OFFICE,F,L
40.0,5.0,2000 S 58TH ST,39.9336031568069,-75.2273180368309,PRESBYTERIAN APARTMENTS,B,L
40.0,6.0,63RD & ELMWOOD AVE,39.9240367406348,-75.2277250599895,MORTON SCHOOL,R,L
40.0,7.0,58TH & KINGSESSING AVE,39.9346625610584,-75.2272522951339,FRANCIS MYERS REC CENTER,A,L
40.0,8.0,58TH & KINGSESSING AVE,39.9346625610584,-75.2272522951339,FRANCIS MYERS REC CENTER,A,L
40.0,9.0,58TH & KINGSESSING AVE,39.9346625610584,-75.2272522951339,FRANCIS MYERS REC CENTER,A,L
40.0,10.0,64TH & PASCHALL AVE,39.92543516331,-75.2318776732243,ROCHE POST AMERICAN LEGION,A,N
40.0,11.0,6900 GREENWAY AVE,39.9220461698696,-75.2416786086157,CATHARINE SCHOOL ANNEX,M,L
40.0,12.0,63RD & ELMWOOD AVE,39.9240367406348,-75.2277250599895,MORTON SCHOOL,R,L
40.0,13.0,63RD & ELMWOOD AVE,39.9240367406348,-75.2277250599895,MORTON SCHOOL,R,L
40.0,14.0,63RD & ELMWOOD AVE,39.9240367406348,-75.2277250599895,MORTON SCHOOL,R,L
40.0,15.0,63RD & ELMWOOD AVE,39.9240367406348,-75.2277250599895,MORTON SCHOOL,R,L
40.0,16.0,63RD & ELMWOOD AVE,39.9240367406348,-75.2277250599895,MORTON SCHOOL,R,L
40.0,17.0,66TH & ELMWOOD AVE,39.9213329302904,-75.2315651224897,TILDEN MIDDLE SCHOOL,M,L
40.0,18.0,63RD & ELMWOOD AVE,39.9240367406348,-75.2277250599895,MORTON SCHOOL,R,L
40.0,19.0,64TH & PASCHALL AVE,39.92543516331,-75.2318776732243,ROCHE POST AMERICAN LEGION,A,N
40.0,20.0,64TH & PASCHALL AVE,39.92543516331,-75.2318776732243,ROCHE POST AMERICAN LEGION,A,N
40.0,21.0,66TH & CHESTER AVE,39.9280253851052,-75.2394940113878,CATHARINE SCHOOL,M,L
40.0,22.0,70TH & BUIST AVE,39.9160371778681,-75.2360273390207,PATTERSON SCHOOL,N,N
40.0,23.0,66TH & CHESTER AVE,39.9280253851052,-75.2394940113878,CATHARINE SCHOOL,M,L
40.0,24.0,66TH & CHESTER AVE,39.9280253851052,-75.2394940113878,CATHARINE SCHOOL,M,L
40.0,25.0,66TH & REGENT STS,39.927482369627,-75.2388655789608,MC CREESH RECREATION CENTER,B,L
40.0,26.0,64TH & PASCHALL AVE,39.92543516331,-75.2318776732243,ROCHE POST AMERICAN LEGION,M,N
40.0,27.0,66TH & ELMWOOD AVE,39.9213329302904,-75.2315651224897,TILDEN MIDDLE SCHOOL,M,L
40.0,28.0,6250 EASTWICK AVE,39.9202052927123,-75.2220051447546,ROBERT BRADY VETERANS CENTER,M,N
40.0,29.0,69TH & GROVERS AVE,,,FINNEGAN RECREATION CENTER,M,L
40.0,30.0,8398 LINDBERGH BLVD,39.8976753480694,-75.2518667025302,ST PAULS AME CHURCH,M,H
40.0,31.0,70TH & BUIST AVE,39.9160371778681,-75.2360273390207,PATTERSON SCHOOL,N,N
40.0,32.0,2406 S 71ST ST,39.9166782784895,-75.2402182638892,ELMWOOD ROLLER RINK,M,L
40.0,33.0,6942 WOODLAND AVE,39.9204531691672,-75.2409170584138,PASCHALLVILLE LIBRARY,N,L
40.0,34.0,7043 WOODLAND AVE,39.9197774046821,-75.243042735057,GREATER HOPE MINISTRY,R,N
40.0,35.0,2500 S 77TH ST,39.9074402913732,-75.2478980148255,CIBOTTI RECREATION CENTER,F,L
40.0,36.0,2851 ISLAND AVE,39.9057111142862,-75.2401523856576,EASTWICK LIBRARY,R,L
40.0,37.0,7537 DICKENS PLACE,39.9099627680064,-75.2468316419597,RESIDENCE,R,N
40.0,38.0,80TH & MARS PLACE,39.9039645473493,-75.2504533540443,EASTWICK RECREATION CENTER,M,L
40.0,39.0,66TH & ELMWOOD AVE,39.9213329302904,-75.2315651224897,TILDEN MIDDLE SCHOOL,M,L
40.0,40.0,8398 LINDBERGH BLVD,39.8976753480694,-75.2518667025302,ST PAULS AME CHURCH,M,H
40.0,41.0,2535 S 73RD ST,39.9136468750742,-75.2407402950902,RESIDENCE,F,L
40.0,42.0,78TH & ESTE AVE,,,PENROSE SCHOOL,M,L
40.0,43.0,69TH & GROVERS AVE,,,FINNEGAN RECREATION CENTER,M,L
40.0,44.0,78TH & ESTE AVE,,,PENROSE SCHOOL,M,L
40.0,45.0,2500 S 77TH ST,39.9074402913732,-75.2478980148255,CIBOTTI RECREATION CENTER,F,L
40.0,46.0,69TH & GROVERS AVE,,,FINNEGAN RECREATION CENTER,M,L
40.0,47.0,6942 WOODLAND AVE,39.9204531691672,-75.2409170584138,PASCHALLVILLE LIBRARY,N,N
40.0,48.0,2851 ISLAND AVE,39.9057111142862,-75.2401523856576,EASTWICK LIBRARY,R,L
40.0,49.0,3049 S 74TH ST,39.9070316362092,-75.2354964346367,GARAGE,F,L
40.0,50.0,7199 BRANT PLACE,39.9106742724021,-75.2350534292957,UNICO VILLAGE OFFICE,M,L
40.0,51.0,69TH & GROVERS AVE,,,FINNEGAN RECREATION CENTER,M,L
41.0,1.0,TORRESDALE & CHELTENHAM AV,40.0155210266174,-75.063386010059,ES    MOSS RECREATION CENTER,F,N
41.0,2.0,TORRESDALE & CHELTENHAM AV,40.0155210266174,-75.063386010059,ES    MOSS RECREATION CENTER,F,N
41.0,3.0,TORRESDALE & CHELTENHAM AV,40.0155210266174,-75.063386010059,E     MOSS RECREATION CENTER,F,N
41.0,4.0,6179 HEGERMAN ST,40.0182669122854,-75.0548239969663,WISSINOMING AMBULANCE,M,L
41.0,5.0,JACKSON & VAN KIRK STS,40.0184066952597,-75.0636694926621,FIRE ENGINE CO # 52,M,L
41.0,6.0,TORRESDALE AVE & DEVEREAUX,40.0195055203467,-75.055687087931,AMERICAN LEGION REC CENTER,F,L
41.0,7.0,TORRESDALE AVE & DEVEREAUX,40.0195055203467,-75.055687087931,AMERICAN LEGION REC CENTER,F,L
41.0,8.0,6309 TORRESDALE AVE,40.0204904436452,-75.0530246579456,MC CULLOUGH UNION HALL,M,L
41.0,9.0,6101 JACKSON ST,40.0202943014659,-75.0585942335596,LAWTON SCHOOL,F,L
41.0,10.0,6101 JACKSON ST,40.0202943014659,-75.0585942335596,LAWTON SCHOOL,F,L
41.0,11.0,MAGEE & KEYSTONE STS,40.0206909485943,-75.0460967116874,FIRE ENGINE CO #38,F,H
41.0,12.0,7001 TORRESDALE AVE,40.0268682548515,-75.0406855488163,HOLY INNOCENTS ST PAULS,M,L
41.0,13.0,6309 TORRESDALE AVE,40.0204904436452,-75.0530246579456,MC CULLOUGH UNION HALL,M,L
41.0,14.0,MAGEE & KEYSTONE STS,40.0206909485943,-75.0460967116874,FIRE ENGINE CO #38,F,H
41.0,15.0,7001 TORRESDALE AVE,40.0268682548515,-75.0406855488163,HOLY INNOCENTS ST PAULS,M,L
41.0,16.0,COTTMAN & TORRESDALE AVES,40.0301174519283,-75.0351705092631,ST HUBERTS HIGH SCHOOL,R,N
41.0,17.0,7001 TORRESDALE AVE,40.0268682548515,-75.0406855488163,HOLY INNOCENTS ST PAULS,M,L
41.0,18.0,COTTMAN AVE & ERDRICK ST,40.0354052025056,-75.0394747870413,LUTH CHURCH OF GOOD SHEPHERD,B,L
41.0,19.0,COTTMAN AVE & ERDRICK ST,40.0354052025056,-75.0394747870413,LUTH CHURCH OF GOOD SHEPHERD,B,L
41.0,20.0,COTTMAN AVE & ERDRICK ST,40.0354052025056,-75.0394747870413,LUTH CHURCH OF GOOD SHEPHERD,B,L
41.0,21.0,4741 FRIENDSHIP ST,40.0280234053752,-75.0369168461834,TACONY & MAYFAIR SONS OF ITALY,M,N
41.0,22.0,4343 PRINCETON AVE,40.031535696747,-75.0414388412288,KIDDY KOTTAGE DAYCARE CENTER,M,N
41.0,23.0,COTTAGE & BLEIGH STS,40.0346295342427,-75.0352011871362,FORREST LITTLE SCHOOL HOUSE,F,L
41.0,24.0,COTTAGE & BLEIGH STS,40.0346295342427,-75.0352011871362,FORREST LITTLE SCHOOL HOUSE,F,L
41.0,25.0,COTTAGE & BLEIGH STS,40.0346295342427,-75.0352011871362,FORREST LITTLE SCHOOL HOUSE,F,L
41.0,26.0,COTTAGE & BLEIGH STS,40.0346295342427,-75.0352011871362,FORREST LITTLE SCHOOL HOUSE,F,L
42.0,1.0,4501 G ST,40.0161630148079,-75.1120537706495,CITY SIGN SHOP,A,L
42.0,2.0,B & WYOMING STS,,,BARTON SCHOOL,M,L
42.0,3.0,169 W WYOMING AVE,40.0223427867656,-75.1269416292106,BETHEL WORSHIP CENTER,A,N
42.0,4.0,4344 N 05TH ST,40.0174618669877,-75.1350990896737,CAYUGA SCHOOL,M,N
42.0,5.0,4800 WHITAKER AVE,40.0217715302831,-75.1126578834113,VAIRD-FELTONVILLE YOUTH CLUB,F,L
42.0,6.0,B ST & WYOMING AVE,40.0210912200755,-75.12048101152,WYOMING BRANCH LIBRARY,M,L
42.0,7.0,169 W WYOMING AVE,40.0223427867656,-75.1269416292106,BETHEL WORSHIP CENTER,A,N
42.0,8.0,238 E WYOMING AVE,40.0203043891668,-75.1210301035266,FELTONVILLE INTERMED SCHOOL,M,N
42.0,9.0,169 W WYOMING AVE,40.0223427867656,-75.1269416292106,BETHEL WORSHIP CENTER,A,N
42.0,10.0,4800 WHITAKER AVE,40.0217715302831,-75.1126578834113,VAIRD-FELTONVILLE YOUTH CLUB,F,L
42.0,11.0,238 E WYOMING AVE,40.0203043891668,-75.1210301035266,FELTONVILLE INTERMED SCHOOL,M,N
42.0,12.0,FRONT & DUNCANNON STS,,,ASPIRA OLNEY CHARTER SCHOOL,A,L
42.0,13.0,5111 N 04TH ST,40.028985769579,-75.1299322727784,MORRISON SCHOOL,M,L
42.0,14.0,425 E ROOSEVELT BLVD,40.0273558480775,-75.115348335691,NEW LIFE PRESBYTERIAN CHURCH,M,L
42.0,15.0,401 E TABOR ROAD,40.0306998141519,-75.1170977017171,INTNL CHRISTIAN HIGH SCHOOL,F,L
42.0,16.0,FRONT & DUNCANNON STS,,,ASPIRA OLNEY CHARTER SCHOOL,A,L
42.0,17.0,5111 N 04TH ST,40.028985769579,-75.1299322727784,MORRISON SCHOOL,M,L
42.0,18.0,401 E TABOR RD,40.0306998141519,-75.1170977017171,TRIUMPHANT FAITH ICSH BUILDING,F,L
42.0,19.0,B & GALE STS,40.0340368701196,-75.1177014838406,ZIEHLER RECREATION CENTER,M,L
42.0,20.0,5111 N 04TH ST,40.028985769579,-75.1299322727784,MORRISON SCHOOL,M,L
42.0,21.0,5111 N 04TH ST,40.028985769579,-75.1299322727784,MORRISON SCHOOL,M,L
42.0,22.0,B ST & WYOMING AVE,40.0210912200755,-75.12048101152,WYOMING BRANCH LIBRARY,M,L
42.0,23.0,801 E HUNTING PARK AVE,40.0127905787311,-75.111220474555,JUNIATA PARK ACADEMY,M,N
42.0,24.0,5440 N AMERICAN ST,40.0342031013535,-75.1272549220415,GARAGE,M,L
42.0,25.0,5TH & TABOR RD,40.0347458734089,-75.1308808150815,GREATER OLNEY BRANCH LIBRARY,M,N
43.0,1.0,4301 N BROAD ST,40.0190086007891,-75.1481806817054,PRINCE HALL,M,N
43.0,2.0,4417 N 06TH ST,40.0190531555537,-75.1364772851331,ESPERANZA HEALTH CENTER,M,N
43.0,3.0,4417 N 06TH ST,40.0190531555537,-75.1364772851331,ESPERANZA HEALTH CENTER,M,N
43.0,4.0,1001 W HUNTING PARK AVE,40.0162042141185,-75.1420427487609,HUNTING PARK REC CENTER,M,N
43.0,5.0,1001 W HUNTING PARK AVE,40.0162042141185,-75.1420427487609,HUNTING PARK REC CENTER,M,N
43.0,6.0,4417 N 06TH ST,40.0190531555537,-75.1364772851331,ESPERANZA HEALTH CENTER,M,N
43.0,7.0,10TH & PIKE STS,40.0114402666628,-75.1436484671577,LENFEST CENTER,M,N
43.0,8.0,10TH & PIKE STS,40.0114402666628,-75.1436484671577,LENFEST CENTER,M,N
43.0,9.0,OLD YORK RD & ONTARIO ST,40.0042037526762,-75.1486457675981,BETHUNE SCHOOL,M,L
43.0,10.0,OLD YORK RD & ONTARIO ST,40.0042037526762,-75.1486457675981,BETHUNE SCHOOL,M,L
43.0,11.0,RANDOLPH & ERIE AVE,40.0075207341902,-75.1378512280875,TAYLOR SCHOOL,R,L
43.0,12.0,RANDOLPH & ERIE AVE,40.0075207341902,-75.1378512280875,TAYLOR SCHOOL,R,L
43.0,13.0,OLD YORK RD & ONTARIO ST,40.0042037526762,-75.1486457675981,BETHUNE SCHOOL,M,L
43.0,14.0,OLD YORK RD & ONTARIO ST,40.0042037526762,-75.1486457675981,BETHUNE SCHOOL,M,L
43.0,15.0,OLD YORK RD & ONTARIO ST,40.0042037526762,-75.1486457675981,BETHUNE SCHOOL,M,L
43.0,16.0,OLD YORK RD & ONTARIO ST,40.0042037526762,-75.1486457675981,BETHUNE SCHOOL,M,L
43.0,17.0,RANDOLPH & ERIE AVE,40.0075207341902,-75.1378512280875,TAYLOR SCHOOL,R,L
43.0,18.0,RANDOLPH & ERIE AVE,40.0075207341902,-75.1378512280875,TAYLOR SCHOOL,R,L
43.0,19.0,10TH & PIKE STS,40.0114402666628,-75.1436484671577,LENFEST CENTER,M,N
43.0,20.0,RANDOLPH & ERIE AVE,40.0075207341902,-75.1378512280875,TAYLOR SCHOOL,R,L
43.0,21.0,10TH & PIKE STS,40.0114402666628,-75.1436484671577,LENFEST CENTER,M,N
43.0,22.0,BROAD & ERIE AVE,40.0092802298692,-75.1512469179183,PHILA GAS WORKS,F,L
43.0,23.0,BROAD & ERIE AVE,40.0092802298692,-75.1512469179183,PHILA GAS WORKS,F,L
43.0,24.0,3949 N BROAD ST,40.0136894697553,-75.1498989298385,VOICE OF PRAISE CHURCH,M,N
43.0,25.0,10TH & PIKE STS,40.0114402666628,-75.1436484671577,LENFEST CENTER,M,N
44.0,1.0,1323 N 52ND ST,39.9738457924275,-75.2259055695434,BIBLEWAY BAPTIST CHURCH,B,N
44.0,2.0,53RD & MEDIA STS,39.975616855977,-75.2279457013354,CONESTOGA COMM REC CTR,F,L
44.0,3.0,5501 MARKET ST,39.9616467461064,-75.231644230199,SALVATION ARMY,F,L
44.0,4.0,5501 MARKET ST,39.9616467461064,-75.231644230199,SALVATION ARMY,M,L
44.0,5.0,4916 LANCASTER AVE,39.9738907383266,-75.2203390880957,REFUGE BAPTIST CHURCH,M,N
44.0,6.0,50 N 52ND ST,39.9614425576859,-75.2248532064408,ANTIOCH UNIVERSAL CHURCH,R,N
44.0,7.0,5331-41 HAVERFORD AVE,39.9662669412323,-75.2275648266679,HADDINGTON MULTI SERVICES CTR,B,N
44.0,8.0,111 N 49TH ST,39.9613260797506,-75.2179483062895,KIRKBRIDE CENTER,A,H
44.0,9.0,48TH & FAIRMOUNT AVE,39.9640956889964,-75.2163774205688,PARKWAY SCHOOL,R,N
44.0,10.0,4925 ASPEN ST,39.9649948119438,-75.2188342840889,WOMENS EMPOWERMENT CENTER,F,L
44.0,11.0,50TH & PARRISH STS,39.9670903767816,-75.2204561588627,RHOADS SCHOOL,F,L
44.0,12.0,50TH & PARRISH STS,39.9670903767816,-75.2204561588627,RHOADS SCHOOL,F,L
44.0,13.0,400 N 50TH ST,39.9643688913113,-75.2204366815404,KATIE JACKSON HOMES(PHA),F,L
44.0,14.0,400 N 50TH ST,39.9643688913113,-75.2204366815404,KATIE JACKSON HOMES(PHA),F,L
44.0,15.0,50 N 52ND ST,39.9614425576859,-75.2248532064408,ANTIOCH UNIVERSAL CHURCH,R,N
44.0,16.0,51ST & RENO STS,39.9664894591534,-75.2224220899539,WEST MILL CREEK REC CENTER,R,L
44.0,17.0,51ST & RENO STS,39.9664894591534,-75.2224220899539,WEST MILL CREEK REC CENTER,R,L
44.0,18.0,1323 N 52ND ST,39.9738457924275,-75.2259055695434,BIBLEWAY BAPTIST CHURCH,B,N
44.0,19.0,1323 N 52ND ST,39.9738457924275,-75.2259055695434,BIBLEWAY BAPTIST CHURCH,B,N
45.0,1.0,4601 RICHMOND ST,39.9992354919541,-75.0675351510263,BRIDESBURG RECREATION CENTER,M,L
45.0,2.0,2330 MARGARET ST,40.0067863980319,-75.0762938318953,ST VALENTINES CHURCH,N,L
45.0,3.0,4601 RICHMOND ST,39.9992354919541,-75.0675351510263,BRIDESBURG RECREATION CENTER,M,N
45.0,4.0,4415 ALMOND ST,40.00022408883,-75.0749452828086,ST JOHN CANTIUS SCHOOL,M,N
45.0,5.0,GAUL & TIOGA STS,39.9907499016197,-75.0980357680109,SAMUELS RECREATION CENTER,M,L
45.0,6.0,GAUL & TIOGA STS,39.9907499016197,-75.0980357680109,SAMUELS RECREATION CENTER,M,L
45.0,7.0,BELGRADE & ONTARIO STS,39.9887514590561,-75.0996215651794,FIRE ENGINE CO # 28,M,L
45.0,8.0,FRANKFORD AVE & ONTARIO ST,39.9954441190021,-75.1055183701634,WEBSTER LITTLE SCHOOLHOUSE,M,L
45.0,9.0,FRANKFORD AVE & ONTARIO ST,39.9954441190021,-75.1055183701634,WEBSTER LITTLE SCHOOLHOUSE,M,L
45.0,10.0,FRANKFORD AVE & ONTARIO ST,39.9954441190021,-75.1055183701634,WEBSTER LITTLE SCHOOLHOUSE,M,L
45.0,11.0,FRANKFORD AVE & ONTARIO ST,39.9954441190021,-75.1055183701634,WEBSTER LITTLE SCHOOLHOUSE,M,L
45.0,12.0,2330 MARGARET ST,40.0067863980319,-75.0762938318953,ST VALENTINES CHURCH,N,N
45.0,13.0,CASTOR & AMBER STS,39.9984974599112,-75.0979501160256,HEITZMAN RECREATION CENTER,R,N
45.0,14.0,2301 E ALLEGHENY AVE,39.989979654183,-75.105979966937,SCHOOL OF NURSING,M,L
45.0,15.0,E WESTMORELAND & ALMOND ST,39.9868230386896,-75.1012819402112,S     GLAVIN RECREATION CENTER,R,N
45.0,16.0,FRANKFORD AVE & ONTARIO ST,39.9954441190021,-75.1055183701634,WEBSTER LITTLE SCHOOLHOUSE,M,L
45.0,17.0,CASTOR & AMBER STS,39.9984974599112,-75.0979501160256,HEITZMAN RECREATION CENTER,R,N
45.0,18.0,KENSINGTON & CASTOR AVES,40.0042043380643,-75.0993634213872,FIRE ENGINE CO # 07,M,L
45.0,19.0,CASTOR & AMBER STS,39.9984974599112,-75.0979501160256,HEITZMAN RECREATION CENTER,R,N
45.0,20.0,4415 ALMOND ST,40.00022408883,-75.0749452828086,ST JOHN CANTIUS SCHOOL,M,N
45.0,21.0,CASTOR & AMBER STS,39.9984974599112,-75.0979501160256,HEITZMAN RECREATION CENTER,R,N
45.0,22.0,2645 E WESTMORELAND AVE,39.9857614725961,-75.1000355117837,OFFICE,R,N
45.0,23.0,2843 ORTHODOX ST,39.9962146987925,-75.072509234956,POINT NO POINT CLUB,B,N
45.0,24.0,TIOGA & GAUL STS,39.9907499016197,-75.0980357680109,SAMUELS RECREATION CENTER,M,L
45.0,25.0,2843 ORTHODOX ST,39.9962146987925,-75.072509234956,POINT NO POINT CLUB,B,N
46.0,1.0,4701 SPRINGFIELD AVE,39.947096379344,-75.2155241700032,ST FRANCES DE SALES,N,N
46.0,2.0,4701 PINE ST,39.9528202896907,-75.2170484615747,GARDEN COURT PLAZA,F,L
46.0,3.0,509 S 52ND ST,39.9516575370333,-75.2263444313435,DIVINE CREATIONS UNISEX SALON,R,N
46.0,4.0,5501 CEDAR AVE,39.9517268355734,-75.2337496541976,BOYS LATIN CHARTER SCHOOL,A,N
46.0,5.0,5501 CEDAR AVE,39.9517268355734,-75.2337496541976,BOYS LATIN CHARTER SCHOOL,A,L
46.0,6.0,5501 CEDAR AVE,39.9517268355734,-75.2337496541976,BOYS LATIN CHARTER SCHOOL,A,L
46.0,7.0,47TH & LOCUST STS,39.9545874244166,-75.2158726182422,LEA SCHOOL,M,N
46.0,8.0,4703 KINGSESSING AVE,39.9449541339602,-75.2137772705688,PARK PLEASANT NURSING HOME,M,L
46.0,9.0,4828 BALTIMORE AVE,39.9477834468075,-75.222517013143,HAIR SALON,F,N
46.0,10.0,5025 BALTIMORE AVE,39.9480633228029,-75.2243762969323,STOREFRONT,M,N
46.0,11.0,53RD & BALTIMORE AVE,39.9477808343313,-75.2294495847884,HARRINGTON SCHOOL,M,L
46.0,12.0,56TH & CHRISTIAN STS,39.9484349975312,-75.2354798036024,CHRISTY RECREATION CENTER,F,L
46.0,13.0,56TH & CHRISTIAN STS,39.9484349975312,-75.2354798036024,CHRISTY RECREATION CENTER,F,L
46.0,14.0,56TH & CHRISTIAN STS,39.9484349975312,-75.2354798036024,CHRISTY RECREATION CENTER,F,L
46.0,15.0,56TH & CHRISTIAN STS,39.9484349975312,-75.2354798036024,CHRISTY RECREATION CENTER,F,L
46.0,16.0,4523-31 CHESTER AVE,39.9472661710154,-75.2126455269843,ELMWOOD COMMUNITY METH CHURCH,A,L
46.0,17.0,4800 BALTIMORE AVE,39.948135933446,-75.2196957881357,THE GOLD STANDARD RESTAURANT,M,N
46.0,18.0,4523-31 CHESTER AVE,39.9472661710154,-75.2126455269843,ELMWOOD COMMUNITY METH CHURCH,A,L
46.0,19.0,4701 PINE ST,39.9528202896907,-75.2170484615747,GARDEN COURT PLAZA,F,L
46.0,20.0,56TH & CHRISTIAN STS,39.9484349975312,-75.2354798036024,CHRISTY RECREATION CENTER,F,L
46.0,21.0,56TH & CHRISTIAN STS,39.9484349975312,-75.2354798036024,CHRISTY RECREATION CENTER,F,L
46.0,22.0,47TH & LOCUST STS,39.9545874244166,-75.2158726182422,LEA SCHOOL,M,N
46.0,23.0,4508 SANSOM ST,39.9558732701316,-75.2121635097799,SANSOM HOUSE SR LIVING,F,L
47.0,1.0,1510 W STILES ST,39.9725447256498,-75.1614613022748,CHURCH OF FAITH & DELIVERANCE,M,N
47.0,2.0,1510 W STILES ST,39.9725447256498,-75.1614613022748,CHURCH OF FAITH & DELIVERANCE,M,N
47.0,3.0,16TH & JEFFERSON STS,39.9762639362442,-75.1617512598185,AME UNION METHODIST CHURCH,M,N
47.0,4.0,1628 W MASTER ST,39.9748810479443,-75.1632534443142,NAT'L TEMPLE BAPTIST CHURCH,M,L
47.0,5.0,1628 W MASTER ST,39.9748810479443,-75.1632534443142,NAT'L TEMPLE BAPTIST CHURCH,M,L
47.0,6.0,1510-1514 W OXFORD ST,39.977395722622,-75.160898034669,NO PHILA 7TH DAY ADVENTIST,F,N
47.0,7.0,18TH & OXFORD STS,39.9780962080982,-75.1645813920786,MEADE SCHOOL,M,N
47.0,8.0,18TH & OXFORD STS,39.9780962080982,-75.1645813920786,MEADE SCHOOL,M,N
47.0,9.0,1710 N CROSKEY ST,39.9812778015353,-75.1718239654944,BENTLEY HALL,M,L
47.0,10.0,1999 RIDGE AVE,39.9753214661312,-75.1676879846872,MOORE MANOR SR HOME,F,L
47.0,11.0,1710 N CROSKEY ST,39.9812778015353,-75.1718239654944,BENTLEY HALL (PHA),M,L
47.0,12.0,16TH & JEFFERSON STS,39.9762639362442,-75.1617512598185,AME UNION METHODIST CHURCH,M,N
47.0,13.0,1999 RIDGE AVE,39.9753214661312,-75.1676879846872,MOORE MANOR SR HOME,F,L
47.0,14.0,18TH & OXFORD STS,39.9780962080982,-75.1645813920786,MEADE SCHOOL,M,N
48.0,1.0,16TH & JACKSON STS,39.9235578183423,-75.1732275226112,GUERIN REC CTR-THE GYM BLDG,M,N
48.0,2.0,1920 S 20TH ST,39.9275052991313,-75.1790394313877,DIXON HOUSE COMMUNITY CENTER,F,L
48.0,3.0,22ND & MC CLELLAN STS,39.9292914539029,-75.1820403188064,MC DANIEL SCHOOL,F,N
48.0,4.0,1928 POINT BREEZE AVE,39.9284743362011,-75.1865044680071,PREPARATORY CHARTER SCHOOL,F,L
48.0,5.0,1920 S 20TH ST,39.9275052991313,-75.1790394313877,DIXON HOUSE COMMUNITY CENTER,F,L
48.0,6.0,1920 S 20TH ST,39.9275052991313,-75.1790394313877,DIXON HOUSE COMMUNITY CENTER,F,L
48.0,7.0,2600 MOORE ST,39.9300564949531,-75.189591078822,ST JOHN NEUMANN PLACE,F,H
48.0,8.0,2308 SNYDER AVE,39.9259583556313,-75.1848907603048,YESHA FELLOWSHIP HALL,M,N
48.0,9.0,24TH & JACKSON STS,39.925244489239,-75.1862964808248,UNIVERSAL VARE CHARTER SCHOOL,A,L
48.0,10.0,2930 SNYDER AVE,39.9273011335274,-75.1947244312687,CEMENT MASONS TRAINING CTR,F,L
48.0,11.0,1905 VARE AVE,39.9193674326776,-75.1873543522002,WORKFORCE DEVELOPMENT CTR,F,L
48.0,12.0,2308 SNYDER AVE,39.9259583556313,-75.1848907603048,YESHA FELLOWSHIP HALL,M,N
48.0,13.0,16TH & JACKSON STS,39.9235578183423,-75.1732275226112,GUERIN REC CTR-THE GYM BLDG,M,N
48.0,14.0,16TH & JACKSON STS,39.9235578183423,-75.1732275226112,GUERIN REC CTR-THE GYM BLDG,M,N
48.0,15.0,24TH & JACKSON STS,39.925244489239,-75.1862964808248,UNIVERSAL VARE CHARTER SCHOOL,A,N
48.0,16.0,24TH & JACKSON STS,39.925244489239,-75.1862964808248,UNIVERSAL VARE CHARTER SCHOOL,A,N
48.0,17.0,2308 SNYDER AVE,39.9259583556313,-75.1848907603048,YESHA FELLOWSHIP HALL,M,N
48.0,18.0,15TH & MORRIS STS,39.9294780294843,-75.1703251446263,DI SILVESTRO RECREATION CENTER,M,N
48.0,19.0,1928 POINT BREEZE AVE,39.9284743362011,-75.1865044680071,PREPARATORY CHARTER SCHOOL,F,L
48.0,20.0,BROAD & MORRIS STS,39.9292573714005,-75.1686891830594,SOUTH PHILA BRANCH LIBRARY,F,N
48.0,21.0,2506 JACKSON ST,39.9254985463594,-75.1882600300596,WILSON PK HOMES (PHA),F,L
48.0,22.0,2600 MOORE ST,39.9300564949531,-75.189591078822,ST JOHN NEUMANN PLACE,F,H
48.0,23.0,1905 VARE AVE,39.9193674326776,-75.1873543522002,WORKFORCE DEVELOPMENT CTR,F,L
49.0,1.0,543 W COURTLAND ST,40.0214780044766,-75.1350229563467,DOLLAR STORE,M,N
49.0,2.0,5501 N 11TH ST,40.0362763093168,-75.1392975139919,COMMUNITY HOUSE APTS,M,L
49.0,3.0,1300 W GODFREY AVE,40.0464337890329,-75.1408184508331,COMMUNITY COLL OF PHILA NW,F,H
49.0,4.0,OLD YORK ROAD & LOUDEN ST,40.0260521636959,-75.146687991367,COOK MIDDLE SCHOOL,M,L
49.0,5.0,4541 N BROAD ST,40.0222774278538,-75.1480911022009,BELOVED ST JOHN CHURCH,N,N
49.0,6.0,12TH & OAKLANE AVE,,,OAK LANE LIBRARY,A,L
49.0,7.0,10TH ST & CHEW AVE,40.038944698157,-75.1376346555288,CHERASHORE RECREATION CENTER,M,L
49.0,8.0,OAKLANE & N 11TH ST,,,OAKLANE PRESBYTERIAN CHURCH,M,L
49.0,9.0,5110 N 6TH ST,40.0295292427917,-75.1343769262615,PHILLIPPIAN GARDENS,M,L
49.0,10.0,9TH & LINDLEY STS,40.0295342654553,-75.1380508707491,BIRNEY PREP ACADEMY,M,L
49.0,11.0,OLD YORK ROAD & LOUDEN ST,40.0260521636959,-75.146687991367,COOK MIDDLE SCHOOL,M,L
49.0,12.0,1127 LOUDEN ST,40.0258028114158,-75.1432083751682,FIRE ENGINE CO # 72,M,L
49.0,13.0,1127 W LOUDEN ST,40.0258028114158,-75.1432083751682,FIRE ENGINE CO # 72,M,L
49.0,14.0,8TH & DUNCANNON STS,,,BARRETT RECREATION CENTER,M,L
49.0,15.0,9TH & LINDLEY STS,40.0295342654553,-75.1380508707491,BIRNEY PREP ACADEMY,M,L
49.0,16.0,10TH ST & CHEW AVE,40.038944698157,-75.1376346555288,CHERASHORE RECREATION CENTER,M,L
49.0,17.0,1301 W RUSCOMB ST,40.0291308613173,-75.1450025376606,SECOND MACEDONIA CHURCH,M,L
49.0,18.0,908 W GODFREY AVE,40.0461322173697,-75.1349680757734,LEE'S MONUMENTS,M,N
49.0,19.0,9TH & LINDLEY STS,40.0295342654553,-75.1380508707491,BIRNEY PREP CHARTER SCHOOL,M,L
49.0,20.0,1300 W GODFREY AVE,40.0464337890329,-75.1408184508331,COMMUNITY COLL OF PHILA NW,F,H
49.0,21.0,5325 OLD YORK ROAD,40.0339596537205,-75.1444313279596,YORK HOUSE SOUTH,F,L
49.0,22.0,8TH & DUNCANNON STS,,,BARRETT RECREATION CENTER,M,L
50.0,1.0,PROVIDENT & GOWEN AVE,40.0803444762006,-75.1751278192107,EMANUEL RECREATION CENTER,F,L
50.0,2.0,MT PLEASANT & WOOLSTON AVE,,,S     LEEDS SCHOOL,M,L
50.0,3.0,SEDGWICK & THOURON STS,40.0730402404995,-75.1717170261562,F S EDMONDS SCHOOL,M,L
50.0,4.0,PROVIDENT & GOWEN AVE,40.0803444762006,-75.1751278192107,EMANUEL RECREATION CENTER,F,L
50.0,5.0,MT PLEASANT & WOOLSTON AVE,,,S     LEEDS SCHOOL,M,L
50.0,6.0,UPSAL & MANSFIELD STS,40.0635410496742,-75.1698300691757,FINLEY RECREATION CENTER,M,L
50.0,7.0,MT PLEASANT & WOOLSTON AVE,,,S     LEEDS SCHOOL,M,L
50.0,8.0,UPSAL & MANSFIELD STS,40.0635410496742,-75.1698300691757,FINLEY RECREATION CENTER,M,L
50.0,9.0,STENTON & GOWEN AVES,40.0705661367072,-75.1846545047172,OXFORD PRESBYTERIAN CHURCH,B,L
50.0,10.0,PROVIDENT & GOWEN AVES,40.0803444762006,-75.1751278192107,EMANUEL RECREATION CENTER,F,L
50.0,11.0,UPSAL & MANSFIELD STS,40.0635410496742,-75.1698300691757,FINLEY RECREATION CENTER,M,L
50.0,12.0,SEDGWICK & THOURON STS,40.0730402404995,-75.1717170261562,F S EDMONDS SCHOOL,M,L
50.0,13.0,7909 OGONTZ AVENUE,40.0727915943192,-75.1576282690126,TERRYS BARBER SHOP,M,N
50.0,14.0,1215 E VERNON ROAD,40.0706200702043,-75.1702332045778,REFORMATION LUTHERAN CHURCH,F,N
50.0,15.0,1215 E VERNON ROAD,40.0706200702043,-75.1702332045778,REFORMATION LUTHERAN CHURCH,F,N
50.0,16.0,76TH & OGONTZ AVE,40.0699644186637,-75.1571666258793,FIRE ENGINE CO #73,M,L
50.0,17.0,PROVIDENT & GOWEN AVES,40.0803444762006,-75.1751278192107,EMANUEL RECREATION CENTER,F,L
50.0,18.0,MT PLEASANT & WOOLSTON AVE,,,S     LEEDS SCHOOL,M,L
50.0,19.0,PROVIDENT & GOWEN AVE,40.0803444762006,-75.1751278192107,EMANUEL RECREATION CENTER,F,L
50.0,20.0,76TH & OGONTZ AVE,40.0699644186637,-75.1571666258793,FIRE ENGINE CO #73,M,L
50.0,21.0,STENTON & GOWEN AVES,40.0705661367072,-75.1846545047172,OXFORD PRESBYTERIAN CHURCH,B,L
50.0,22.0,PROVIDENT & GOWEN AVE,40.0803444762006,-75.1751278192107,EMANUEL RECREATION CENTER,F,L
50.0,23.0,UPSAL & MANSFIELD STS,40.0635410496742,-75.1698300691757,FINLEY RECREATION CENTER,M,L
50.0,24.0,WASHINGTON LA & LIMEKILN P,40.0669572444378,-75.1582932430052,K     WEST OAK LANE LIBRARY,M,L
50.0,25.0,7708 OGONTZ AVENUE,40.071014812252,-75.1578749110997,REMNANT CHURCH OF GOD,M,N
50.0,26.0,7501 OGONTZ AVE,40.0694830998381,-75.1565679565794,PHILA DELIVERANCE TABERNACLE,R,L
50.0,27.0,UPSAL & MANSFIELD STS,40.0635410496742,-75.1698300691757,FINLEY RECREATION CENTER,M,N
50.0,28.0,7210-12 OGONTZ AVE,40.0643361000262,-75.1542376984946,WEST OAKLANE OLDER ADULT CTR,M,L
50.0,29.0,1448 GREENWOOD AVE,40.074088974638,-75.1670698220245,EL SHADDAI WORD CENTER CHURCH,N,N
50.0,30.0,76TH & OGONTZ AVE,40.0699644186637,-75.1571666258793,FIRE ENGINE CO #73,M,L
51.0,1.0,1040 S 57TH ST,39.9456097817066,-75.2375798156424,BANQUET HALL,M,N
51.0,2.0,1201 S 51ST ST,39.9423999495208,-75.2190049830512,KINGSESSING LIBRARY,M,N
51.0,3.0,51ST ST & GREENWAY AVE,39.9401588610249,-75.2163748522121,COMEGYS SCHOOL,M,L
51.0,4.0,58TH & WILLOWS AVE,39.9402930418165,-75.2336331558821,LONGSTRETH SCHOOL,F,L
51.0,5.0,1201 S 51ST ST,39.9423999495208,-75.2190049830512,KINGSESSING LIBRARY,M,N
51.0,6.0,1201 S 51ST ST,39.9423999495208,-75.2190049830512,KINGSESSING LIBRARY,M,N
51.0,7.0,1201 S 51ST ST,39.9423999495208,-75.2190049830512,KINGSESSING LIBRARY,M,N
51.0,8.0,51ST ST & GREENWAY AVE,39.9401588610249,-75.2163748522121,COMEGYS SCHOOL,M,L
51.0,9.0,51ST ST & GREENWAY AVE,39.9401588610249,-75.2163748522121,COMEGYS SCHOOL,M,L
51.0,10.0,5300 CHESTER AVE,39.9396594991752,-75.221620409576,HOLY FAMILY HALL,M,L
51.0,11.0,5300 CHESTER AVE,39.9396594991752,-75.221620409576,HOLY FAMILY HALL,M,L
51.0,12.0,54TH & WARRINGTON AVE,39.9418727954044,-75.2255099485601,MASTERY HARDY WILLIAMS H S,A,L
51.0,13.0,54TH & WARRINGTON AVE,39.9418727954044,-75.2255099485601,MASTERY HARDY WILLIAMS H S,A,L
51.0,14.0,52ND & WILLOWS AVE,39.9460654072625,-75.225446348926,FIRE ENGINE CO # 68,F,L
51.0,15.0,53RD & BALTIMORE AVE,39.9477808343313,-75.2294495847884,HARRINGTON SCHOOL,M,L
51.0,16.0,53RD & BALTIMORE AVE,39.9477808343313,-75.2294495847884,HARRINGTON SCHOOL,M,L
51.0,17.0,54TH & WARRINGTON AVE,39.9418727954044,-75.2255099485601,MASTERY HARDY WILLIAMS H S,A,L
51.0,18.0,53RD & BALTIMORE AVE,39.9477808343313,-75.2294495847884,HARRINGTON SCHOOL,M,L
51.0,19.0,58TH & WILLOWS AVE,39.9402930418165,-75.2336331558821,LONGSTRETH SCHOOL,F,L
51.0,20.0,54TH & WARRINGTON AVE,39.9418727954044,-75.2255099485601,MASTERY HARDY WILLIAMS H S,A,L
51.0,21.0,56TH & KINGSESSING AVE,39.9366770701211,-75.2243892212525,MITCHELL SCHOOL,M,L
51.0,22.0,56TH & KINGSESSING AVE,39.9366770701211,-75.2243892212525,MITCHELL SCHOOL,M,L
51.0,23.0,58TH & WILLOWS AVE,39.9402930418165,-75.2336331558821,LONGSTRETH SCHOOL,F,L
51.0,24.0,56TH & KINGSESSING AVE,39.9366770701211,-75.2243892212525,MITCHELL SCHOOL,M,L
51.0,25.0,56TH & KINGSESSING AVE,39.9366770701211,-75.2243892212525,MITCHELL SCHOOL,M,L
51.0,26.0,58TH & WILLOWS AVE,39.9402930418165,-75.2336331558821,LONGSTRETH SCHOOL,F,L
51.0,27.0,58TH & WILLOWS AVE,39.9402930418165,-75.2336331558821,LONGSTRETH SCHOOL,F,L
51.0,28.0,58TH & WILLOWS AVE,39.9402930418165,-75.2336331558821,LONGSTRETH SCHOOL,F,L
52.0,1.0,4950 PARKSIDE AVE,39.979590035195,-75.2183651455409,PARK AVE BANQUET HALL,M,N
52.0,2.0,3600 CONSHOHOCKEN AVE,40.0036290835064,-75.202172179827,RIVER PARK HOUSE APTS,M,L
52.0,3.0,3900 CITY AVE,40.0080215013337,-75.2095356175398,PRES CITY/EMPTY RESTAURANT,M,H
52.0,4.0,3701 CONSHOHOCKEN AVE,40.0041039785552,-75.2041434538237,DUFFIELD HOUSE,M,L
52.0,5.0,57TH & WYNNEFIELD AVE,39.9919684138131,-75.2375227284418,GOMPERS SCHOOL,F,L
52.0,6.0,3939 CONSHOHOCKEN AVE,40.0032437224278,-75.2080788541829,BRITH SHOLOM HOUSE,F,L
52.0,7.0,3939 CONSHOHOCKEN AVE,40.0032437224278,-75.2080788541829,BRITH SHOLOM HOUSE,F,L
52.0,8.0,4001 CONSHOHOCKEN AVE,40.0024767558493,-75.2123891875572,PARK TOWER APTS,F,L
52.0,9.0,2101 BELMONT AVE,39.9958620218445,-75.2169104411815,SIMPSON HOUSE,B,L
52.0,10.0,3900 FORD RD,39.998890581868,-75.2086845986223,PARK PLAZA CONDOS-WEST LOBBY,M,H
52.0,11.0,2600 BELMONT AVE,39.9990599342659,-75.2207047394762,INGLIS HOUSE (FOUNDERS HALL),F,H
52.0,12.0,2600 BELMONT AVE,39.9990599342659,-75.2207047394762,INGLIS HOUSE (FOUNDERS HALL),F,H
52.0,13.0,4910 WYNNEFIELD AVE,39.9902005699416,-75.2222022078868,SETTLEMENT MUSIC SCHOOL,F,L
52.0,14.0,5301 OVERBROOK AVE,39.9950314835641,-75.232712806673,JOHN C ANDERSON CULTURE CTR,M,L
52.0,15.0,54TH & WYNNEFIELD AVE,39.9918835642018,-75.2336739896111,PINN MEMORIAL BAPTIST CHURCH,M,L
52.0,16.0,5219 WYNNEFIELD AVE,39.9921968746233,-75.2305612598309,FAIRVIEW ARMS APTS,R,L
52.0,17.0,5100 LEBANON AVE,39.9798413121823,-75.248629248275,BRYN MAWR SUITES,R,L
52.0,18.0,5359 LEBANON AVE,39.9875819807434,-75.2316350688237,ST BARBARA'S CHURCH,M,H
52.0,19.0,54TH & WYNNEFIELD AVE,39.9918835642018,-75.2336739896111,PINN MEMORIAL BAPTIST CHURCH,M,L
52.0,20.0,59TH & MALVERN AVE,39.9864057372055,-75.2410927323318,BEEBER MIDDLE SCHOOL,M,L
52.0,21.0,53RD & PARKSIDE AVE,39.9826928142312,-75.2270582142821,PARKSIDE EVANS RECREATION CTR,F,L
52.0,22.0,54TH & BERKS STS,39.9858788602617,-75.2318669263665,MASTERY MANN CHARTER SCHOOL,N,N
52.0,23.0,54TH & BERKS STS,39.9858788602617,-75.2318669263665,MASTERY MANN CHARTER SCHOOL,N,N
52.0,24.0,54TH & BERKS STS,39.9858788602617,-75.2318669263665,MASTERY MANN CHARTER SCHOOL,N,N
52.0,25.0,5478 ARLINGTON ST,39.9858894874927,-75.2346009697042,CHURCH OFFICE,M,N
52.0,26.0,59TH & MALVERN AVE,39.9864057372055,-75.2410927323318,BEEBER MIDDLE SCHOOL,M,L
52.0,27.0,59TH & MALVERN AVE,39.9864057372055,-75.2410927323318,BEEBER MIDDLE SCHOOL,M,L
52.0,28.0,3939 CONSHOHOCKEN AVE,40.0032437224278,-75.2080788541829,BRITH SHOLOM HOUSE,F,L
53.0,1.0,FRONTENAC & DEVEREAUX AVE,40.0388986363953,-75.0832909318468,CARNELL LITTLE SCHOOLHOUSE,R,N
53.0,2.0,FRONTENAC & DEVEREAUX AVE,40.0388986363953,-75.0832909318468,CARNELL LITTLE SCHOOLHOUSE,R,N
53.0,3.0,FRONTENAC & DEVEREAUX AVE,40.0388986363953,-75.0832909318468,CARNELL LITTLE SCHOOLHOUSE,R,N
53.0,4.0,ROBBINS AVE & FRONTENAC ST,40.0401486176507,-75.0821147184359,TARKEN RECREATION CENTER,M,L
53.0,5.0,FRONTENAC & DEVEREAUX AVE,40.0388986363953,-75.0832909318468,CARNELL LITTLE SCHOOLHOUSE,R,N
53.0,6.0,ROBBINS AVE & FRONTENAC ST,40.0401486176507,-75.0821147184359,TARKEN RECREATION CENTER,M,L
53.0,7.0,ROBBINS AVE & FRONTENAC ST,40.0401486176507,-75.0821147184359,TARKEN RECREATION CENTER,M,L
53.0,8.0,ROBBINS AVE & FRONTENAC ST,40.0401486176507,-75.0821147184359,TARKEN RECREATION CENTER,M,L
53.0,9.0,1009 UNRUH AVE,40.0477807894579,-75.081575305462,ST THOMAS INDIAN ORTHODOX CHUR,M,L
53.0,10.0,6304 CASTOR AVE,40.0386459629512,-75.0786044347814,BUSHROD LIBRARY,F,N
53.0,11.0,1009 UNRUH AVE,40.0477807894579,-75.081575305462,ST THOMAS INDIAN ORTHODOX CHUR,M,L
53.0,12.0,1009 UNRUH AVE,40.0477807894579,-75.081575305462,ST THOMAS INDIAN ORTHODOX CHUR,B,L
53.0,13.0,SUMMERDALE & LONGSHORE AVE,40.0486339179706,-75.0768413467592,S     HAMPTON MOORE SCHOOL,F,L
53.0,14.0,SUMMERDALE & LONGSHORE AVE,40.0486339179706,-75.0768413467592,S     HAMPTON MOORE SCHOOL,F,L
53.0,15.0,1009 UNRUH AVE,40.0477807894579,-75.081575305462,ST THOMAS INDIAN ORTHODOX CHUR,M,L
53.0,16.0,SUMMERDALE & LONGSHORE AVE,40.0486339179706,-75.0768413467592,S     HAMPTON MOORE SCHOOL,F,L
53.0,17.0,7048 CASTOR AVE,40.0480868614429,-75.0695954393481,TREE OF LIFE CLINIC,F,N
53.0,18.0,COTTMAN & ALGON AVES,40.0553310502036,-75.0732564160561,NORTHEAST HIGH SCHOOL,M,L
53.0,19.0,SUMMERDALE & LONGSHORE AVE,40.0486339179706,-75.0768413467592,S     HAMPTON MOORE SCHOOL,F,L
53.0,20.0,PENNWAY & COTTMAN AVE,40.0563601094854,-75.075032590272,JARDEL RECREATION CENTER//REAR,M,L
53.0,21.0,COTTMAN & LAWNDALE AVES,40.0600329652788,-75.0814029954832,UNITED METH CHURCH OF REDEEMER,M,L
53.0,22.0,SUMMERDALE & LONGSHORE AVE,40.0486339179706,-75.0768413467592,S     HAMPTON MOORE SCHOOL,F,L
53.0,23.0,1009 UNRUH AVE,40.0477807894579,-75.081575305462,ST THOMAS INDIAN ORTHODOX CHUR,M,L
54.0,1.0,LEVICK & HORROCKS STS,40.0372991770804,-75.0735512303809,SPRUANCE LITTLE SCHOOLHOUSE,M,L
54.0,2.0,LEVICK & HORROCKS STS,40.0372991770804,-75.0735512303809,SPRUANCE LITTLE SCHOOLHOUSE,M,L
54.0,3.0,LEVICK & HORROCKS STS,40.0372991770804,-75.0735512303809,SPRUANCE LITTLE SCHOOLHOUSE,M,L
54.0,4.0,1601 HELLERMAN ST,40.0383032093006,-75.0702570161476,MAX MYERS RECREATION CENTER,A,L
54.0,5.0,LEVICK & HORROCKS STS,40.0372991770804,-75.0735512303809,SPRUANCE LITTLE SCHOOLHOUSE,M,L
54.0,6.0,6501 BUSTLETON AVE,40.0367318288746,-75.0688255702709,GREEK ORTHODOX CHURCH,B,L
54.0,7.0,6501 BUSTLETON AVE,40.0367318288746,-75.0688255702709,GREEK ORTHODOX CHURCH,B,L
54.0,8.0,2230 COTTMAN AVE,40.0480937036763,-75.0615439258558,DISTRICT HEALTH CENTER #10,F,L
54.0,9.0,1601 HELLERMAN ST,40.0383032093006,-75.0702570161476,MAX MYERS RECREATION CENTER,A,L
54.0,10.0,6501 BUSTLETON AVE,40.0367318288746,-75.0688255702709,GREEK ORTHODOX CHURCH,B,L
54.0,11.0,6501 BUSTLETON AVE,40.0367318288746,-75.0688255702709,GREEK ORTHODOX CHURCH,B,L
54.0,12.0,6501 BUSTLETON AVE,40.0367318288746,-75.0688255702709,GREEK ORTHODOX CHURCH,B,L
54.0,13.0,1601 HELLERMAN ST,40.0383032093006,-75.0702570161476,MAX MYERS RECREATION CENTER,A,L
54.0,14.0,TYSON & HORROCKS STS,40.0447428128397,-75.0665472188276,SOLIS COHEN LITTLE SCHOOLHOUSE,M,L
54.0,15.0,TYSON & HORROCKS ST,40.0447428128397,-75.0665472188276,SOLIS COHEN SCHOOL,M,L
54.0,16.0,TYSON & HORROCKS ST,40.0447428128397,-75.0665472188276,SOLIS COHEN SCHOOL,M,L
54.0,17.0,TYSON & HORROCKS ST,40.0447428128397,-75.0665472188276,SOLIS COHEN SCHOOL,M,L
54.0,18.0,TYSON & HORROCKS ST,40.0447428128397,-75.0665472188276,SOLIS COHEN SCHOOL,M,L
54.0,19.0,7200 ROOSEVELT BLVD,40.043676498386,-75.0565769053782,CALVARY MEMORIAL CHURCH,R,L
54.0,20.0,7200 ROOSEVELT BLVD,40.043676498386,-75.0565769053782,CALVARY MEMORIAL CHURCH,R,L
54.0,21.0,2230 COTTMAN AVE,40.0480937036763,-75.0615439258558,DISTRICT HEALTH CENTER #10,F,L
54.0,22.0,TYSON & HORROCKS ST,40.0447428128397,-75.0665472188276,SOLIS COHEN SCHOOL,M,L
55.0,1.0,6025 ERDRICK ST,40.0234294837659,-75.0621779334631,RESIDENCE,B,N
55.0,2.0,6101 JACKSON ST,40.0202943014659,-75.0585942335596,LAWTON SCHOOL,F,L
55.0,3.0,ROBBINS & HAWTHORNE STS,40.0285079093766,-75.0612089577498,LOWER MAYFAIR RECREATION CTR,F,L
55.0,4.0,HELLERMAN & WALKER STS,40.0265898660867,-75.0536419049214,ROOSEVELT RECREATION CENTER,F,L
55.0,5.0,HELLERMAN & WALKER STS,40.0265898660867,-75.0536419049214,ROOSEVELT RECREATION CENTER,F,L
55.0,6.0,HELLERMAN & WALKER STS,40.0265898660867,-75.0536419049214,ROOSEVELT RECREATION CENTER,F,L
55.0,7.0,HELLERMAN & WALKER STS,40.0265898660867,-75.0536419049214,ROOSEVELT RECREATION CENTER,F,L
55.0,8.0,3201 MAGEE AVE,40.0314907267297,-75.0557564950469,HAIR SALON,N,N
55.0,9.0,3001 LEVICK ST,40.0305586681067,-75.060516542615,ST TIMOTHYS SCHOOL,M,L
55.0,10.0,ROBBINS & HAWTHORNE,40.0285079093766,-75.0612089577498,LOWER MAYFAIR REC CENTER,F,L
55.0,11.0,TYSON AVE & HAWTHORNE ST,40.037184779049,-75.0530231756116,ST JOHNS CHURCH,B,N
55.0,12.0,3117 LONGSHORE AVE,40.0361303768145,-75.0535750102784,JOHNSON MEMORIAL METH CHURCH,M,N
55.0,13.0,3001 LEVICK ST,40.0305586681067,-75.060516542615,ST TIMOTHYS SCHOOL,M,L
55.0,14.0,ROBBINS & HAWTHORNE,40.0285079093766,-75.0612089577498,LOWER MAYFAIR REC CENTER,F,L
55.0,15.0,ROBBINS & HAWTHORNE,40.0285079093766,-75.0612089577498,LOWER MAYFAIR REC CENTER,F,L
55.0,16.0,HAWTHORNE & PRINCETON AVE,40.0384772548265,-75.0518001419437,MAYFAIR SCHOOL,A,L
55.0,17.0,HAWTHORNE & PRINCETON AVE,40.0384772548265,-75.0518001419437,MAYFAIR SCHOOL,A,L
55.0,18.0,HAWTHORNE & PRINCETON AVE,40.0384772548265,-75.0518001419437,MAYFAIR SCHOOL,A,L
55.0,19.0,HAWTHORNE & PRINCETON AVE,40.0384772548265,-75.0518001419437,MAYFAIR SCHOOL,A,L
55.0,20.0,TYSON AVE & HAWTHORNE ST,40.037184779049,-75.0530231756116,ST JOHNS CHURCH,B,N
55.0,21.0,ROWLAND AVE & WELLINGTON S,40.0384427003972,-75.0468800546237,T     CHURCH OF GRACE TO FUJIANESE,M,L
55.0,22.0,ROWLAND AVE & WELLINGTON S,40.0384427003972,-75.0468800546237,T     CHURCH OF GRACE TO FUJIANESE,M,L
55.0,23.0,ROWLAND AVE & WELLINGTON S,40.0384427003972,-75.0468800546237,T     CHURCH OF GRACE TO FUJIANESE,M,L
55.0,24.0,ROWLAND AVE & WELLINGTON S,40.0384427003972,-75.0468800546237,T     CHURCH OF GRACE TO FUJIANESE,M,L
55.0,25.0,COTTAGE & UNRUH STS,40.0273526631689,-75.049274532884,VOGT RECREATION CENTER,F,L
55.0,26.0,COTTAGE & UNRUH STS,40.0273526631689,-75.049274532884,VOGT RECREATION CENTER,F,L
55.0,27.0,COTTAGE & UNRUH STS,40.0273526631689,-75.049274532884,VOGT RECREATION CENTER,F,L
55.0,28.0,6820 JACKSON ST,40.0274685733728,-75.0461988090558,ST PETRI'S LUTHERAN CHURCH,B,L
55.0,29.0,7049 FRANKFORD AVE,40.0341743053786,-75.0451386239374,MR STORAGE CO,B,L
56.0,1.0,2218 GLENDALE AVE,40.0551458892641,-75.0555268274229,STOREFRONT,M,N
56.0,2.0,CASTOR AVE & BORBECK ST,40.0593436294608,-75.0585259741921,RHAWNHURST SCHOOL,A,L
56.0,3.0,COTTMAN & ALGON AVES,40.0553310502036,-75.0732564160561,NORTHEAST HIGH SCHOOL,B,L
56.0,4.0,COTTMAN & ALGON AVE,40.0553310502036,-75.0732564160561,NORTHEAST HIGH SCHOOL,B,L
56.0,5.0,1330 RHAWN ST,40.0667814166012,-75.0667691619378,TACONY ACADEMY CHARTER SCHOOL,A,L
56.0,6.0,1304 RHAWN ST,40.0691122533158,-75.0681730452591,GLORIA DEI ESTATES,F,L
56.0,7.0,1013 COTTMAN AVE,40.0611685680631,-75.0827249937385,IMMANUEL LUTHERAN CHURCH,R,N
56.0,8.0,1225 COTTMAN AVE,40.0590729590914,-75.079054558331,COLLISION CARE GARAGE REAR,M,L
56.0,9.0,1400 ALDINE ST,40.0577110825945,-75.076116691717,RESIDENCE,N,L
56.0,10.0,7701 LORETTO AVE,40.0576867877869,-75.0621287535526,RHAWNHURST PRESBYTER CHURCH,M,L
56.0,11.0,1330 RHAWN ST,40.0667814166012,-75.0667691619378,TACONY ACADEMY CHARTER SCHOOL,A,L
56.0,12.0,BUSTLETON & SOLLY AVES,40.0631424384691,-75.0516854632898,PALBANO (RHAWNHURST) REC CTR,M,H
56.0,13.0,2218 GLENDALE AVE,40.0551458892641,-75.0555268274229,STOREFRONT,M,N
56.0,14.0,7328 CASTOR AVE,40.0530155146629,-75.0648440921199,LEE'S HOAGIE HOUSE,B,N
56.0,15.0,2031 VISTA ST,40.0535529391033,-75.0626928037855,VISCONTO'S FUNERAL HOME,M,L
56.0,16.0,CASTOR AVE & BORBECK ST,40.0593436294608,-75.0585259741921,RHAWNHURST SCHOOL,A,L
56.0,17.0,CASTOR AVE & BORBECK ST,40.0593436294608,-75.0585259741921,RHAWNHURST SCHOOL,A,L
56.0,18.0,BUSTLETON & SOLLY AVES,40.0631424384691,-75.0516854632898,PALBANO (RHAWNHURST)REC CTR,M,H
56.0,19.0,1330 RHAWN ST,40.0667814166012,-75.0667691619378,TACONY ACADEMY CHARTER SCHOOL,A,L
56.0,20.0,BUSTLETON & SOLLY AVES,40.0631424384691,-75.0516854632898,PALBANO (RHAWNHURST)REC CTR,M,H
56.0,21.0,BUSTLETON & SOLLY AVES,40.0631424384691,-75.0516854632898,PALBANO (RHAWNHURST) REC CTR,M,H
56.0,22.0,2101 STRAHLE ST,40.0661217473957,-75.0484615190945,FEDERATION APT BLDG,B,L
56.0,23.0,CASTOR AVE & FOX CHASE RD,40.067067601571,-75.0512410501528,FARRELL SCHOOL,A,L
56.0,24.0,CASTOR AVE & FOX CHASE RD,40.067067601571,-75.0512410501528,FARRELL SCHOOL,A,L
56.0,25.0,CASTOR AVE & FOX CHASE RD,40.067067601571,-75.0512410501528,FARRELL SCHOOL,A,L
56.0,26.0,8500 BUSTLETON AVE,40.071420397206,-75.0496660955576,JACKS DELI,F,L
56.0,27.0,CASTOR AVE & FOX CHASE RD,40.067067601571,-75.0512410501528,FARRELL SCHOOL,A,L
56.0,28.0,8500 BUSTLETON AVE,40.071420397206,-75.0496660955576,JACKS DELI,F,L
56.0,29.0,8900 ROOSEVELT BLVD,40.0723459421529,-75.0377714023943,ROBERT SALIGMAN HOUSE,F,L
56.0,30.0,9151 OLD NEWTOWN RD,40.0765149706016,-75.0389346118967,AMERICAN LEGION POST 810,M,L
56.0,31.0,9151 OLD NEWTOWN ROAD,40.0765149706016,-75.0389346118967,AMERICAN LEGION POST 810,M,L
56.0,32.0,8040  ROOSEVELT BLVD,40.057848712609,-75.0464392169848,8040 BUILDING (FOYER),F,L
56.0,33.0,SHELMIRE & SUMMERDALE AVE,40.0574311766364,-75.067209412848,CHURCH OF THE NAZARENE,F,N
56.0,34.0,7600 ROOSEVELT BLVD,40.0508592634224,-75.0524035430489,VALMONT TOWERS APTS,F,L
56.0,35.0,9151 OLD NEWTOWN ROAD,40.0765149706016,-75.0389346118967,AMERICAN LEGION POST 810,M,L
56.0,36.0,7701 LORETTO AVE,40.0576867877869,-75.0621287535526,RHAWNHURST PRESBYTER CHURCH,M,L
56.0,37.0,CASTOR AVE & BORBECK ST,40.0593436294608,-75.0585259741921,RHAWNHURST SCHOOL,A,L
56.0,38.0,2301 TREMONT ST,40.0742565051403,-75.0370336273285,ST REGIS APTS,M,L
56.0,39.0,8900 ROOSEVELT BLVD,40.0723459421529,-75.0377714023943,ROBERT SALIGMAN HOUSE,F,L
56.0,40.0,7600 ROOSEVELT BLVD,40.0508592634224,-75.0524035430489,VALMONT TOWERS APTS,F,L
56.0,41.0,9151 OLD NEWTOWN ROAD,40.0765149706016,-75.0389346118967,AMERICAN LEGION POST 810,M,L
57.0,1.0,9151 ACADEMY ROAD,40.0560176723103,-75.0089205420375,PENN CRISP GYM,F,L
57.0,2.0,3200 PRIMROSE RD,40.0691821486505,-75.0109122973467,N E PHILA CHURCH OF CHRIST,M,L
57.0,3.0,2990 HOLME AVE,40.0554790721004,-75.0292426930793,IMMACULATE MARY NURSING HOME,F,H
57.0,4.0,2425 WELSH ROAD,40.0710701268868,-75.0315486217283,CASINO DELI RESTAURANT,F,L
57.0,5.0,WELSH RD & ROOSEVELT BLVD,40.0746181751262,-75.0350873808947,WELSH ROAD BRANCH LIBRARY,F,L
57.0,6.0,2425 WELSH RD,40.0710701268868,-75.0315486217283,CASINO DELI RESTAURANT,F,L
57.0,7.0,2425 WELSH ROAD,40.0710701268868,-75.0315486217283,CASINO DELI RESTAURANT,F,L
57.0,8.0,WELSH RD & TOLBUT ST,40.0607263681449,-75.0280169799146,POLLOCK SCHOOL,A,L
57.0,9.0,WELSH RD & TOLBUT ST,40.0607263681449,-75.0280169799146,POLLOCK SCHOOL,A,L
57.0,10.0,WELSH RD & TOLBUT ST,40.0607263681449,-75.0280169799146,POLLOCK SCHOOL,A,L
57.0,11.0,9222 HORATIO RD,40.0607198326838,-75.0145780883611,RESIDENCE,N,N
57.0,12.0,HOLME & CONVENT AVE,40.0566046447103,-75.0190835011331,CRISPIN GARDENS MEETING ROOM,M,L
57.0,13.0,2990 HOLME AVE,40.0554790721004,-75.0292426930793,IMMACULATE MARY NURSING HOME,F,H
57.0,14.0,WELSH RD & TOLBUT ST,40.0607263681449,-75.0280169799146,POLLOCK SCHOOL,A,L
57.0,15.0,WELSH RD & TOLBUT ST,40.0607263681449,-75.0280169799146,POLLOCK SCHOOL,A,L
57.0,16.0,9151 ACADEMY ROAD,40.0560176723103,-75.0089205420375,PENN CRISP GYM,F,L
57.0,17.0,8724 CRISPIN ST,40.0509596352475,-75.0139898420869,PENNYPACK WOODS HOMES ASSOC,M,H
57.0,18.0,8724 CRISPIN ST,40.0509596352475,-75.0139898420869,PENNYPACK WOODS HOMES ASSOC,M,H
57.0,19.0,9151 ACADEMY ROAD,40.0560176723103,-75.0089205420375,PENN CRISP GYM,F,L
57.0,20.0,WELSH RD & TOLBUT ST,40.0607263681449,-75.0280169799146,POLLOCK SCHOOL,A,L
57.0,21.0,9151 ACADEMY ROAD,40.0560176723103,-75.0089205420375,PENN CRISP GYM,F,L
57.0,22.0,FRANKFORD AVE & EDEN ST,40.0587564492867,-74.9956487718038,TORRESDALE RECREATION CENTER,R,L
57.0,23.0,WELSH RD & TOLBUT ST,40.0607263681449,-75.0280169799146,POLLOCK SCHOOL,A,L
57.0,24.0,3352 GRANT AVE,40.0683281153276,-75.0066571435628,STOREFRONT,B,N
57.0,25.0,3352 GRANT AVE,40.0683281153276,-75.0066571435628,STOREFRONT,B,N
57.0,26.0,WELSH RD & TOLBUT ST,40.0607263681449,-75.0280169799146,POLLOCK SCHOOL,A,L
57.0,27.0,WELSH RD & TOLBUT ST,40.0607263681449,-75.0280169799146,POLLOCK SCHOOL,A,L
57.0,28.0,8724 CRISPIN DR,40.0509596352475,-75.0139898420869,PENNYPACK WOODS HOMES ASSOC,M,H
58.0,1.0,808 RED LION ROAD,40.1037570782527,-75.0325590627723,BETHESDA PRESBYTERIAN CHURCH,M,L
58.0,2.0,BUSTLETON AVE & TOMLINSON,40.1129990879108,-75.0230428300267,RD    LOESCHE SCHOOL,F,L
58.0,3.0,10400 ROOSEVELT BLVD,40.0966253799202,-75.0144097238192,ST JOHN NEUMANN,M,L
58.0,4.0,BYBERRY & KELVIN RDS,40.1206827184131,-75.0104530016951,COMLY SCHOOL,F,L
58.0,5.0,13500 PHILMONT AVE,40.1298601204145,-75.0167319067506,CALVARY CHAPEL,B,L
58.0,6.0,11047 BUSTLETON AVE,40.0196320744395,-75.153400427474,PHILA KOREAN REFORM CHURCH,F,L
58.0,7.0,11047 BUSTLETON AVE,40.0196320744395,-75.153400427474,PHILA KOREAN REFORM CHURCH,F,L
58.0,8.0,BUSTLETON AVE & VERREE RD,40.1083258022394,-75.0263057923501,WASHINGTON HIGH SCHOOL,M,L
58.0,9.0,608 WELSH RD,40.1031581113736,-75.0521393518025,ST THOMAS SYRO MALABAR CHURCH,F,H
58.0,10.0,CHESWORTH & BARTLETT STS,40.101205535789,-75.0344987240187,LACKMAN RECREATION CENTER,M,L
58.0,11.0,BOWLER & HOFF STS,40.0887859622907,-75.0287391117241,ANNE FRANK SCHOOL,M,L
58.0,12.0,198 TOMLINSON RD,40.1193226452478,-75.0350153300296,SYNAGOGUE,M,L
58.0,13.0,608 WELSH RD,40.1031581113736,-75.0521393518025,ST THOMAS SYRO MALABAR CHURCH,F,H
58.0,14.0,BOWLER & HOFF STS,40.0887859622907,-75.0287391117241,ANNE FRANK SCHOOL,M,L
58.0,15.0,BUSTLETON AVE & VERREE RD,40.1083258022394,-75.0263057923501,WASHINGTON HIGH SCHOOL,M,L
58.0,16.0,9832 REDD RAMBLER ROAD,40.0997766648932,-75.0428825179549,RESIDENCE,M,L
58.0,17.0,608 WELSH RD,40.1031581113736,-75.0521393518025,ST THOMAS SYRO MALABAR CHURCH,F,H
58.0,18.0,BUSTLETON AVE & VERREE RD,40.1083258022394,-75.0263057923501,WASHINGTON HIGH SCHOOL,M,L
58.0,19.0,KREWSTOWN RD & GRANT AVE,40.0883801364363,-75.0441393549503,NORTHEAST RACQUET CLUB,N,L
58.0,20.0,13073 BUSTLETON AVE,40.1261155170176,-75.0141388059593,SOMERTON METHODIST CHURCH,M,L
58.0,21.0,13500 PHILMONT AVE,40.1298601204145,-75.0167319067506,CALVARY CHAPEL,B,L
58.0,22.0,BYBERRY & KELVIN RDS,40.1206827184131,-75.0104530016951,COMLY SCHOOL,F,L
58.0,23.0,ROOSEVELT BLVD & CONWELL A,40.0888696895457,-75.0207732122305,VE    HAYES (CONWELL) REC CENTER,F,L
58.0,24.0,1400 SOUTHAMPTON RD,40.1191079919376,-74.996016030805,SOMERTON YOUTH ORGANIZATION,F,L
58.0,25.0,13073 BUSTLETON AVE,40.1261155170176,-75.0141388059593,SOMERTON METHODIST CHURCH,M,L
58.0,26.0,CHESWORTH & BARTLETT STS,40.101205535789,-75.0344987240187,LACKMAN RECREATION CENTER,M,L
58.0,27.0,HALDEMAN & BUSTLETON AVE,40.0940524848353,-75.0309285690919,SLOANE HONDA,M,L
58.0,28.0,BOWLER & HOFF STS,40.0887859622907,-75.0287391117241,ANNE FRANK SCHOOL,M,L
58.0,29.0,1400 SOUTHAMPTON RD,40.1191079919376,-74.996016030805,SOMERTON YOUTH CLUB,F,L
58.0,30.0,ROOSEVELT BLVD & CONWELL A,40.0888696895457,-75.0207732122305,VE    HAYES (CONWELL) REC CENTER,F,L
58.0,31.0,10400 ROOSEVELT BLV,40.0966253799202,-75.0144097238192,ST JOHN NEUMANN HOME,M,L
58.0,32.0,BUSTLETON AVE & TOMLINSON,40.1129990879108,-75.0230428300267,RD    LOESCHE SCHOOL,F,L
58.0,33.0,198 TOMLINSON RD,40.1193226452478,-75.0350153300296,SYNAGOGUE,M,L
58.0,34.0,198 TOMLINSON RD,40.1193226452478,-75.0350153300296,SYNAGOGUE,M,L
58.0,35.0,12003 BUSTLETON AVE,40.1218363468621,-75.0158606092581,SHALOM ARBOR HOUSE,F,L
58.0,36.0,BUSTLETON AVE & VERREE RD,40.1083258022394,-75.0263057923501,WASHINGTON HIGH SCHOOL,M,L
58.0,37.0,BUSTLETON AVE & TOMLINSON,40.1129990879108,-75.0230428300267,RD    LOESCHE SCHOOL,F,L
58.0,38.0,198 TOMLINSON RD,40.1193226452478,-75.0350153300296,SYNAGOGUE,M,L
58.0,39.0,13021 WORTHINGTON RD,40.1195104775578,-75.0052687477488,FELLOWSHIP BIBLE CHURCH,M,L
58.0,40.0,13073 BUSTLETON AVE,40.1261155170176,-75.0141388059593,SOMERTON METHODIST CHURCH,M,L
58.0,41.0,SOUTHAMPTON & WORTHINGTON,40.1239915616228,-75.0016720963033,RD    IMMANUEL LUTHERAN CHURCH,B,L
58.0,42.0,BOWLER & HOFF STS,40.0887859622907,-75.0287391117241,ANNE FRANK SCHOOL,M,L
58.0,43.0,BUSTLETON AVE & TOMLINSON,40.1129990879108,-75.0230428300267,RD    LOESCHE SCHOOL,F,L
58.0,44.0,9896 BUSTLETON AVE,40.0945362162057,-75.0313480123204,PAULS RUN,F,H
59.0,1.0,STENTON AVE & HAINES ST,40.055769490031,-75.1588904848371,M L KING HIGH SCHOOL,M,L
59.0,2.0,ARDLEIGH & HAINES ST,40.0514192962604,-75.1633745680599,AWBURY RECREATION CENTER,F,L
59.0,3.0,CHELTEN AVE & ARDLEIGH ST,40.0496653802419,-75.1605295793679,LONNIE YOUNG REC CTR SR BLDG,A,L
59.0,4.0,ARDLEIGH & HAINES STS,40.0514192962604,-75.1633745680599,AWBURY RECREATION CENTER,F,L
59.0,5.0,RITTENHOUSE & MC MAHON STS,40.0455153136406,-75.1681619795033,WATERVIEW RECREATION CENTER,A,L
59.0,6.0,5920 MORTON ST,40.0433298462686,-75.1732753017787,MORTON HOMES (PHA),M,L
59.0,7.0,5920 MORTON ST,40.0433298462686,-75.1732753017787,MORTON HOMES (PHA),M,L
59.0,8.0,5920 MORTON ST,40.0433298462686,-75.1732753017787,MORTON HOMES (PHA),M,L
59.0,9.0,RITTENHOUSE & MC MAHON STS,40.0455153136406,-75.1681619795033,WATERVIEW RECREATION CENTER,A,L
59.0,10.0,6320 CHEW AVE,40.0506838474509,-75.1744754702719,AWBURY VIEW APTS-BLDG 18,M,N
59.0,11.0,6320 CHEW AVE,40.0506838474509,-75.1744754702719,AWBURY VIEW APTS,M,N
59.0,12.0,MORTON & JOHNSON STS,40.0478004405744,-75.1802564715228,MALLERY RECREATION CENTER,F,L
59.0,13.0,MORTON & JOHNSON STS,40.0478004405744,-75.1802564715228,MALLERY RECREATION CENTER,F,L
59.0,14.0,MORTON & JOHNSON STS,40.0478004405744,-75.1802564715228,MALLERY RECREATION CENTER,F,L
59.0,15.0,6019 GERMANTOWN AVE,40.0402858275204,-75.1776356398528,FIRST UNITED METHODIST CHURCH,F,L
59.0,16.0,CHELTEN AVE & BAYNTON ST,40.0388488434587,-75.171619294983,FIRE ENGINE CO # 19,M,L
59.0,17.0,5700 WAYNE AVE,40.0318844882792,-75.1808049921694,MASTERY PICKETT CHARTER SCHOOL,M,H
59.0,18.0,WAYNE AVE & JOHNSON ST,40.0382334696039,-75.1900872020944,LINGELBACH SCHOOL,A,L
59.0,19.0,68 W CHELTEN AVE,40.0340596924543,-75.1760281282125,COLEMAN REGIONAL LIBRARY,M,N
59.0,20.0,5700 WAYNE AVE,40.0318844882792,-75.1808049921694,MASTERY PICKETT CHARTER SCHOOL,M,H
59.0,21.0,6300 GREENE ST,40.0387824508362,-75.1861819226368,STAPELEY RETIREMENT HOME,A,L
59.0,22.0,6019 GERMANTOWN AVE,40.0402858275204,-75.1776356398528,FIRST UNITED METHODIST CHURCH,F,L
59.0,23.0,21 W WASHINGTON LA,40.0429082121281,-75.1815488804216,GERMANTOWN MENNONITE CHURCH,M,L
59.0,24.0,25 W JOHNSON ST,40.0456407948262,-75.1830248403828,GRACE BAPTIST CHURCH,M,L
59.0,25.0,6300 GREENE ST,40.0387824508362,-75.1861819226368,STAPELEY RETIREMENT HOME,A,L
60.0,1.0,4508 SANSOM ST,39.9558732701316,-75.2121635097799,SANSOM HOUSE SR LIVING,F,L
60.0,2.0,4901 CHESTNUT ST,39.9586038593843,-75.2199090399192,WEST PHILA HIGH SCHOOL,F,H
60.0,3.0,52ND & SANSOM STS,39.9577157415989,-75.225352795767,BLACKWELL LIBRARY,F,L
60.0,4.0,5120 CHESTNUT ST,39.9580731348712,-75.2241148247034,WEST PHILA YMCA,M,H
60.0,5.0,5120 CHESTNUT ST,39.9580731348712,-75.2241148247034,WEST PHILA YMCA,M,H
60.0,6.0,56TH & CHESTNUT STS,39.9594635589592,-75.2331764389309,FIRE ENGINE CO # 57,F,L
60.0,7.0,58TH & WALNUT STS,39.9584344881291,-75.2374485450662,SAYRE SCHOOL,M,L
60.0,8.0,4901 CHESTNUT ST,39.9586038593843,-75.2199090399192,WEST PHILA HIGH SCHOOL,F,H
60.0,9.0,5026 SPRUCE ST,39.953996687718,-75.2231958384948,LIGHT OF ELMWOOD LODGE # 45,M,H
60.0,10.0,52ND & PINE STS,39.9535291218438,-75.2262241289369,HUEY SCHOOL,M,L
60.0,11.0,52ND & PINE STS,39.9535291218438,-75.2262241289369,HUEY SCHOOL,M,L
60.0,12.0,4901 CHESTNUT ST,39.9586038593843,-75.2199090399192,WEST PHILA HIGH SCHOOL,F,H
60.0,13.0,259 S 52ND ST,39.9553871798155,-75.2256063929279,BARBER SHOP,R,L
60.0,14.0,52ND & SANSOM STS,39.9577157415989,-75.225352795767,BLACKWELL LIBRARY,F,L
60.0,15.0,52ND & PINE STS,39.9535291218438,-75.2262241289369,HUEY SCHOOL,M,L
60.0,16.0,52ND & PINE STS,39.9535291218438,-75.2262241289369,HUEY SCHOOL,B,L
60.0,17.0,57TH & SPRUCE STS,39.9558325894729,-75.2359985412262,HAMILTON SCHOOL,M,L
60.0,18.0,57TH & SPRUCE STS,39.9558325894729,-75.2359985412262,HAMILTON SCHOOL,M,L
60.0,19.0,58TH & WALNUT STS,39.9584344881291,-75.2374485450662,SAYRE SCHOOL,M,L
60.0,20.0,57TH & SPRUCE STS,39.9558325894729,-75.2359985412262,HAMILTON SCHOOL,M,L
60.0,21.0,5800 SPRUCE ST,39.9558733343455,-75.2381209670519,MORRIS RECREATION CENTER,A,L
60.0,22.0,5800 SPRUCE ST,39.9558733343455,-75.2381209670519,MORRIS RECREATION CENTER,A,L
60.0,23.0,4901 CHESTNUT ST,39.9586038593843,-75.2199090399192,WEST PHILA HIGH SCHOOL,F,H
61.0,1.0,5622 N 05TH ST,40.0371415986735,-75.1306213685631,STOREFRONT,M,N
61.0,2.0,5TH & NEDRO AVE,40.0410490034895,-75.1294990785556,LOWELL SCHOOL,M,L
61.0,3.0,5TH & NEDRO AVE,40.0410490034895,-75.1294990785556,LOWELL SCHOOL,M,L
61.0,4.0,5TH & NEDRO AVE,40.0410490034895,-75.1294990785556,LOWELL SCHOOL,M,L
61.0,5.0,201 E OLNEY AVE,40.0356321599792,-75.1182926017107,GROVER WASHINGTON SCHOOL,M,L
61.0,6.0,6TH & SPENCER STS,,,FISHER PARK RECREATION CTR,F,L
61.0,7.0,5TH & NEDRO AVE,40.0410490034895,-75.1294990785556,LOWELL SCHOOL,M,L
61.0,8.0,5TH & NEDRO AVE,40.0410490034895,-75.1294990785556,LOWELL SCHOOL,M,L
61.0,9.0,5906 N 2ND ST,40.0407488473862,-75.1243042276346,HAIR SALON,N,N
61.0,10.0,A & SPENCER STS,,,OLNEY RECREATION CENTER,F,L
61.0,11.0,A & SPENCER STS,,,OLNEY RECREATION CENTER,F,L
61.0,12.0,A & SPENCER STS,,,OLNEY RECREATION CENTER,F,L
61.0,13.0,6TH & SPENCER STS,,,FISHER PARK REC CENTER,F,L
61.0,14.0,FRONT ST & GODFREY AVE,40.0444816072957,-75.1194545932581,FINLETTER LITTLE SCHOOL HOUSE,F,L
61.0,15.0,FRONT ST & GODFREY AVE,40.0444816072957,-75.1194545932581,FINLETTER LITTLE SCHOOL HOUSE,F,L
61.0,16.0,A & SPENCER STS,,,OLNEY RECREATION CENTER,F,L
61.0,17.0,400 W SPENCER ST,40.0436946555902,-75.1271453228,ST HELENA'S SCHOOL,R,L
61.0,18.0,400 W SPENCER ST,40.0436946555902,-75.1271453228,ST HELENAS SCHOOL,R,L
61.0,19.0,6350 N 02ND ST,40.0476688642457,-75.1233110187584,HOSOTO SCHOOL,M,L
61.0,20.0,FRONT ST & GODFREY AVE,40.0444816072957,-75.1194545932581,FINLETTER LITTLE SCHOOL HOUSE,F,L
61.0,21.0,12TH ST & OAKLANE AVE,,,ELLWOOD SCHOOL,M,L
61.0,22.0,6901 OLD YORK RD,40.0578720836368,-75.1380339876177,BROMLEY HOUSE APTS,R,N
61.0,23.0,12TH ST & OAKLANE AVE,,,ELLWOOD SCHOOL,M,L
61.0,24.0,600 W CHELTENHAM AVE,40.0561443497028,-75.1286153572545,CHELTENHAM NURSING CENTER,B,L
61.0,25.0,6350 N 02ND ST,40.0476688642457,-75.1233110187584,HOSOTO SCHOOL,M,L
61.0,26.0,6350 N 02ND ST,40.0476688642457,-75.1233110187584,HOSOTO SCHOOL,M,L
61.0,27.0,FRONT & GODFREY AVE,40.0444816072957,-75.1194545932581,FINLETTER LITTLE SCHOOLHOUSE,F,L
61.0,28.0,FRONT & GODFREY AVE,40.0444816072957,-75.1194545932581,FINLETTER LITTLE SCHOOLHOUSE,F,L
62.0,1.0,TORRESDALE AVE & WAKELING,40.0125449870794,-75.0732958299708,ST    HARDING MIDDLE SCHOOL,N,N
62.0,2.0,TORRESDALE AVE & WAKELING,40.0125449870794,-75.0732958299708,ST    HARDING MIDDLE SCHOOL,B,N
62.0,3.0,HARBISON AVE & SANGER ST,40.0166627066907,-75.0667537355837,SULLIVAN SCHOOL,N,N
62.0,4.0,BRIDGE & CHARLES STS,40.0196557138769,-75.0733809442432,MASTERY SMEDLEY CHARTER SCHOOL,A,L
62.0,5.0,4201 COMLY ST,40.0227483919756,-75.0634694759012,JOHNNIE'S RESTAURANT,M,L
62.0,6.0,5000 FRANKFORD AVE,40.0205342458186,-75.0806389270391,FRANKFORD HOSPITAL/CONF ROOM,B,L
62.0,7.0,5411 OXFORD AVE,40.0306122713177,-75.0843724875672,REGAL BALLROOM,M,L
62.0,8.0,5200 PENN ST,40.0245543574827,-75.0801414509041,MC ILVAIN RECREATION CENTER,B,L
62.0,9.0,BRIDGE & CHARLES STS,40.0196557138769,-75.0733809442432,MASTERY SMEDLEY CHARTER SCHOOL,A,L
62.0,10.0,5411 OXFORD AVE,40.0306122713177,-75.0843724875672,REGAL BALLROOM,M,L
62.0,11.0,5411 OXFORD AVE,40.0306122713177,-75.0843724875672,REGAL BALLROOM,M,L
62.0,12.0,5411 OXFORD AVE,40.0306122713177,-75.0843724875672,REGAL BALLROOM,M,L
62.0,13.0,CHELTENHAM & CHARLES ST,40.0219055827607,-75.069088418759,WISSINOMING RECREATION CENTER,F,L
62.0,14.0,1466 E CHELTENHAM AVE,40.0294414516748,-75.0811424336544,COFFEE SHOP,R,L
62.0,15.0,SAUL & COMLY STS,40.0306313474922,-75.075264574658,ZIEGLER SCHOOL NEW BUILDING,M,L
62.0,16.0,SAUL & COMLY STS,40.0306313474922,-75.075264574658,ZIEGLER SCHOOL NEW BUILDING,M,L
62.0,17.0,6101 FRANKFORD AVE,40.0267845270522,-75.064363583572,DISIMONE AUTO,M,L
62.0,18.0,4201 COMLY ST,40.0227483919756,-75.0634694759012,JOHNNIE'S RESTAURANT,M,L
62.0,19.0,4201 COMLY ST,40.0227483919756,-75.0634694759012,JOHNNIE'S RESTAURANT,M,L
62.0,20.0,SAUL & COMLY STS,40.0306313474922,-75.075264574658,ZIEGLER SCHOOL NEW BUILDING,M,L
62.0,21.0,SAUL & COMLY STS,40.0306313474922,-75.075264574658,ZIEGLER SCHOOL NEW BUILDING,M,L
62.0,22.0,6250 HARBISON AVE,40.028992531987,-75.0626543036551,AUTO PROS,M,N
62.0,23.0,SAUL & COMLY STS,40.0306313474922,-75.075264574658,ZIEGLER SCHOOL NEW BUILDING,M,L
62.0,24.0,SAUL & COMLY STS,40.0306313474922,-75.075264574658,ZIEGLER SCHOOL NEW BUILDING,M,L
62.0,25.0,6250 HARBISON AVE,40.028992531987,-75.0626543036551,AUTO PROS,M,N
62.0,26.0,6101 FRANKFORD AVE,40.0267845270522,-75.064363583572,DISIMONE AUTO,M,L
63.0,1.0,7976 OXFORD AVENUE,40.0768320858746,-75.0854909735947,LOUDENSLAGER POST # 366,B,L
63.0,2.0,7902 OXFORD AVENUE,40.0748293148006,-75.0855803805729,MEMORIAL PRESBYTERIAN CHURCH,F,L
63.0,3.0,JEANES & RHAWN STS,40.0765619840861,-75.0825012227343,FOXCHASE LIBRARY,M,L
63.0,4.0,RHAWN & VERREE RDS,40.0728857615199,-75.0759002048996,FIRE ENGINE CO # 56,M,L
63.0,5.0,7725 BINGHAM ST,40.0666301077591,-75.0759474034624,CHRIST MISSION APOSTOLIC FAITH,M,H
63.0,6.0,7725 BINGHAM ST,40.0666301077591,-75.0759474034624,CHRIST MISSION APOSTOLIC FAITH,M,H
63.0,7.0,8580 VERREE RD,40.0835390487921,-75.0657950345537,LAFAYETTE REDEEMER ROOM,M,H
63.0,8.0,CENTRAL & COTTMAN STREET,40.065276195802,-75.0903705876169,RYERS LIBRARY/BURHOME PARK,N,L
63.0,9.0,RHAWN & VERREE RD,40.0728857615199,-75.0759002048996,FIRE ENGINE CO # 56,M,L
63.0,10.0,8001 VERREE RD & RHAWN ST,40.0735397980765,-75.0738160321769,KNOWLTON MANSION,F,L
63.0,11.0,8580 VERREE ROAD,40.0835390487921,-75.0657950345537,LAFAYETTE REDEEMER ROOM,M,H
63.0,12.0,8001 VERREE RD & RHAWN ST,40.0735397980765,-75.0738160321769,KNOWLTON MANSION,F,L
63.0,13.0,JEANES & RHAWN STS,40.0765619840861,-75.0825012227343,FOXCHASE LIBRARY,M,L
63.0,14.0,441 HOFFNAGLE ST,40.0805723817751,-75.0789729110833,RESIDENCE,M,L
63.0,15.0,VERREE RD & ALBURGER AVE,40.0947810835591,-75.0507528895398,BALDI SCHOOL,M,L
63.0,16.0,934 ALBURGER AVE,40.0923728216545,-75.0487386809636,LEHIGH BAPTIST CHURCH,R,L
63.0,17.0,8600 A VERREE ROAD,40.0902252349584,-75.0571701554839,PENNYPACK ENVIRONMENTAL CENTER,F,L
63.0,18.0,SHARON LA & ALICIA ST,40.0961810493045,-75.0577022736843,GREENBERG SCHOOL,R,L
63.0,19.0,SHARON LA & ALICIA ST,40.0961810493045,-75.0577022736843,GREENBERG SCHOOL,R,L
63.0,20.0,VERREE RD & ALBURGER AVE,40.0947810835591,-75.0507528895398,BALDI SCHOOL,M,L
63.0,21.0,608 WELSH ROAD,40.1031581113736,-75.0521393518025,ST THOMAS SYRO MALABAR CHURCH,F,H
63.0,22.0,VERREE RD & ALBURGER AVE,40.0947810835591,-75.0507528895398,BALDI SCHOOL,M,L
63.0,23.0,8580 VERREE ROAD,40.0835390487921,-75.0657950345537,LAFAYETTE REDEEMER ROOM,M,H
63.0,24.0,VERREE RD & ALBURGER AVE,40.0947810835591,-75.0507528895398,BALDI SCHOOL,M,L
63.0,25.0,1104 WELSH RD,40.0895252432635,-75.0478222997738,CHAPEL MANOR NURSING HOME,M,L
64.0,1.0,FRANKFORD AVE & STANWOOD S,40.0429521519648,-75.0238842639066,T     BROWN SCHOOL,A,L
64.0,2.0,8040 ROWLAND AVE,40.04715551639,-75.0306699777531,PARK TERRACE APTS COMM ROOM,M,L
64.0,3.0,FRANKFORD AVE & STANWOOD S,40.0429521519648,-75.0238842639066,T     BROWN SCHOOL,A,L
64.0,4.0,FRANKFORD AVE & HARTEL ST,40.0404189549443,-75.0308434266245,FIRE ENGINE CO # 36,F,L
64.0,5.0,FRANKFORD AVE & HARTEL ST,40.0404189549443,-75.0308434266245,FIRE ENGINE CO # 36,F,L
64.0,6.0,7800 ROWLAND AVE,40.0444051964701,-75.0343764949324,LANSING KNIGHTS YOUTH CLUB,M,N
64.0,7.0,8205 ROOSEVELT BLVD,40.0599044202419,-75.0434657504952,FIRE ENGINE CO # 18,M,L
64.0,8.0,3201 RYAN AVE,40.0695744003999,-75.2040024356802,LINCOLN HIGH SCHOOL,F,H
64.0,9.0,3201 RYAN AVE,40.0695744003999,-75.2040024356802,LINCOLN HIGH SCHOOL,F,H
64.0,10.0,3201 RYAN AVE,40.0695744003999,-75.2040024356802,LINCOLN HIGH SCHOOL,F,H
64.0,11.0,3301 COTTMAN AVE,40.0396159154694,-75.0452968949886,FLUEHR FUNERAL HOME,M,L
64.0,12.0,HAWTHORNE & PRINCETON AVE,40.0384772548265,-75.0518001419437,MAYFAIR SCHOOL,A,L
64.0,13.0,3201 RYAN AVE,40.0695744003999,-75.2040024356802,LINCOLN HIGH SCHOOL,F,H
64.0,14.0,3201 RYAN AVE,40.0695744003999,-75.2040024356802,LINCOLN HIGH SCHOOL,F,H
64.0,15.0,8205 ROOSEVELT BLVD,40.0599044202419,-75.0434657504952,FIRE ENGINE CO # 18,M,L
64.0,16.0,3001 RYAN AVE,40.045883404212,-75.0437891935326,MEEHAN MIDDLE SCHOOL,M,L
64.0,17.0,3001 RYAN AVE,40.045883404212,-75.0437891935326,MEEHAN MIDDLE SCHOOL,M,L
64.0,18.0,3001 RYAN AVE,40.045883404212,-75.0437891935326,MEEHAN MIDDLE SCHOOL,M,L
65.0,1.0,4500 LINDEN AVE,40.0526121289701,-75.0037473550375,TORRESDALE YOUTH CLUB,F,L
65.0,2.0,4500 LINDEN AVE,40.0526121289701,-75.0037473550375,TORRESDALE YOUTH CLUB,F,L
65.0,3.0,FRANKFORD AVE & LINDEN ST,40.0547486958463,-75.0047956843789,FIRE ENGINE CO #46,M,L
65.0,4.0,5100 CONVENT LA///CLUBHOUS,40.0474768271161,-74.987162770976,E     BAKERS BAY CONDOMINIUMS,M,L
65.0,5.0,FRANKFORD AVE & LINDEN ST,40.0547486958463,-75.0047956843789,FIRE ENGINE CO #46,M,L
65.0,6.0,8001 TORRESDALE AVE,40.0350156037413,-75.024382182745,NEW FOUNDATIONS CHARTER SCHOOL,F,L
65.0,7.0,5200 LINDEN AVE,40.038834888181,-75.000717486137,LIBERTY EVANGELICAL CHURCH,M,L
65.0,8.0,8001 TORRESDALE AVE,40.0350156037413,-75.024382182745,NEW FOUNDATIONS CHARTER SCHOOL,F,N
65.0,9.0,8001 TORRESDALE AVE,40.0350156037413,-75.024382182745,NEW FOUNDATIONS CHARTER SCHOOL,F,N
65.0,10.0,STEVENSON & FRANKFORD AVE,40.0616331714107,-74.9883890219233,HOLY FAMILY EDUC TECH CTR,F,L
65.0,11.0,8001 TORRESDALE AVE,40.0350156037413,-75.024382182745,NEW FOUNDATIONS CHARTER SCHOOL,F,N
65.0,12.0,7212 KEYSTONE ST,40.0271312458126,-75.0342624184201,HOPE CHURCH HALL,M,L
65.0,13.0,4741 FRIENDSHIP ST,40.0280234053752,-75.0369168461834,TACONY & MAYFAIR SONS OF ITALY,M,N
65.0,14.0,COTTMAN & TORRESDALE AVES,40.0301174519283,-75.0351705092631,ST HUBERTS HIGH SCHOOL,R,N
65.0,15.0,7756 DITMAN ST,40.0349191249047,-75.028884364356,HOLMESBURG YOUTH CLUB,M,N
65.0,16.0,DITMAN & RHAWN STS,40.036256995388,-75.025863837379,HOLMESBURG RECREATION CENTER,F,L
65.0,17.0,DITMAN & RHAWN STS,40.036256995388,-75.025863837379,HOLMESBURG RECREATION CENTER,F,L
65.0,18.0,7811 FRANKFORD AVE,40.0403381315204,-75.0302892887271,FOUNTAIN OF LIFE CHURCH,M,N
65.0,19.0,7811 FRANKFORD AVE,40.0403381315204,-75.0302892887271,FOUNTAIN OF LIFE CHURCH,M,N
65.0,20.0,9355 STATE RD,40.0454193822243,-74.9861208895642,DELAIRE LANDING COMPLEX,B,L
65.0,21.0,7811 FRANKFORD AVE,40.0403381315204,-75.0302892887271,FOUNTAIN OF LIFE CHURCH,M,N
65.0,22.0,7756 DITMAN ST,40.0349191249047,-75.028884364356,HOLMESBURG YOUTH CLUB,M,N
65.0,23.0,FRANKFORD AVE & LINDEN ST,40.0547486958463,-75.0047956843789,FIRE ENGINE CO # 46,M,L
66.0,1.0,12273 TOWNSEND ROAD,40.1022830037276,-74.9838777100281,LOCAL # 5 UNION HALL,M,H
66.0,2.0,10980 NORCOM RD,40.0988365446003,-74.9975082537463,NORCOM COMMUNITY CENTER,F,H
66.0,3.0,ACADEMY & TORREY RDS,40.0963936929882,-74.9710174763759,DECATUR SCHOOL,M,L
66.0,4.0,ACADEMY & TORREY RDS,40.0963936929882,-74.9710174763759,FITZPATRICK REC CENTER,F,L
66.0,5.0,2980 SOUTHAMPTON RD,40.1041910160399,-74.9849872952408,I B P A T  DC # 21 UNION HALL,M,L
66.0,6.0,3301 MECHANICSVILLE RD,40.1061746218152,-74.9670298480615,PARKWOOD YOUTH CENTER,F,L
66.0,7.0,10980 NORCOM RD,40.0988365446003,-74.9975082537463,NORCOM COMMUNITY CENTER,F,H
66.0,8.0,COMLY & THORNTON RDS,40.095779200867,-74.9912657892142,PALMER RECREATION CENTER,B,L
66.0,9.0,DUNKS FERRY & MECHANICSVIL,,,LE    JUNOD RECREATION CENTER,F,L
66.0,10.0,9699 ACADEMY ROAD,40.074042233576,-75.0017785002239,USA AUTO PARTS,M,L
66.0,11.0,11201 ACADEMY RD,40.0851296173427,-74.9881709472252,ARCHBISHOP RYAN HIGH SCHOOL,F,L
66.0,12.0,12273 TOWNSEND ROAD,40.1022830037276,-74.9838777100281,LOCAL # 5 UNION HALL,M,H
66.0,13.0,ACADEMY & TORREY RDS,40.0963936929882,-74.9710174763759,FITZPATRICK REC CENTER,F,L
66.0,14.0,DUNKSFERRY & MECHANICSVILL,40.1028099669908,-74.9666674990564,E RD  JUNOD RECREATION CENTER,F,L
66.0,15.0,11301 ACADEMY ROAD,40.0853569360869,-74.987088979414,ST MARTHA'S GYMNASIUM,M,L
66.0,16.0,ACADEMY & TORREY RDS,40.0963936929882,-74.9710174763759,FITZPATRICK REC CENTER,F,L
66.0,17.0,ACADEMY & COMLY RDS,40.0899073729412,-74.9841800740218,FIRE ENGINE CO # 22,R,L
66.0,18.0,9951 ACADEMY ROAD,40.0772426263441,-74.9991712089718,CANTERBURY COURT RENTAL OFFICE,M,L
66.0,19.0,3745 CLARENDEN RD,,,SETTLEMENT MUSIC SCHOOL,F,L
66.0,20.0,4150 WOODHAVEN RD,40.08363151734,-74.9689561685781,FAITH LUTHERAN CHURCH,R,L
66.0,21.0,3745 CLARENDEN RD,,,SETTLEMENT MUSIC SCHOOL,F,L
66.0,22.0,ACADEMY & TORREY RDS,40.0963936929882,-74.9710174763759,DECATUR SCHOOL,M,L
66.0,23.0,ACADEMY & TORREY RDS,40.0963936929882,-74.9710174763759,DECATUR SCHOOL,M,L
66.0,24.0,11099 KNIGHTS RD,40.0840867026539,-74.9732424991048,KATHARINE DREXEL LIBRARY,B,L
66.0,25.0,11024 KNIGHTS RD,40.0793137663784,-74.9786078451067,OUR LADY OF CALVARY SCHOOL,M,L
66.0,26.0,MORRELL & W CROWN AVE,40.071592041509,-74.9876691312384,HANCOCK SCHOOL,R,L
66.0,27.0,MORRELL & W CROWN AVE,40.071592041509,-74.9876691312384,HANCOCK SCHOOL,R,L
66.0,28.0,MORRELL & W CROWN AVE,40.071592041509,-74.9876691312384,HANCOCK SCHOOL,R,L
66.0,29.0,4101 CHALFONT DRIVE,40.0802589391751,-74.9760056782684,SCHOOL DISTRICT OFFICE,R,N
66.0,30.0,CHALFONT DR & DEERPATH LA,40.0789026681559,-74.9736151771507,CHALFONT RECREATION CENTER,F,L
66.0,31.0,RED LION & CALERA RDS,40.0794737423731,-74.9917616000528,PICARIELLO RECREATION CENTER,B,L
66.0,32.0,10851 CALERA RD,40.0810370859826,-74.9887022895005,NEW LIBERTY BELL YOUTH CLUB,M,L
66.0,33.0,CHALFONT DR & DEERPATH LA,40.0789026681559,-74.9736151771507,CHALFONT RECREATION CENTER,F,L
66.0,34.0,3301 MECHANICSVILLE RD,40.1061746218152,-74.9670298480615,PARKWOOD YOUTH CENTER,F,L
66.0,35.0,RED LION & CALERA RDS,40.0794737423731,-74.9917616000528,PICARIELLO RECREATION CENTER,B,L
66.0,36.0,HAWLEY & BROOKVIEW RDS,40.0808032273411,-74.9870271771234,LABRUM SCHOOL,R,L
66.0,37.0,RED LION & CALERA RDS,40.0794737423731,-74.9917616000528,PICARIELLO RECREATION CENTER,B,L
66.0,38.0,ACADEMY & TORREY RDS,40.0963936929882,-74.9710174763759,DECATUR SCHOOL,M,L
66.0,39.0,11080 KNIGHTS RD,40.0829569386485,-74.9754769762937,ST LUKES U C CHURCH,A,L
66.0,40.0,10851 CALERA RD,40.0810370859826,-74.9887022895005,NEW LIBERTY BELL YOUTH CLUB,M,L
66.0,41.0,3323 FAIRDALE RD,40.0963917050927,-74.9788538789129,RESIDENCE,B,N
66.0,42.0,11080 KNIGHTS RD,40.0829569386485,-74.9754769762937,ST LUKES U C CHURCH,A,L
66.0,43.0,CHALFONT DR & DEERPATH LA,40.0789026681559,-74.9736151771507,CHALFONT RECREATION CENTER,F,L
66.0,44.0,11099 KNIGHTS ROAD,40.0840867026539,-74.9732424991048,KATHARINE DREXEL LIBRARY,B,L
66.0,45.0,BROOKVIEW & HAWLEY RDS,40.0808032273411,-74.9870271771234,LABRUM SCHOOL,R,L
66.0,46.0,11024 KNIGHTS RD,40.0793137663784,-74.9786078451067,OUR LADY OF CALVARY SCHOOL,M,L
